<?xml version="1.0" encoding="UTF-8"?>
<gpx version="1.1" creator="gpx-processor" xmlns="http://www.topografix.com/GPX/1/1">
  <metadata><name>Kop van Zuid - Rotterdam</name></metadata>
  <trk>
    <name>Kop van Zuid - Rotterdam</name>
    <trkseg>
      <trkpt lat="51.911999" lon="4.481931"><ele>-5.0</ele></trkpt>
      <trkpt lat="51.912248" lon="4.482032"><ele>-5.0</ele></trkpt>
      <trkpt lat="51.911968" lon="4.482365"><ele>-1.0</ele></trkpt>
      <trkpt lat="51.911657" lon="4.482190"><ele>-2.0</ele></trkpt>
      <trkpt lat="51.911315" lon="4.482289"><ele>-2.0</ele></trkpt>
      <trkpt lat="51.910835" lon="4.482617"><ele>-2.0</ele></trkpt>
      <trkpt lat="51.910543" lon="4.483085"><ele>-4.0</ele></trkpt>
      <trkpt lat="51.907500" lon="4.490727"><ele>-1.0</ele></trkpt>
      <trkpt lat="51.907574" lon="4.491380"><ele>-1.0</ele></trkpt>
      <trkpt lat="51.908116" lon="4.492232"><ele>-1.0</ele></trkpt>
      <trkpt lat="51.908207" lon="4.492663"><ele>-1.0</ele></trkpt>
      <trkpt lat="51.908020" lon="4.493523"><ele>-1.0</ele></trkpt>
      <trkpt lat="51.907644" lon="4.494706"><ele>-1.0</ele></trkpt>
      <trkpt lat="51.907436" lon="4.494957"><ele>-1.0</ele></trkpt>
      <trkpt lat="51.907173" lon="4.495733"><ele>-1.0</ele></trkpt>
      <trkpt lat="51.906263" lon="4.497623"><ele>-0.0</ele></trkpt>
      <trkpt lat="51.905808" lon="4.498990"><ele>-1.0</ele></trkpt>
      <trkpt lat="51.905110" lon="4.500659"><ele>2.0</ele></trkpt>
      <trkpt lat="51.904114" lon="4.502563"><ele>2.0</ele></trkpt>
      <trkpt lat="51.903238" lon="4.504792"><ele>1.0</ele></trkpt>
      <trkpt lat="51.903085" lon="4.505514"><ele>1.0</ele></trkpt>
      <trkpt lat="51.901026" lon="4.510443"><ele>1.0</ele></trkpt>
      <trkpt lat="51.900001" lon="4.512379"><ele>1.0</ele></trkpt>
      <trkpt lat="51.898615" lon="4.515628"><ele>0.0</ele></trkpt>
      <trkpt lat="51.897404" lon="4.517175"><ele>0.0</ele></trkpt>
      <trkpt lat="51.897217" lon="4.517612"><ele>1.0</ele></trkpt>
      <trkpt lat="51.896852" lon="4.519877"><ele>2.0</ele></trkpt>
      <trkpt lat="51.896486" lon="4.521560"><ele>2.0</ele></trkpt>
      <trkpt lat="51.896314" lon="4.522917"><ele>2.0</ele></trkpt>
      <trkpt lat="51.896025" lon="4.523712"><ele>2.0</ele></trkpt>
      <trkpt lat="51.895746" lon="4.524815"><ele>2.0</ele></trkpt>
      <trkpt lat="51.894910" lon="4.528970"><ele>2.0</ele></trkpt>
      <trkpt lat="51.895131" lon="4.530860"><ele>1.0</ele></trkpt>
      <trkpt lat="51.895130" lon="4.531579"><ele>-0.0</ele></trkpt>
      <trkpt lat="51.895570" lon="4.534470"><ele>-0.0</ele></trkpt>
      <trkpt lat="51.896141" lon="4.539550"><ele>0.0</ele></trkpt>
      <trkpt lat="51.896104" lon="4.540446"><ele>-0.0</ele></trkpt>
      <trkpt lat="51.896208" lon="4.544234"><ele>1.0</ele></trkpt>
      <trkpt lat="51.896141" lon="4.544825"><ele>1.0</ele></trkpt>
      <trkpt lat="51.895938" lon="4.545134"><ele>0.0</ele></trkpt>
      <trkpt lat="51.895415" lon="4.545525"><ele>2.0</ele></trkpt>
      <trkpt lat="51.894425" lon="4.545258"><ele>-0.0</ele></trkpt>
      <trkpt lat="51.892892" lon="4.545724"><ele>-4.0</ele></trkpt>
      <trkpt lat="51.891598" lon="4.545299"><ele>-5.0</ele></trkpt>
      <trkpt lat="51.890393" lon="4.544690"><ele>-5.0</ele></trkpt>
      <trkpt lat="51.889668" lon="4.544476"><ele>-5.0</ele></trkpt>
      <trkpt lat="51.888759" lon="4.543777"><ele>-5.0</ele></trkpt>
      <trkpt lat="51.888267" lon="4.543525"><ele>-5.0</ele></trkpt>
      <trkpt lat="51.887990" lon="4.542990"><ele>-4.0</ele></trkpt>
      <trkpt lat="51.887175" lon="4.542083"><ele>-5.0</ele></trkpt>
      <trkpt lat="51.887233" lon="4.541661"><ele>-5.0</ele></trkpt>
      <trkpt lat="51.887080" lon="4.540553"><ele>-5.0</ele></trkpt>
      <trkpt lat="51.887106" lon="4.539437"><ele>-5.0</ele></trkpt>
      <trkpt lat="51.886784" lon="4.534541"><ele>-6.0</ele></trkpt>
      <trkpt lat="51.886840" lon="4.534088"><ele>-6.0</ele></trkpt>
      <trkpt lat="51.886800" lon="4.532639"><ele>-5.0</ele></trkpt>
      <trkpt lat="51.886612" lon="4.529544"><ele>-5.0</ele></trkpt>
      <trkpt lat="51.886463" lon="4.529401"><ele>-5.0</ele></trkpt>
      <trkpt lat="51.885843" lon="4.529473"><ele>-4.0</ele></trkpt>
      <trkpt lat="51.885234" lon="4.529781"><ele>-4.0</ele></trkpt>
      <trkpt lat="51.883388" lon="4.531584"><ele>-5.0</ele></trkpt>
      <trkpt lat="51.882235" lon="4.532562"><ele>-5.0</ele></trkpt>
      <trkpt lat="51.881612" lon="4.533406"><ele>-6.0</ele></trkpt>
      <trkpt lat="51.881057" lon="4.533689"><ele>-6.0</ele></trkpt>
      <trkpt lat="51.880272" lon="4.531683"><ele>-6.0</ele></trkpt>
      <trkpt lat="51.879967" lon="4.531135"><ele>-1.0</ele></trkpt>
      <trkpt lat="51.880029" lon="4.531028"><ele>0.0</ele></trkpt>
      <trkpt lat="51.880012" lon="4.530798"><ele>-6.0</ele></trkpt>
      <trkpt lat="51.878588" lon="4.527093"><ele>-6.0</ele></trkpt>
      <trkpt lat="51.877589" lon="4.523909"><ele>-6.0</ele></trkpt>
      <trkpt lat="51.877322" lon="4.523269"><ele>-6.0</ele></trkpt>
      <trkpt lat="51.877112" lon="4.522142"><ele>-6.0</ele></trkpt>
      <trkpt lat="51.876542" lon="4.522132"><ele>-5.0</ele></trkpt>
      <trkpt lat="51.876240" lon="4.522362"><ele>-5.0</ele></trkpt>
      <trkpt lat="51.875512" lon="4.522552"><ele>-4.0</ele></trkpt>
      <trkpt lat="51.874359" lon="4.523708"><ele>-5.0</ele></trkpt>
      <trkpt lat="51.874155" lon="4.523774"><ele>-5.0</ele></trkpt>
      <trkpt lat="51.873346" lon="4.524464"><ele>-5.0</ele></trkpt>
      <trkpt lat="51.873190" lon="4.524686"><ele>-5.0</ele></trkpt>
      <trkpt lat="51.872555" lon="4.526716"><ele>-5.0</ele></trkpt>
      <trkpt lat="51.872015" lon="4.528048"><ele>-6.0</ele></trkpt>
      <trkpt lat="51.871164" lon="4.528723"><ele>-6.0</ele></trkpt>
      <trkpt lat="51.871033" lon="4.528593"><ele>-6.0</ele></trkpt>
      <trkpt lat="51.869913" lon="4.526106"><ele>-5.0</ele></trkpt>
      <trkpt lat="51.869621" lon="4.525229"><ele>-5.0</ele></trkpt>
      <trkpt lat="51.869278" lon="4.523388"><ele>-5.0</ele></trkpt>
      <trkpt lat="51.869096" lon="4.522963"><ele>-5.0</ele></trkpt>
      <trkpt lat="51.869077" lon="4.522699"><ele>-5.0</ele></trkpt>
      <trkpt lat="51.869191" lon="4.516637"><ele>-4.0</ele></trkpt>
      <trkpt lat="51.869125" lon="4.515109"><ele>1.0</ele></trkpt>
      <trkpt lat="51.869181" lon="4.509108"><ele>-4.0</ele></trkpt>
      <trkpt lat="51.869097" lon="4.507773"><ele>-4.0</ele></trkpt>
      <trkpt lat="51.869144" lon="4.499972"><ele>-4.0</ele></trkpt>
      <trkpt lat="51.869032" lon="4.499506"><ele>-4.0</ele></trkpt>
      <trkpt lat="51.869050" lon="4.497054"><ele>-4.0</ele></trkpt>
      <trkpt lat="51.869145" lon="4.495084"><ele>-5.0</ele></trkpt>
      <trkpt lat="51.869072" lon="4.493454"><ele>-4.0</ele></trkpt>
      <trkpt lat="51.869131" lon="4.486831"><ele>-4.0</ele></trkpt>
      <trkpt lat="51.869045" lon="4.480223"><ele>-5.0</ele></trkpt>
      <trkpt lat="51.869098" lon="4.477063"><ele>-4.0</ele></trkpt>
      <trkpt lat="51.869334" lon="4.476935"><ele>-4.0</ele></trkpt>
      <trkpt lat="51.870064" lon="4.477218"><ele>-5.0</ele></trkpt>
      <trkpt lat="51.870692" lon="4.477286"><ele>-4.0</ele></trkpt>
      <trkpt lat="51.871444" lon="4.477597"><ele>-4.0</ele></trkpt>
      <trkpt lat="51.872012" lon="4.477574"><ele>-5.0</ele></trkpt>
      <trkpt lat="51.873549" lon="4.477931"><ele>-5.0</ele></trkpt>
      <trkpt lat="51.873821" lon="4.478135"><ele>-4.0</ele></trkpt>
      <trkpt lat="51.873610" lon="4.480169"><ele>-4.0</ele></trkpt>
      <trkpt lat="51.873386" lon="4.483942"><ele>-5.0</ele></trkpt>
      <trkpt lat="51.873393" lon="4.484724"><ele>-5.0</ele></trkpt>
      <trkpt lat="51.873542" lon="4.485706"><ele>-5.0</ele></trkpt>
      <trkpt lat="51.873465" lon="4.487981"><ele>-4.0</ele></trkpt>
      <trkpt lat="51.873521" lon="4.490583"><ele>-4.0</ele></trkpt>
      <trkpt lat="51.873700" lon="4.492549"><ele>-5.0</ele></trkpt>
      <trkpt lat="51.873568" lon="4.491977"><ele>-4.0</ele></trkpt>
      <trkpt lat="51.873530" lon="4.490271"><ele>-4.0</ele></trkpt>
      <trkpt lat="51.873385" lon="4.488219"><ele>-4.0</ele></trkpt>
      <trkpt lat="51.873459" lon="4.487373"><ele>-4.0</ele></trkpt>
      <trkpt lat="51.873384" lon="4.486419"><ele>-5.0</ele></trkpt>
      <trkpt lat="51.873466" lon="4.484411"><ele>-5.0</ele></trkpt>
      <trkpt lat="51.873449" lon="4.482742"><ele>-5.0</ele></trkpt>
      <trkpt lat="51.873581" lon="4.481669"><ele>-5.0</ele></trkpt>
      <trkpt lat="51.873589" lon="4.480636"><ele>-4.0</ele></trkpt>
      <trkpt lat="51.873891" lon="4.478208"><ele>-4.0</ele></trkpt>
      <trkpt lat="51.874012" lon="4.478031"><ele>-4.0</ele></trkpt>
      <trkpt lat="51.875094" lon="4.478305"><ele>-4.0</ele></trkpt>
      <trkpt lat="51.875776" lon="4.478562"><ele>-4.0</ele></trkpt>
      <trkpt lat="51.876516" lon="4.478685"><ele>-4.0</ele></trkpt>
      <trkpt lat="51.877277" lon="4.479107"><ele>-3.0</ele></trkpt>
      <trkpt lat="51.877439" lon="4.480430"><ele>-5.0</ele></trkpt>
      <trkpt lat="51.877105" lon="4.483356"><ele>-5.0</ele></trkpt>
      <trkpt lat="51.877021" lon="4.487917"><ele>-5.0</ele></trkpt>
      <trkpt lat="51.877098" lon="4.489505"><ele>-5.0</ele></trkpt>
      <trkpt lat="51.877316" lon="4.490871"><ele>-3.0</ele></trkpt>
      <trkpt lat="51.878136" lon="4.494611"><ele>-5.0</ele></trkpt>
      <trkpt lat="51.878369" lon="4.495352"><ele>-5.0</ele></trkpt>
      <trkpt lat="51.879559" lon="4.497965"><ele>-3.0</ele></trkpt>
      <trkpt lat="51.879891" lon="4.498464"><ele>-3.0</ele></trkpt>
      <trkpt lat="51.880317" lon="4.499589"><ele>-3.0</ele></trkpt>
      <trkpt lat="51.880788" lon="4.500513"><ele>-3.0</ele></trkpt>
      <trkpt lat="51.880883" lon="4.500526"><ele>-3.0</ele></trkpt>
      <trkpt lat="51.881707" lon="4.499275"><ele>-5.0</ele></trkpt>
      <trkpt lat="51.882393" lon="4.498472"><ele>-3.0</ele></trkpt>
      <trkpt lat="51.882990" lon="4.497427"><ele>-4.0</ele></trkpt>
      <trkpt lat="51.883909" lon="4.494120"><ele>-5.0</ele></trkpt>
      <trkpt lat="51.884357" lon="4.492856"><ele>-4.0</ele></trkpt>
      <trkpt lat="51.884766" lon="4.492043"><ele>-3.0</ele></trkpt>
      <trkpt lat="51.884749" lon="4.491626"><ele>-3.0</ele></trkpt>
      <trkpt lat="51.884473" lon="4.490429"><ele>-3.0</ele></trkpt>
      <trkpt lat="51.884354" lon="4.487187"><ele>-3.0</ele></trkpt>
      <trkpt lat="51.884249" lon="4.486175"><ele>-3.0</ele></trkpt>
      <trkpt lat="51.883781" lon="4.484446"><ele>-3.0</ele></trkpt>
      <trkpt lat="51.883736" lon="4.483796"><ele>-3.0</ele></trkpt>
      <trkpt lat="51.883240" lon="4.482713"><ele>-3.0</ele></trkpt>
      <trkpt lat="51.882531" lon="4.481522"><ele>-2.0</ele></trkpt>
      <trkpt lat="51.881169" lon="4.480267"><ele>-3.0</ele></trkpt>
      <trkpt lat="51.880398" lon="4.479797"><ele>-4.0</ele></trkpt>
      <trkpt lat="51.878257" lon="4.479092"><ele>-4.0</ele></trkpt>
      <trkpt lat="51.877603" lon="4.478725"><ele>-2.0</ele></trkpt>
      <trkpt lat="51.877643" lon="4.477164"><ele>-3.0</ele></trkpt>
      <trkpt lat="51.878119" lon="4.473476"><ele>-5.0</ele></trkpt>
      <trkpt lat="51.878173" lon="4.472393"><ele>-5.0</ele></trkpt>
      <trkpt lat="51.878532" lon="4.469472"><ele>-5.0</ele></trkpt>
      <trkpt lat="51.878592" lon="4.468326"><ele>-3.0</ele></trkpt>
      <trkpt lat="51.878853" lon="4.466848"><ele>-3.0</ele></trkpt>
      <trkpt lat="51.879048" lon="4.466467"><ele>-3.0</ele></trkpt>
      <trkpt lat="51.879384" lon="4.466744"><ele>-3.0</ele></trkpt>
      <trkpt lat="51.880981" lon="4.469411"><ele>-5.0</ele></trkpt>
      <trkpt lat="51.881533" lon="4.470066"><ele>-5.0</ele></trkpt>
      <trkpt lat="51.882037" lon="4.470496"><ele>-5.0</ele></trkpt>
      <trkpt lat="51.882586" lon="4.470859"><ele>-5.0</ele></trkpt>
      <trkpt lat="51.883759" lon="4.471317"><ele>-5.0</ele></trkpt>
      <trkpt lat="51.884368" lon="4.471338"><ele>-5.0</ele></trkpt>
      <trkpt lat="51.886399" lon="4.471823"><ele>-5.0</ele></trkpt>
      <trkpt lat="51.887175" lon="4.471837"><ele>-3.0</ele></trkpt>
      <trkpt lat="51.889374" lon="4.472268"><ele>-3.0</ele></trkpt>
      <trkpt lat="51.891921" lon="4.474146"><ele>-2.0</ele></trkpt>
      <trkpt lat="51.892510" lon="4.475412"><ele>-2.0</ele></trkpt>
      <trkpt lat="51.893374" lon="4.476669"><ele>1.0</ele></trkpt>
      <trkpt lat="51.894307" lon="4.480298"><ele>0.0</ele></trkpt>
      <trkpt lat="51.894593" lon="4.481072"><ele>0.0</ele></trkpt>
      <trkpt lat="51.894833" lon="4.482453"><ele>0.0</ele></trkpt>
      <trkpt lat="51.895076" lon="4.482978"><ele>0.0</ele></trkpt>
      <trkpt lat="51.895485" lon="4.485225"><ele>1.0</ele></trkpt>
      <trkpt lat="51.895945" lon="4.486366"><ele>1.0</ele></trkpt>
      <trkpt lat="51.895986" lon="4.487444"><ele>2.0</ele></trkpt>
      <trkpt lat="51.896248" lon="4.489159"><ele>2.0</ele></trkpt>
      <trkpt lat="51.896411" lon="4.489560"><ele>1.0</ele></trkpt>
      <trkpt lat="51.896651" lon="4.490808"><ele>1.0</ele></trkpt>
      <trkpt lat="51.896761" lon="4.492152"><ele>0.0</ele></trkpt>
      <trkpt lat="51.897067" lon="4.493242"><ele>-0.0</ele></trkpt>
      <trkpt lat="51.897097" lon="4.493654"><ele>-0.0</ele></trkpt>
      <trkpt lat="51.897499" lon="4.494663"><ele>0.0</ele></trkpt>
      <trkpt lat="51.897610" lon="4.495550"><ele>1.0</ele></trkpt>
      <trkpt lat="51.897973" lon="4.497311"><ele>-1.0</ele></trkpt>
      <trkpt lat="51.898336" lon="4.499822"><ele>-2.0</ele></trkpt>
      <trkpt lat="51.898358" lon="4.501152"><ele>-3.0</ele></trkpt>
      <trkpt lat="51.898451" lon="4.502062"><ele>-3.0</ele></trkpt>
      <trkpt lat="51.898375" lon="4.502711"><ele>-1.0</ele></trkpt>
      <trkpt lat="51.898468" lon="4.503280"><ele>-0.0</ele></trkpt>
      <trkpt lat="51.898409" lon="4.503793"><ele>-0.0</ele></trkpt>
      <trkpt lat="51.898483" lon="4.505713"><ele>2.0</ele></trkpt>
      <trkpt lat="51.898762" lon="4.507783"><ele>2.0</ele></trkpt>
      <trkpt lat="51.898989" lon="4.508716"><ele>1.0</ele></trkpt>
      <trkpt lat="51.899396" lon="4.509739"><ele>1.0</ele></trkpt>
      <trkpt lat="51.899669" lon="4.510192"><ele>2.0</ele></trkpt>
      <trkpt lat="51.900415" lon="4.511062"><ele>1.0</ele></trkpt>
      <trkpt lat="51.900582" lon="4.511059"><ele>1.0</ele></trkpt>
      <trkpt lat="51.900991" lon="4.510309"><ele>2.0</ele></trkpt>
      <trkpt lat="51.901866" lon="4.508131"><ele>1.0</ele></trkpt>
      <trkpt lat="51.902335" lon="4.507169"><ele>1.0</ele></trkpt>
      <trkpt lat="51.903120" lon="4.504861"><ele>0.0</ele></trkpt>
      <trkpt lat="51.903964" lon="4.502900"><ele>1.0</ele></trkpt>
      <trkpt lat="51.904341" lon="4.501729"><ele>2.0</ele></trkpt>
      <trkpt lat="51.904716" lon="4.501045"><ele>2.0</ele></trkpt>
      <trkpt lat="51.905516" lon="4.498975"><ele>-1.0</ele></trkpt>
      <trkpt lat="51.905959" lon="4.498196"><ele>-1.0</ele></trkpt>
      <trkpt lat="51.906125" lon="4.497754"><ele>-1.0</ele></trkpt>
      <trkpt lat="51.906290" lon="4.496821"><ele>-1.0</ele></trkpt>
      <trkpt lat="51.906426" lon="4.496648"><ele>-1.0</ele></trkpt>
      <trkpt lat="51.906562" lon="4.496030"><ele>-1.0</ele></trkpt>
      <trkpt lat="51.907434" lon="4.494400"><ele>-1.0</ele></trkpt>
      <trkpt lat="51.907559" lon="4.493369"><ele>-1.0</ele></trkpt>
      <trkpt lat="51.907893" lon="4.492701"><ele>-1.0</ele></trkpt>
      <trkpt lat="51.907959" lon="4.492256"><ele>-1.0</ele></trkpt>
      <trkpt lat="51.907465" lon="4.491284"><ele>-1.0</ele></trkpt>
      <trkpt lat="51.907497" lon="4.490800"><ele>-1.0</ele></trkpt>
      <trkpt lat="51.908381" lon="4.488789"><ele>-4.0</ele></trkpt>
      <trkpt lat="51.908633" lon="4.487839"><ele>-4.0</ele></trkpt>
      <trkpt lat="51.909962" lon="4.484903"><ele>-4.0</ele></trkpt>
      <trkpt lat="51.910591" lon="4.483201"><ele>-4.0</ele></trkpt>
      <trkpt lat="51.910980" lon="4.482711"><ele>-2.0</ele></trkpt>
      <trkpt lat="51.912162" lon="4.482189"><ele>-1.0</ele></trkpt>
      <trkpt lat="51.912435" lon="4.481863"><ele>-0.0</ele></trkpt>
      <trkpt lat="51.913098" lon="4.481739"><ele>-2.0</ele></trkpt>
      <trkpt lat="51.913680" lon="4.482077"><ele>-2.0</ele></trkpt>
      <trkpt lat="51.913950" lon="4.482086"><ele>-2.0</ele></trkpt>
      <trkpt lat="51.914577" lon="4.481895"><ele>-2.0</ele></trkpt>
      <trkpt lat="51.916722" lon="4.481680"><ele>-2.0</ele></trkpt>
      <trkpt lat="51.917400" lon="4.481122"><ele>-1.0</ele></trkpt>
      <trkpt lat="51.917569" lon="4.480854"><ele>-1.0</ele></trkpt>
      <trkpt lat="51.917545" lon="4.480565"><ele>-1.0</ele></trkpt>
      <trkpt lat="51.917241" lon="4.480025"><ele>-1.0</ele></trkpt>
      <trkpt lat="51.917043" lon="4.478847"><ele>-2.0</ele></trkpt>
      <trkpt lat="51.917121" lon="4.478753"><ele>-2.0</ele></trkpt>
      <trkpt lat="51.917679" lon="4.479980"><ele>-1.0</ele></trkpt>
      <trkpt lat="51.917713" lon="4.480634"><ele>-1.0</ele></trkpt>
      <trkpt lat="51.918093" lon="4.481748"><ele>0.0</ele></trkpt>
      <trkpt lat="51.918070" lon="4.482062"><ele>-0.0</ele></trkpt>
      <trkpt lat="51.918193" lon="4.482815"><ele>-0.0</ele></trkpt>
      <trkpt lat="51.918434" lon="4.483565"><ele>-0.0</ele></trkpt>
      <trkpt lat="51.918451" lon="4.484222"><ele>-0.0</ele></trkpt>
      <trkpt lat="51.918737" lon="4.485332"><ele>-0.0</ele></trkpt>
      <trkpt lat="51.918861" lon="4.486302"><ele>-1.0</ele></trkpt>
      <trkpt lat="51.919072" lon="4.486855"><ele>-1.0</ele></trkpt>
      <trkpt lat="51.919397" lon="4.488500"><ele>-1.0</ele></trkpt>
      <trkpt lat="51.919698" lon="4.489437"><ele>-1.0</ele></trkpt>
      <trkpt lat="51.920404" lon="4.490864"><ele>1.0</ele></trkpt>
      <trkpt lat="51.920889" lon="4.490511"><ele>0.0</ele></trkpt>
      <trkpt lat="51.921354" lon="4.489965"><ele>0.0</ele></trkpt>
      <trkpt lat="51.921656" lon="4.489886"><ele>-1.0</ele></trkpt>
      <trkpt lat="51.922941" lon="4.489130"><ele>-3.0</ele></trkpt>
      <trkpt lat="51.923236" lon="4.489078"><ele>-4.0</ele></trkpt>
      <trkpt lat="51.923997" lon="4.488573"><ele>-4.0</ele></trkpt>
      <trkpt lat="51.926025" lon="4.488867"><ele>-4.0</ele></trkpt>
      <trkpt lat="51.926147" lon="4.489016"><ele>-4.0</ele></trkpt>
      <trkpt lat="51.925892" lon="4.494383"><ele>-4.0</ele></trkpt>
      <trkpt lat="51.925968" lon="4.495094"><ele>-4.0</ele></trkpt>
      <trkpt lat="51.926293" lon="4.496086"><ele>-4.0</ele></trkpt>
      <trkpt lat="51.926816" lon="4.496187"><ele>-4.0</ele></trkpt>
      <trkpt lat="51.927228" lon="4.496083"><ele>-4.0</ele></trkpt>
      <trkpt lat="51.927573" lon="4.496196"><ele>-4.0</ele></trkpt>
      <trkpt lat="51.927973" lon="4.496135"><ele>-4.0</ele></trkpt>
      <trkpt lat="51.928581" lon="4.496389"><ele>-4.0</ele></trkpt>
      <trkpt lat="51.929047" lon="4.496861"><ele>-4.0</ele></trkpt>
      <trkpt lat="51.929249" lon="4.496946"><ele>-4.0</ele></trkpt>
      <trkpt lat="51.929913" lon="4.496814"><ele>-4.0</ele></trkpt>
      <trkpt lat="51.930247" lon="4.496930"><ele>-5.0</ele></trkpt>
      <trkpt lat="51.930548" lon="4.497231"><ele>-5.0</ele></trkpt>
      <trkpt lat="51.931219" lon="4.497459"><ele>-4.0</ele></trkpt>
      <trkpt lat="51.932411" lon="4.497523"><ele>-4.0</ele></trkpt>
      <trkpt lat="51.932813" lon="4.497764"><ele>-4.0</ele></trkpt>
      <trkpt lat="51.936160" lon="4.498582"><ele>-4.0</ele></trkpt>
      <trkpt lat="51.936573" lon="4.498935"><ele>-4.0</ele></trkpt>
      <trkpt lat="51.936648" lon="4.499323"><ele>-4.0</ele></trkpt>
      <trkpt lat="51.937220" lon="4.500398"><ele>-4.0</ele></trkpt>
      <trkpt lat="51.938148" lon="4.501572"><ele>-2.0</ele></trkpt>
      <trkpt lat="51.941432" lon="4.503835"><ele>-2.0</ele></trkpt>
      <trkpt lat="51.942349" lon="4.504886"><ele>-2.0</ele></trkpt>
      <trkpt lat="51.942888" lon="4.505918"><ele>-5.0</ele></trkpt>
      <trkpt lat="51.943725" lon="4.507923"><ele>-5.0</ele></trkpt>
      <trkpt lat="51.945014" lon="4.511921"><ele>-6.0</ele></trkpt>
      <trkpt lat="51.945270" lon="4.512993"><ele>-6.0</ele></trkpt>
      <trkpt lat="51.945576" lon="4.513799"><ele>-6.0</ele></trkpt>
      <trkpt lat="51.946070" lon="4.515835"><ele>-6.0</ele></trkpt>
      <trkpt lat="51.946376" lon="4.517241"><ele>-6.0</ele></trkpt>
      <trkpt lat="51.946632" lon="4.519034"><ele>-6.0</ele></trkpt>
      <trkpt lat="51.946617" lon="4.520738"><ele>-6.0</ele></trkpt>
      <trkpt lat="51.946434" lon="4.521925"><ele>-7.0</ele></trkpt>
      <trkpt lat="51.946233" lon="4.522867"><ele>-7.0</ele></trkpt>
      <trkpt lat="51.945346" lon="4.525820"><ele>-7.0</ele></trkpt>
      <trkpt lat="51.945000" lon="4.527248"><ele>-8.0</ele></trkpt>
      <trkpt lat="51.943819" lon="4.527554"><ele>-10.0</ele></trkpt>
      <trkpt lat="51.942944" lon="4.528251"><ele>-10.0</ele></trkpt>
      <trkpt lat="51.942145" lon="4.528697"><ele>-9.0</ele></trkpt>
      <trkpt lat="51.940341" lon="4.529395"><ele>-9.0</ele></trkpt>
      <trkpt lat="51.937683" lon="4.530672"><ele>-9.0</ele></trkpt>
      <trkpt lat="51.936153" lon="4.531143"><ele>-10.0</ele></trkpt>
      <trkpt lat="51.935469" lon="4.531587"><ele>-10.0</ele></trkpt>
      <trkpt lat="51.934162" lon="4.532044"><ele>-10.0</ele></trkpt>
      <trkpt lat="51.933597" lon="4.532416"><ele>-9.0</ele></trkpt>
      <trkpt lat="51.932701" lon="4.532768"><ele>-11.0</ele></trkpt>
      <trkpt lat="51.932407" lon="4.532757"><ele>-11.0</ele></trkpt>
      <trkpt lat="51.932123" lon="4.532969"><ele>-11.0</ele></trkpt>
      <trkpt lat="51.931947" lon="4.532933"><ele>-11.0</ele></trkpt>
      <trkpt lat="51.931259" lon="4.533375"><ele>-11.0</ele></trkpt>
      <trkpt lat="51.930060" lon="4.533772"><ele>-11.0</ele></trkpt>
      <trkpt lat="51.929326" lon="4.534198"><ele>-11.0</ele></trkpt>
      <trkpt lat="51.928246" lon="4.534323"><ele>-10.0</ele></trkpt>
      <trkpt lat="51.927599" lon="4.534283"><ele>-9.0</ele></trkpt>
      <trkpt lat="51.927483" lon="4.534181"><ele>-9.0</ele></trkpt>
      <trkpt lat="51.927188" lon="4.533120"><ele>-8.0</ele></trkpt>
      <trkpt lat="51.926282" lon="4.526894"><ele>-5.0</ele></trkpt>
      <trkpt lat="51.926783" lon="4.523684"><ele>-5.0</ele></trkpt>
      <trkpt lat="51.927254" lon="4.519669"><ele>-5.0</ele></trkpt>
      <trkpt lat="51.927572" lon="4.518185"><ele>-6.0</ele></trkpt>
      <trkpt lat="51.928368" lon="4.516260"><ele>-5.0</ele></trkpt>
      <trkpt lat="51.928949" lon="4.515191"><ele>-5.0</ele></trkpt>
      <trkpt lat="51.929665" lon="4.514192"><ele>-5.0</ele></trkpt>
      <trkpt lat="51.930295" lon="4.512962"><ele>-5.0</ele></trkpt>
      <trkpt lat="51.931036" lon="4.511048"><ele>-6.0</ele></trkpt>
      <trkpt lat="51.931319" lon="4.510027"><ele>-4.0</ele></trkpt>
      <trkpt lat="51.931799" lon="4.508958"><ele>-4.0</ele></trkpt>
      <trkpt lat="51.932274" lon="4.507593"><ele>-5.0</ele></trkpt>
      <trkpt lat="51.933062" lon="4.504932"><ele>-4.0</ele></trkpt>
      <trkpt lat="51.933739" lon="4.503274"><ele>-4.0</ele></trkpt>
      <trkpt lat="51.933997" lon="4.502315"><ele>-4.0</ele></trkpt>
      <trkpt lat="51.934513" lon="4.501403"><ele>-4.0</ele></trkpt>
      <trkpt lat="51.935864" lon="4.500027"><ele>-4.0</ele></trkpt>
      <trkpt lat="51.936430" lon="4.499229"><ele>-4.0</ele></trkpt>
      <trkpt lat="51.936266" lon="4.498930"><ele>-4.0</ele></trkpt>
      <trkpt lat="51.935966" lon="4.498693"><ele>-4.0</ele></trkpt>
      <trkpt lat="51.935181" lon="4.498545"><ele>-4.0</ele></trkpt>
      <trkpt lat="51.931923" lon="4.497482"><ele>-4.0</ele></trkpt>
      <trkpt lat="51.930467" lon="4.497264"><ele>-5.0</ele></trkpt>
      <trkpt lat="51.930048" lon="4.497107"><ele>-4.0</ele></trkpt>
      <trkpt lat="51.929138" lon="4.497363"><ele>-4.0</ele></trkpt>
      <trkpt lat="51.928817" lon="4.496906"><ele>-4.0</ele></trkpt>
      <trkpt lat="51.928621" lon="4.496818"><ele>-4.0</ele></trkpt>
      <trkpt lat="51.926225" lon="4.496295"><ele>-4.0</ele></trkpt>
      <trkpt lat="51.926093" lon="4.496106"><ele>-4.0</ele></trkpt>
      <trkpt lat="51.925755" lon="4.494915"><ele>-4.0</ele></trkpt>
      <trkpt lat="51.925727" lon="4.494594"><ele>-4.0</ele></trkpt>
      <trkpt lat="51.925873" lon="4.492787"><ele>-4.0</ele></trkpt>
      <trkpt lat="51.925851" lon="4.491975"><ele>-4.0</ele></trkpt>
      <trkpt lat="51.925928" lon="4.491780"><ele>-4.0</ele></trkpt>
      <trkpt lat="51.925915" lon="4.491167"><ele>-5.0</ele></trkpt>
      <trkpt lat="51.925993" lon="4.490630"><ele>-5.0</ele></trkpt>
      <trkpt lat="51.925943" lon="4.490164"><ele>-4.0</ele></trkpt>
      <trkpt lat="51.926037" lon="4.489242"><ele>-4.0</ele></trkpt>
      <trkpt lat="51.925943" lon="4.489057"><ele>-4.0</ele></trkpt>
      <trkpt lat="51.925726" lon="4.489116"><ele>-4.0</ele></trkpt>
      <trkpt lat="51.924729" lon="4.488897"><ele>-5.0</ele></trkpt>
      <trkpt lat="51.924376" lon="4.488932"><ele>-5.0</ele></trkpt>
      <trkpt lat="51.924090" lon="4.489062"><ele>-4.0</ele></trkpt>
      <trkpt lat="51.923479" lon="4.489714"><ele>-4.0</ele></trkpt>
      <trkpt lat="51.923219" lon="4.489701"><ele>-3.0</ele></trkpt>
      <trkpt lat="51.923076" lon="4.489809"><ele>-2.0</ele></trkpt>
      <trkpt lat="51.922753" lon="4.490165"><ele>-2.0</ele></trkpt>
      <trkpt lat="51.922455" lon="4.490196"><ele>-2.0</ele></trkpt>
      <trkpt lat="51.922170" lon="4.490447"><ele>-2.0</ele></trkpt>
      <trkpt lat="51.921767" lon="4.490516"><ele>-1.0</ele></trkpt>
      <trkpt lat="51.920489" lon="4.491274"><ele>1.0</ele></trkpt>
      <trkpt lat="51.919944" lon="4.490167"><ele>-0.0</ele></trkpt>
      <trkpt lat="51.919376" lon="4.489597"><ele>-1.0</ele></trkpt>
      <trkpt lat="51.919176" lon="4.489181"><ele>-1.0</ele></trkpt>
      <trkpt lat="51.919084" lon="4.488168"><ele>-1.0</ele></trkpt>
      <trkpt lat="51.918685" lon="4.487209"><ele>-2.0</ele></trkpt>
      <trkpt lat="51.918355" lon="4.484476"><ele>0.0</ele></trkpt>
      <trkpt lat="51.918355" lon="4.483851"><ele>-0.0</ele></trkpt>
      <trkpt lat="51.918164" lon="4.483393"><ele>0.0</ele></trkpt>
      <trkpt lat="51.917780" lon="4.481223"><ele>-1.0</ele></trkpt>
      <trkpt lat="51.918009" lon="4.480697"><ele>-1.0</ele></trkpt>
      <trkpt lat="51.918603" lon="4.480315"><ele>-2.0</ele></trkpt>
      <trkpt lat="51.920549" lon="4.479614"><ele>-2.0</ele></trkpt>
      <trkpt lat="51.921014" lon="4.479243"><ele>-4.0</ele></trkpt>
      <trkpt lat="51.922187" lon="4.478675"><ele>-4.0</ele></trkpt>
    </trkseg>
  </trk>
</gpx>
