<?xml version="1.0" encoding="UTF-8"?>
<gpx version="1.1" creator="gpx-processor" xmlns="http://www.topografix.com/GPX/1/1">
  <metadata><name>La Rochelle - Marathon de la Rochelle</name></metadata>
  <trk>
    <name>La Rochelle - Marathon de la Rochelle</name>
    <trkseg>
      <trkpt lat="46.158637" lon="-1.146747"><ele>5.4</ele></trkpt>
      <trkpt lat="46.158426" lon="-1.145895"><ele>6.2</ele></trkpt>
      <trkpt lat="46.157797" lon="-1.145951"><ele>6.2</ele></trkpt>
      <trkpt lat="46.157329" lon="-1.146135"><ele>6.0</ele></trkpt>
      <trkpt lat="46.156477" lon="-1.146567"><ele>5.4</ele></trkpt>
      <trkpt lat="46.156143" lon="-1.146879"><ele>5.2</ele></trkpt>
      <trkpt lat="46.155546" lon="-1.148385"><ele>5.2</ele></trkpt>
      <trkpt lat="46.154995" lon="-1.149551"><ele>5.4</ele></trkpt>
      <trkpt lat="46.154864" lon="-1.149664"><ele>5.2</ele></trkpt>
      <trkpt lat="46.154123" lon="-1.149730"><ele>5.2</ele></trkpt>
      <trkpt lat="46.153732" lon="-1.150039"><ele>5.0</ele></trkpt>
      <trkpt lat="46.152808" lon="-1.150139"><ele>4.4</ele></trkpt>
      <trkpt lat="46.149754" lon="-1.150127"><ele>4.4</ele></trkpt>
      <trkpt lat="46.149601" lon="-1.150284"><ele>4.4</ele></trkpt>
      <trkpt lat="46.149534" lon="-1.150801"><ele>4.6</ele></trkpt>
      <trkpt lat="46.149412" lon="-1.150991"><ele>4.6</ele></trkpt>
      <trkpt lat="46.148985" lon="-1.151191"><ele>5.0</ele></trkpt>
      <trkpt lat="46.148808" lon="-1.152045"><ele>4.8</ele></trkpt>
      <trkpt lat="46.148834" lon="-1.152281"><ele>4.8</ele></trkpt>
      <trkpt lat="46.148977" lon="-1.152418"><ele>4.8</ele></trkpt>
      <trkpt lat="46.149978" lon="-1.152535"><ele>4.6</ele></trkpt>
      <trkpt lat="46.152508" lon="-1.152411"><ele>4.2</ele></trkpt>
      <trkpt lat="46.153899" lon="-1.152500"><ele>4.2</ele></trkpt>
      <trkpt lat="46.153964" lon="-1.152687"><ele>4.4</ele></trkpt>
      <trkpt lat="46.153936" lon="-1.152935"><ele>4.6</ele></trkpt>
      <trkpt lat="46.153335" lon="-1.156457"><ele>3.6</ele></trkpt>
      <trkpt lat="46.152922" lon="-1.157434"><ele>3.4</ele></trkpt>
      <trkpt lat="46.152367" lon="-1.157765"><ele>3.4</ele></trkpt>
      <trkpt lat="46.149385" lon="-1.158775"><ele>2.8</ele></trkpt>
      <trkpt lat="46.148089" lon="-1.158490"><ele>3.6</ele></trkpt>
      <trkpt lat="46.144657" lon="-1.159586"><ele>3.6</ele></trkpt>
      <trkpt lat="46.143961" lon="-1.159638"><ele>3.6</ele></trkpt>
      <trkpt lat="46.143446" lon="-1.159311"><ele>3.6</ele></trkpt>
      <trkpt lat="46.142833" lon="-1.158419"><ele>4.0</ele></trkpt>
      <trkpt lat="46.142265" lon="-1.157892"><ele>3.6</ele></trkpt>
      <trkpt lat="46.142139" lon="-1.157663"><ele>3.0</ele></trkpt>
      <trkpt lat="46.142042" lon="-1.157131"><ele>2.8</ele></trkpt>
      <trkpt lat="46.141730" lon="-1.157072"><ele>2.8</ele></trkpt>
      <trkpt lat="46.141005" lon="-1.157314"><ele>3.4</ele></trkpt>
      <trkpt lat="46.140671" lon="-1.157133"><ele>4.0</ele></trkpt>
      <trkpt lat="46.139523" lon="-1.155387"><ele>6.2</ele></trkpt>
      <trkpt lat="46.138901" lon="-1.154247"><ele>6.2</ele></trkpt>
      <trkpt lat="46.138937" lon="-1.154060"><ele>6.2</ele></trkpt>
      <trkpt lat="46.139062" lon="-1.153952"><ele>6.2</ele></trkpt>
      <trkpt lat="46.142655" lon="-1.152869"><ele>3.0</ele></trkpt>
      <trkpt lat="46.142935" lon="-1.153227"><ele>3.0</ele></trkpt>
      <trkpt lat="46.143113" lon="-1.153738"><ele>3.0</ele></trkpt>
      <trkpt lat="46.143427" lon="-1.154010"><ele>2.6</ele></trkpt>
      <trkpt lat="46.143709" lon="-1.154505"><ele>2.6</ele></trkpt>
      <trkpt lat="46.144026" lon="-1.156393"><ele>3.4</ele></trkpt>
      <trkpt lat="46.144130" lon="-1.156522"><ele>3.4</ele></trkpt>
      <trkpt lat="46.144819" lon="-1.156623"><ele>3.0</ele></trkpt>
      <trkpt lat="46.145066" lon="-1.156271"><ele>2.8</ele></trkpt>
      <trkpt lat="46.145633" lon="-1.154633"><ele>3.8</ele></trkpt>
      <trkpt lat="46.145766" lon="-1.154531"><ele>4.2</ele></trkpt>
      <trkpt lat="46.147887" lon="-1.154415"><ele>8.0</ele></trkpt>
      <trkpt lat="46.148096" lon="-1.154384"><ele>7.8</ele></trkpt>
      <trkpt lat="46.148266" lon="-1.154187"><ele>7.0</ele></trkpt>
      <trkpt lat="46.148594" lon="-1.152510"><ele>6.0</ele></trkpt>
      <trkpt lat="46.148492" lon="-1.152337"><ele>5.8</ele></trkpt>
      <trkpt lat="46.147567" lon="-1.152021"><ele>6.0</ele></trkpt>
      <trkpt lat="46.147467" lon="-1.151820"><ele>6.2</ele></trkpt>
      <trkpt lat="46.147525" lon="-1.150595"><ele>7.8</ele></trkpt>
      <trkpt lat="46.147895" lon="-1.150074"><ele>9.4</ele></trkpt>
      <trkpt lat="46.149375" lon="-1.150017"><ele>5.0</ele></trkpt>
      <trkpt lat="46.149656" lon="-1.149741"><ele>4.8</ele></trkpt>
      <trkpt lat="46.150253" lon="-1.149724"><ele>5.2</ele></trkpt>
      <trkpt lat="46.150743" lon="-1.149523"><ele>4.8</ele></trkpt>
      <trkpt lat="46.152934" lon="-1.149519"><ele>5.0</ele></trkpt>
      <trkpt lat="46.153000" lon="-1.148909"><ele>5.0</ele></trkpt>
      <trkpt lat="46.153134" lon="-1.148783"><ele>5.4</ele></trkpt>
      <trkpt lat="46.153606" lon="-1.148955"><ele>5.6</ele></trkpt>
      <trkpt lat="46.153787" lon="-1.148959"><ele>5.4</ele></trkpt>
      <trkpt lat="46.153873" lon="-1.148814"><ele>5.6</ele></trkpt>
      <trkpt lat="46.153886" lon="-1.147292"><ele>5.4</ele></trkpt>
      <trkpt lat="46.153952" lon="-1.147125"><ele>5.4</ele></trkpt>
      <trkpt lat="46.154180" lon="-1.147268"><ele>5.6</ele></trkpt>
      <trkpt lat="46.154948" lon="-1.148185"><ele>6.0</ele></trkpt>
      <trkpt lat="46.155440" lon="-1.148614"><ele>6.0</ele></trkpt>
      <trkpt lat="46.156217" lon="-1.146844"><ele>4.4</ele></trkpt>
      <trkpt lat="46.156453" lon="-1.146624"><ele>4.8</ele></trkpt>
      <trkpt lat="46.157791" lon="-1.145994"><ele>5.8</ele></trkpt>
      <trkpt lat="46.158107" lon="-1.145995"><ele>6.0</ele></trkpt>
      <trkpt lat="46.158655" lon="-1.146473"><ele>5.6</ele></trkpt>
      <trkpt lat="46.158834" lon="-1.146452"><ele>5.4</ele></trkpt>
      <trkpt lat="46.160025" lon="-1.145940"><ele>5.0</ele></trkpt>
      <trkpt lat="46.161627" lon="-1.145530"><ele>7.2</ele></trkpt>
      <trkpt lat="46.161835" lon="-1.144850"><ele>7.8</ele></trkpt>
      <trkpt lat="46.162054" lon="-1.143672"><ele>9.8</ele></trkpt>
      <trkpt lat="46.162268" lon="-1.143512"><ele>10.2</ele></trkpt>
      <trkpt lat="46.162354" lon="-1.143654"><ele>10.2</ele></trkpt>
      <trkpt lat="46.162533" lon="-1.145396"><ele>10.6</ele></trkpt>
      <trkpt lat="46.163144" lon="-1.145786"><ele>11.4</ele></trkpt>
      <trkpt lat="46.163427" lon="-1.146113"><ele>11.6</ele></trkpt>
      <trkpt lat="46.164094" lon="-1.147748"><ele>11.0</ele></trkpt>
      <trkpt lat="46.164631" lon="-1.151294"><ele>12.6</ele></trkpt>
      <trkpt lat="46.164638" lon="-1.151584"><ele>12.2</ele></trkpt>
      <trkpt lat="46.164526" lon="-1.151688"><ele>11.8</ele></trkpt>
      <trkpt lat="46.162238" lon="-1.152563"><ele>10.6</ele></trkpt>
      <trkpt lat="46.162073" lon="-1.152799"><ele>10.0</ele></trkpt>
      <trkpt lat="46.162335" lon="-1.154654"><ele>8.2</ele></trkpt>
      <trkpt lat="46.162197" lon="-1.155470"><ele>7.2</ele></trkpt>
      <trkpt lat="46.162401" lon="-1.157990"><ele>5.8</ele></trkpt>
      <trkpt lat="46.164155" lon="-1.175345"><ele>20.6</ele></trkpt>
      <trkpt lat="46.164212" lon="-1.175512"><ele>20.8</ele></trkpt>
      <trkpt lat="46.164472" lon="-1.175517"><ele>21.2</ele></trkpt>
      <trkpt lat="46.166073" lon="-1.174531"><ele>21.6</ele></trkpt>
      <trkpt lat="46.167562" lon="-1.173828"><ele>22.0</ele></trkpt>
      <trkpt lat="46.168291" lon="-1.173216"><ele>23.2</ele></trkpt>
      <trkpt lat="46.168447" lon="-1.173208"><ele>23.2</ele></trkpt>
      <trkpt lat="46.168496" lon="-1.173328"><ele>23.0</ele></trkpt>
      <trkpt lat="46.167219" lon="-1.177637"><ele>22.6</ele></trkpt>
      <trkpt lat="46.168168" lon="-1.186754"><ele>15.8</ele></trkpt>
      <trkpt lat="46.168058" lon="-1.186876"><ele>15.4</ele></trkpt>
      <trkpt lat="46.166712" lon="-1.187124"><ele>17.4</ele></trkpt>
      <trkpt lat="46.166531" lon="-1.187007"><ele>18.0</ele></trkpt>
      <trkpt lat="46.166290" lon="-1.185967"><ele>18.4</ele></trkpt>
      <trkpt lat="46.165958" lon="-1.183520"><ele>19.2</ele></trkpt>
      <trkpt lat="46.165860" lon="-1.183277"><ele>19.4</ele></trkpt>
      <trkpt lat="46.164928" lon="-1.183361"><ele>17.2</ele></trkpt>
      <trkpt lat="46.164835" lon="-1.183213"><ele>17.0</ele></trkpt>
      <trkpt lat="46.164551" lon="-1.181955"><ele>16.8</ele></trkpt>
      <trkpt lat="46.164417" lon="-1.181865"><ele>16.6</ele></trkpt>
      <trkpt lat="46.163402" lon="-1.182042"><ele>12.0</ele></trkpt>
      <trkpt lat="46.163324" lon="-1.182216"><ele>11.4</ele></trkpt>
      <trkpt lat="46.163374" lon="-1.182620"><ele>10.8</ele></trkpt>
      <trkpt lat="46.164120" lon="-1.185853"><ele>15.2</ele></trkpt>
      <trkpt lat="46.164066" lon="-1.186005"><ele>15.2</ele></trkpt>
      <trkpt lat="46.162053" lon="-1.186889"><ele>8.6</ele></trkpt>
      <trkpt lat="46.161927" lon="-1.188067"><ele>6.8</ele></trkpt>
      <trkpt lat="46.161985" lon="-1.189971"><ele>6.2</ele></trkpt>
      <trkpt lat="46.161736" lon="-1.192527"><ele>5.2</ele></trkpt>
      <trkpt lat="46.161699" lon="-1.192746"><ele>5.2</ele></trkpt>
      <trkpt lat="46.161573" lon="-1.192832"><ele>5.2</ele></trkpt>
      <trkpt lat="46.160974" lon="-1.192706"><ele>5.6</ele></trkpt>
      <trkpt lat="46.160460" lon="-1.192507"><ele>6.8</ele></trkpt>
      <trkpt lat="46.160368" lon="-1.192365"><ele>7.0</ele></trkpt>
      <trkpt lat="46.160883" lon="-1.188132"><ele>6.2</ele></trkpt>
      <trkpt lat="46.160827" lon="-1.187905"><ele>6.2</ele></trkpt>
      <trkpt lat="46.160685" lon="-1.187845"><ele>6.0</ele></trkpt>
      <trkpt lat="46.157727" lon="-1.189470"><ele>6.6</ele></trkpt>
      <trkpt lat="46.155206" lon="-1.191005"><ele>7.8</ele></trkpt>
      <trkpt lat="46.154949" lon="-1.191074"><ele>7.8</ele></trkpt>
      <trkpt lat="46.154782" lon="-1.190974"><ele>7.6</ele></trkpt>
      <trkpt lat="46.154659" lon="-1.190564"><ele>7.4</ele></trkpt>
      <trkpt lat="46.154680" lon="-1.190313"><ele>7.2</ele></trkpt>
      <trkpt lat="46.154850" lon="-1.189925"><ele>7.2</ele></trkpt>
      <trkpt lat="46.156247" lon="-1.188159"><ele>5.8</ele></trkpt>
      <trkpt lat="46.156750" lon="-1.187782"><ele>5.2</ele></trkpt>
      <trkpt lat="46.157945" lon="-1.187177"><ele>5.6</ele></trkpt>
      <trkpt lat="46.161420" lon="-1.182869"><ele>5.8</ele></trkpt>
      <trkpt lat="46.161546" lon="-1.182385"><ele>6.8</ele></trkpt>
      <trkpt lat="46.161667" lon="-1.180985"><ele>9.6</ele></trkpt>
      <trkpt lat="46.161666" lon="-1.179480"><ele>13.2</ele></trkpt>
      <trkpt lat="46.161585" lon="-1.178986"><ele>14.4</ele></trkpt>
      <trkpt lat="46.159740" lon="-1.179571"><ele>16.0</ele></trkpt>
      <trkpt lat="46.157874" lon="-1.179848"><ele>12.4</ele></trkpt>
      <trkpt lat="46.156135" lon="-1.180677"><ele>6.0</ele></trkpt>
      <trkpt lat="46.155286" lon="-1.180890"><ele>4.6</ele></trkpt>
      <trkpt lat="46.153941" lon="-1.180627"><ele>5.2</ele></trkpt>
      <trkpt lat="46.153644" lon="-1.180002"><ele>5.8</ele></trkpt>
      <trkpt lat="46.153558" lon="-1.179538"><ele>6.6</ele></trkpt>
      <trkpt lat="46.153650" lon="-1.177077"><ele>7.8</ele></trkpt>
      <trkpt lat="46.154425" lon="-1.171859"><ele>11.4</ele></trkpt>
      <trkpt lat="46.154731" lon="-1.171267"><ele>12.4</ele></trkpt>
      <trkpt lat="46.155374" lon="-1.171084"><ele>14.8</ele></trkpt>
      <trkpt lat="46.155508" lon="-1.170897"><ele>15.6</ele></trkpt>
      <trkpt lat="46.155769" lon="-1.163788"><ele>7.6</ele></trkpt>
      <trkpt lat="46.155996" lon="-1.160924"><ele>6.2</ele></trkpt>
      <trkpt lat="46.156451" lon="-1.160794"><ele>5.4</ele></trkpt>
      <trkpt lat="46.157248" lon="-1.160054"><ele>5.0</ele></trkpt>
      <trkpt lat="46.159748" lon="-1.159186"><ele>4.6</ele></trkpt>
      <trkpt lat="46.160320" lon="-1.158297"><ele>4.8</ele></trkpt>
      <trkpt lat="46.160634" lon="-1.158023"><ele>5.4</ele></trkpt>
      <trkpt lat="46.160896" lon="-1.158033"><ele>6.2</ele></trkpt>
      <trkpt lat="46.162038" lon="-1.158680"><ele>7.2</ele></trkpt>
      <trkpt lat="46.162265" lon="-1.158633"><ele>7.2</ele></trkpt>
      <trkpt lat="46.162428" lon="-1.158465"><ele>7.4</ele></trkpt>
      <trkpt lat="46.162138" lon="-1.155343"><ele>8.8</ele></trkpt>
      <trkpt lat="46.162187" lon="-1.154832"><ele>9.2</ele></trkpt>
      <trkpt lat="46.161873" lon="-1.153173"><ele>11.4</ele></trkpt>
      <trkpt lat="46.161998" lon="-1.152654"><ele>11.4</ele></trkpt>
      <trkpt lat="46.161962" lon="-1.150653"><ele>10.6</ele></trkpt>
      <trkpt lat="46.161500" lon="-1.149202"><ele>8.6</ele></trkpt>
      <trkpt lat="46.161244" lon="-1.147510"><ele>7.6</ele></trkpt>
      <trkpt lat="46.161096" lon="-1.146956"><ele>7.6</ele></trkpt>
      <trkpt lat="46.159047" lon="-1.147626"><ele>6.4</ele></trkpt>
      <trkpt lat="46.158937" lon="-1.149377"><ele>7.0</ele></trkpt>
      <trkpt lat="46.158692" lon="-1.150128"><ele>6.8</ele></trkpt>
      <trkpt lat="46.158277" lon="-1.150749"><ele>7.2</ele></trkpt>
      <trkpt lat="46.156860" lon="-1.149734"><ele>7.6</ele></trkpt>
      <trkpt lat="46.156197" lon="-1.149449"><ele>7.4</ele></trkpt>
      <trkpt lat="46.155888" lon="-1.149604"><ele>7.2</ele></trkpt>
      <trkpt lat="46.154260" lon="-1.149668"><ele>7.4</ele></trkpt>
      <trkpt lat="46.153640" lon="-1.150032"><ele>7.4</ele></trkpt>
      <trkpt lat="46.149958" lon="-1.150096"><ele>6.2</ele></trkpt>
      <trkpt lat="46.149641" lon="-1.150231"><ele>6.2</ele></trkpt>
      <trkpt lat="46.149435" lon="-1.150951"><ele>6.4</ele></trkpt>
      <trkpt lat="46.149083" lon="-1.151122"><ele>7.0</ele></trkpt>
      <trkpt lat="46.148961" lon="-1.151336"><ele>5.6</ele></trkpt>
      <trkpt lat="46.148807" lon="-1.152122"><ele>5.2</ele></trkpt>
      <trkpt lat="46.148977" lon="-1.152436"><ele>5.4</ele></trkpt>
      <trkpt lat="46.149824" lon="-1.152538"><ele>5.0</ele></trkpt>
      <trkpt lat="46.151952" lon="-1.152460"><ele>4.2</ele></trkpt>
      <trkpt lat="46.153906" lon="-1.152533"><ele>4.4</ele></trkpt>
      <trkpt lat="46.153948" lon="-1.152736"><ele>4.6</ele></trkpt>
      <trkpt lat="46.153883" lon="-1.153178"><ele>4.6</ele></trkpt>
      <trkpt lat="46.153309" lon="-1.156543"><ele>3.4</ele></trkpt>
      <trkpt lat="46.152889" lon="-1.157478"><ele>3.2</ele></trkpt>
      <trkpt lat="46.152715" lon="-1.157629"><ele>3.2</ele></trkpt>
      <trkpt lat="46.151964" lon="-1.157895"><ele>3.6</ele></trkpt>
      <trkpt lat="46.149443" lon="-1.158694"><ele>2.8</ele></trkpt>
      <trkpt lat="46.148996" lon="-1.158697"><ele>3.0</ele></trkpt>
      <trkpt lat="46.148353" lon="-1.158471"><ele>3.2</ele></trkpt>
      <trkpt lat="46.147981" lon="-1.158503"><ele>3.6</ele></trkpt>
      <trkpt lat="46.144712" lon="-1.159526"><ele>4.0</ele></trkpt>
      <trkpt lat="46.144014" lon="-1.159630"><ele>3.6</ele></trkpt>
      <trkpt lat="46.143487" lon="-1.159291"><ele>3.6</ele></trkpt>
      <trkpt lat="46.142982" lon="-1.158573"><ele>3.6</ele></trkpt>
      <trkpt lat="46.142326" lon="-1.157943"><ele>3.2</ele></trkpt>
      <trkpt lat="46.142119" lon="-1.157563"><ele>3.2</ele></trkpt>
      <trkpt lat="46.142067" lon="-1.157186"><ele>2.6</ele></trkpt>
      <trkpt lat="46.141960" lon="-1.157070"><ele>2.4</ele></trkpt>
      <trkpt lat="46.141100" lon="-1.157273"><ele>3.2</ele></trkpt>
      <trkpt lat="46.140741" lon="-1.157167"><ele>3.2</ele></trkpt>
      <trkpt lat="46.139579" lon="-1.155392"><ele>5.8</ele></trkpt>
      <trkpt lat="46.138967" lon="-1.154348"><ele>5.6</ele></trkpt>
      <trkpt lat="46.138942" lon="-1.154178"><ele>5.8</ele></trkpt>
      <trkpt lat="46.139003" lon="-1.154013"><ele>6.0</ele></trkpt>
      <trkpt lat="46.139125" lon="-1.153960"><ele>6.2</ele></trkpt>
      <trkpt lat="46.142457" lon="-1.152924"><ele>4.0</ele></trkpt>
      <trkpt lat="46.142705" lon="-1.152941"><ele>3.6</ele></trkpt>
      <trkpt lat="46.142983" lon="-1.153251"><ele>3.2</ele></trkpt>
      <trkpt lat="46.143144" lon="-1.153723"><ele>3.6</ele></trkpt>
      <trkpt lat="46.143490" lon="-1.154053"><ele>3.4</ele></trkpt>
      <trkpt lat="46.143701" lon="-1.154475"><ele>3.4</ele></trkpt>
      <trkpt lat="46.144086" lon="-1.156477"><ele>4.2</ele></trkpt>
      <trkpt lat="46.144818" lon="-1.156610"><ele>3.8</ele></trkpt>
      <trkpt lat="46.145081" lon="-1.156222"><ele>3.6</ele></trkpt>
      <trkpt lat="46.145702" lon="-1.154544"><ele>3.8</ele></trkpt>
      <trkpt lat="46.148057" lon="-1.154404"><ele>8.4</ele></trkpt>
      <trkpt lat="46.148281" lon="-1.154146"><ele>7.4</ele></trkpt>
      <trkpt lat="46.148616" lon="-1.152545"><ele>5.8</ele></trkpt>
      <trkpt lat="46.148508" lon="-1.152345"><ele>6.0</ele></trkpt>
      <trkpt lat="46.147549" lon="-1.152005"><ele>5.6</ele></trkpt>
      <trkpt lat="46.147487" lon="-1.151797"><ele>6.0</ele></trkpt>
      <trkpt lat="46.147513" lon="-1.150777"><ele>7.2</ele></trkpt>
      <trkpt lat="46.147569" lon="-1.150563"><ele>7.6</ele></trkpt>
      <trkpt lat="46.147901" lon="-1.150110"><ele>9.4</ele></trkpt>
      <trkpt lat="46.149429" lon="-1.150039"><ele>5.2</ele></trkpt>
      <trkpt lat="46.149660" lon="-1.149773"><ele>5.0</ele></trkpt>
      <trkpt lat="46.150381" lon="-1.149714"><ele>5.0</ele></trkpt>
      <trkpt lat="46.150780" lon="-1.149574"><ele>5.0</ele></trkpt>
      <trkpt lat="46.152813" lon="-1.149589"><ele>5.0</ele></trkpt>
      <trkpt lat="46.152973" lon="-1.149481"><ele>5.2</ele></trkpt>
      <trkpt lat="46.153008" lon="-1.149028"><ele>5.4</ele></trkpt>
      <trkpt lat="46.153105" lon="-1.148821"><ele>5.8</ele></trkpt>
      <trkpt lat="46.153683" lon="-1.148999"><ele>6.0</ele></trkpt>
      <trkpt lat="46.153844" lon="-1.148905"><ele>6.0</ele></trkpt>
      <trkpt lat="46.153921" lon="-1.148419"><ele>5.8</ele></trkpt>
      <trkpt lat="46.153905" lon="-1.147294"><ele>5.6</ele></trkpt>
      <trkpt lat="46.153990" lon="-1.147134"><ele>5.8</ele></trkpt>
      <trkpt lat="46.154448" lon="-1.147513"><ele>6.2</ele></trkpt>
      <trkpt lat="46.155431" lon="-1.148638"><ele>6.6</ele></trkpt>
      <trkpt lat="46.155546" lon="-1.148560"><ele>6.2</ele></trkpt>
      <trkpt lat="46.155811" lon="-1.147787"><ele>5.2</ele></trkpt>
      <trkpt lat="46.156376" lon="-1.146706"><ele>5.2</ele></trkpt>
      <trkpt lat="46.157703" lon="-1.146023"><ele>6.6</ele></trkpt>
      <trkpt lat="46.158193" lon="-1.146048"><ele>6.8</ele></trkpt>
      <trkpt lat="46.158585" lon="-1.146444"><ele>6.2</ele></trkpt>
      <trkpt lat="46.158926" lon="-1.146481"><ele>5.8</ele></trkpt>
      <trkpt lat="46.160670" lon="-1.145737"><ele>5.4</ele></trkpt>
      <trkpt lat="46.162480" lon="-1.145387"><ele>9.4</ele></trkpt>
      <trkpt lat="46.163190" lon="-1.145855"><ele>11.2</ele></trkpt>
      <trkpt lat="46.163622" lon="-1.146444"><ele>11.8</ele></trkpt>
      <trkpt lat="46.164150" lon="-1.147848"><ele>10.6</ele></trkpt>
      <trkpt lat="46.164686" lon="-1.151485"><ele>11.8</ele></trkpt>
      <trkpt lat="46.164586" lon="-1.151656"><ele>11.4</ele></trkpt>
      <trkpt lat="46.162913" lon="-1.152271"><ele>9.0</ele></trkpt>
      <trkpt lat="46.162067" lon="-1.152755"><ele>9.6</ele></trkpt>
      <trkpt lat="46.162360" lon="-1.154677"><ele>7.8</ele></trkpt>
      <trkpt lat="46.162235" lon="-1.155805"><ele>6.2</ele></trkpt>
      <trkpt lat="46.162665" lon="-1.160682"><ele>7.4</ele></trkpt>
      <trkpt lat="46.163022" lon="-1.163749"><ele>7.8</ele></trkpt>
      <trkpt lat="46.164028" lon="-1.174221"><ele>18.2</ele></trkpt>
      <trkpt lat="46.164173" lon="-1.175296"><ele>20.2</ele></trkpt>
      <trkpt lat="46.164257" lon="-1.175572"><ele>20.8</ele></trkpt>
      <trkpt lat="46.164428" lon="-1.175567"><ele>21.2</ele></trkpt>
      <trkpt lat="46.166218" lon="-1.174477"><ele>21.8</ele></trkpt>
      <trkpt lat="46.167622" lon="-1.173809"><ele>23.0</ele></trkpt>
      <trkpt lat="46.168340" lon="-1.173219"><ele>24.4</ele></trkpt>
      <trkpt lat="46.168502" lon="-1.173243"><ele>24.2</ele></trkpt>
      <trkpt lat="46.168476" lon="-1.173663"><ele>24.2</ele></trkpt>
      <trkpt lat="46.167525" lon="-1.176562"><ele>24.2</ele></trkpt>
      <trkpt lat="46.167279" lon="-1.177655"><ele>23.4</ele></trkpt>
      <trkpt lat="46.167449" lon="-1.179834"><ele>22.6</ele></trkpt>
      <trkpt lat="46.168187" lon="-1.186621"><ele>17.0</ele></trkpt>
      <trkpt lat="46.168144" lon="-1.186822"><ele>16.8</ele></trkpt>
      <trkpt lat="46.167991" lon="-1.186908"><ele>16.4</ele></trkpt>
      <trkpt lat="46.166659" lon="-1.187133"><ele>19.4</ele></trkpt>
      <trkpt lat="46.166495" lon="-1.186772"><ele>19.8</ele></trkpt>
      <trkpt lat="46.166302" lon="-1.185824"><ele>19.4</ele></trkpt>
      <trkpt lat="46.165948" lon="-1.183354"><ele>20.6</ele></trkpt>
      <trkpt lat="46.165817" lon="-1.183287"><ele>20.4</ele></trkpt>
      <trkpt lat="46.165032" lon="-1.183408"><ele>18.8</ele></trkpt>
      <trkpt lat="46.164924" lon="-1.183307"><ele>18.4</ele></trkpt>
      <trkpt lat="46.164615" lon="-1.182018"><ele>17.6</ele></trkpt>
      <trkpt lat="46.164512" lon="-1.181901"><ele>17.6</ele></trkpt>
      <trkpt lat="46.164255" lon="-1.181876"><ele>17.2</ele></trkpt>
      <trkpt lat="46.163415" lon="-1.182084"><ele>12.8</ele></trkpt>
      <trkpt lat="46.163344" lon="-1.182324"><ele>11.6</ele></trkpt>
      <trkpt lat="46.164138" lon="-1.185964"><ele>16.4</ele></trkpt>
      <trkpt lat="46.162151" lon="-1.186877"><ele>9.6</ele></trkpt>
      <trkpt lat="46.162010" lon="-1.187055"><ele>8.8</ele></trkpt>
      <trkpt lat="46.161931" lon="-1.188123"><ele>7.8</ele></trkpt>
      <trkpt lat="46.162018" lon="-1.189930"><ele>7.0</ele></trkpt>
      <trkpt lat="46.161694" lon="-1.192786"><ele>5.8</ele></trkpt>
      <trkpt lat="46.161160" lon="-1.192867"><ele>5.8</ele></trkpt>
      <trkpt lat="46.160454" lon="-1.192536"><ele>7.0</ele></trkpt>
      <trkpt lat="46.160399" lon="-1.192408"><ele>7.2</ele></trkpt>
      <trkpt lat="46.160889" lon="-1.188243"><ele>6.6</ele></trkpt>
      <trkpt lat="46.160862" lon="-1.187952"><ele>6.0</ele></trkpt>
      <trkpt lat="46.160726" lon="-1.187866"><ele>6.0</ele></trkpt>
      <trkpt lat="46.155222" lon="-1.191003"><ele>8.0</ele></trkpt>
      <trkpt lat="46.154921" lon="-1.191088"><ele>7.8</ele></trkpt>
      <trkpt lat="46.154771" lon="-1.190978"><ele>7.8</ele></trkpt>
      <trkpt lat="46.154683" lon="-1.190484"><ele>8.0</ele></trkpt>
      <trkpt lat="46.154742" lon="-1.190214"><ele>7.8</ele></trkpt>
      <trkpt lat="46.154992" lon="-1.189758"><ele>7.6</ele></trkpt>
      <trkpt lat="46.156312" lon="-1.188085"><ele>6.6</ele></trkpt>
      <trkpt lat="46.156693" lon="-1.187806"><ele>6.4</ele></trkpt>
      <trkpt lat="46.157773" lon="-1.187340"><ele>6.8</ele></trkpt>
      <trkpt lat="46.158107" lon="-1.187052"><ele>6.8</ele></trkpt>
      <trkpt lat="46.161462" lon="-1.182858"><ele>7.4</ele></trkpt>
      <trkpt lat="46.161585" lon="-1.182461"><ele>8.2</ele></trkpt>
      <trkpt lat="46.161676" lon="-1.181258"><ele>8.2</ele></trkpt>
      <trkpt lat="46.161698" lon="-1.179686"><ele>12.0</ele></trkpt>
      <trkpt lat="46.161671" lon="-1.179150"><ele>13.2</ele></trkpt>
      <trkpt lat="46.161599" lon="-1.178992"><ele>13.6</ele></trkpt>
      <trkpt lat="46.159625" lon="-1.179594"><ele>15.6</ele></trkpt>
      <trkpt lat="46.157952" lon="-1.179824"><ele>13.0</ele></trkpt>
      <trkpt lat="46.156432" lon="-1.180569"><ele>7.0</ele></trkpt>
      <trkpt lat="46.155423" lon="-1.180908"><ele>5.2</ele></trkpt>
      <trkpt lat="46.154150" lon="-1.180705"><ele>4.4</ele></trkpt>
      <trkpt lat="46.153868" lon="-1.180550"><ele>5.0</ele></trkpt>
      <trkpt lat="46.153691" lon="-1.180133"><ele>5.4</ele></trkpt>
      <trkpt lat="46.153579" lon="-1.179592"><ele>6.2</ele></trkpt>
      <trkpt lat="46.153712" lon="-1.177025"><ele>7.8</ele></trkpt>
      <trkpt lat="46.154442" lon="-1.171912"><ele>11.4</ele></trkpt>
      <trkpt lat="46.154747" lon="-1.171285"><ele>12.2</ele></trkpt>
      <trkpt lat="46.155461" lon="-1.171025"><ele>15.0</ele></trkpt>
      <trkpt lat="46.155522" lon="-1.170843"><ele>15.4</ele></trkpt>
      <trkpt lat="46.155953" lon="-1.161121"><ele>6.2</ele></trkpt>
      <trkpt lat="46.156041" lon="-1.160866"><ele>6.2</ele></trkpt>
      <trkpt lat="46.156348" lon="-1.160861"><ele>5.4</ele></trkpt>
      <trkpt lat="46.157194" lon="-1.160111"><ele>4.8</ele></trkpt>
      <trkpt lat="46.159808" lon="-1.159193"><ele>4.0</ele></trkpt>
      <trkpt lat="46.160548" lon="-1.158090"><ele>4.8</ele></trkpt>
      <trkpt lat="46.160865" lon="-1.158048"><ele>6.0</ele></trkpt>
      <trkpt lat="46.162040" lon="-1.158697"><ele>7.2</ele></trkpt>
      <trkpt lat="46.162395" lon="-1.158540"><ele>7.6</ele></trkpt>
      <trkpt lat="46.162449" lon="-1.158210"><ele>7.4</ele></trkpt>
      <trkpt lat="46.161954" lon="-1.153205"><ele>11.8</ele></trkpt>
      <trkpt lat="46.161901" lon="-1.152950"><ele>11.6</ele></trkpt>
      <trkpt lat="46.161747" lon="-1.152832"><ele>11.6</ele></trkpt>
      <trkpt lat="46.160430" lon="-1.153413"><ele>10.8</ele></trkpt>
      <trkpt lat="46.160261" lon="-1.153393"><ele>10.2</ele></trkpt>
      <trkpt lat="46.160157" lon="-1.152558"><ele>10.4</ele></trkpt>
      <trkpt lat="46.159684" lon="-1.150670"><ele>8.6</ele></trkpt>
      <trkpt lat="46.159485" lon="-1.150264"><ele>7.6</ele></trkpt>
      <trkpt lat="46.158853" lon="-1.149881"><ele>6.8</ele></trkpt>
      <trkpt lat="46.158244" lon="-1.150957"><ele>6.8</ele></trkpt>
      <trkpt lat="46.158180" lon="-1.151220"><ele>7.0</ele></trkpt>
      <trkpt lat="46.158143" lon="-1.152793"><ele>7.2</ele></trkpt>
      <trkpt lat="46.158018" lon="-1.153000"><ele>7.2</ele></trkpt>
      <trkpt lat="46.156607" lon="-1.154038"><ele>6.8</ele></trkpt>
      <trkpt lat="46.155685" lon="-1.154401"><ele>7.0</ele></trkpt>
      <trkpt lat="46.155552" lon="-1.154641"><ele>7.0</ele></trkpt>
      <trkpt lat="46.155537" lon="-1.155339"><ele>6.8</ele></trkpt>
    </trkseg>
  </trk>
</gpx>
