<?xml version="1.0" encoding="UTF-8"?>
<gpx creator="Garmin Connect" version="1.1"
  xsi:schemaLocation="http://www.topografix.com/GPX/1/1 http://www.topografix.com/GPX/11.xsd"
  xmlns:ns3="http://www.garmin.com/xmlschemas/TrackPointExtension/v1"
  xmlns="http://www.topografix.com/GPX/1/1"
  xmlns:xsi="http://www.w3.org/2001/XMLSchema-instance" xmlns:ns2="http://www.garmin.com/xmlschemas/GpxExtensions/v3">
  <metadata>
    <name>Into the north</name>
    <link href="connect.garmin.com">
      <text>Garmin Connect</text>
    </link>
    <time>2026-07-29T09:35:50.000Z</time>
  </metadata>
  <trk>
    <name>Into the north</name>
    <trkseg>
      <trkpt lat="46.57331247814" lon="-0.7721287664026022">
        <ele>61.89</ele>
      </trkpt>
      <trkpt lat="46.573394956067204" lon="-0.7721618749201298">
        <ele>61.76</ele>
      </trkpt>
      <trkpt lat="46.57347030937672" lon="-0.772112337872386">
        <ele>61.77</ele>
      </trkpt>
      <trkpt lat="46.57359905540943" lon="-0.7719825860112906">
        <ele>61.99</ele>
      </trkpt>
      <trkpt lat="46.57375889830291" lon="-0.7718070689588785">
        <ele>61.74</ele>
      </trkpt>
      <trkpt lat="46.5739184897393" lon="-0.7716316357254982">
        <ele>61.02</ele>
      </trkpt>
      <trkpt lat="46.573968110606074" lon="-0.7717985194176435">
        <ele>60.18</ele>
      </trkpt>
      <trkpt lat="46.57400541007519" lon="-0.7718948274850845">
        <ele>59.84</ele>
      </trkpt>
      <trkpt lat="46.57405394129455" lon="-0.7718948274850845">
        <ele>59.34</ele>
      </trkpt>
      <trkpt lat="46.57422048971057" lon="-0.7720957417041063">
        <ele>59.08</ele>
      </trkpt>
      <trkpt lat="46.57438678666949" lon="-0.7722963206470013">
        <ele>58.96</ele>
      </trkpt>
      <trkpt lat="46.57454218715429" lon="-0.7723879348486662">
        <ele>58.89</ele>
      </trkpt>
      <trkpt lat="46.57465475611389" lon="-0.7725032698363066">
        <ele>58.96</ele>
      </trkpt>
      <trkpt lat="46.574757769703865" lon="-0.772621538490057">
        <ele>59.11</ele>
      </trkpt>
      <trkpt lat="46.57482448965311" lon="-0.7726787868887186">
        <ele>59.26</ele>
      </trkpt>
      <trkpt lat="46.57492649741471" lon="-0.7727522123605013">
        <ele>59.41</ele>
      </trkpt>
      <trkpt lat="46.57517636194825" lon="-0.7728968001902103">
        <ele>59.58</ele>
      </trkpt>
      <trkpt lat="46.575426142662764" lon="-0.7730414718389511">
        <ele>59.77</ele>
      </trkpt>
      <trkpt lat="46.57567609101534" lon="-0.7731861434876919">
        <ele>59.91</ele>
      </trkpt>
      <trkpt lat="46.575881112366915" lon="-0.7734312303364277">
        <ele>59.97</ele>
      </trkpt>
      <trkpt lat="46.57613483257592" lon="-0.773626696318388">
        <ele>60.1</ele>
      </trkpt>
      <trkpt lat="46.576313618570566" lon="-0.7737373374402523">
        <ele>60.07</ele>
      </trkpt>
      <trkpt lat="46.576492404565215" lon="-0.7738479785621166">
        <ele>59.92</ele>
      </trkpt>
      <trkpt lat="46.57676707953215" lon="-0.7740415167063475">
        <ele>59.48</ele>
      </trkpt>
      <trkpt lat="46.57704175449908" lon="-0.77423513866961">
        <ele>58.95</ele>
      </trkpt>
      <trkpt lat="46.57717142254114" lon="-0.7741883676499128">
        <ele>57.96</ele>
      </trkpt>
      <trkpt lat="46.57732397317886" lon="-0.773983346298337">
        <ele>57.32</ele>
      </trkpt>
      <trkpt lat="46.577576687559485" lon="-0.7737125270068645">
        <ele>56.54</ele>
      </trkpt>
      <trkpt lat="46.57780651934445" lon="-0.7735909894108772">
        <ele>55.94</ele>
      </trkpt>
      <trkpt lat="46.57803635112941" lon="-0.7734693679958582">
        <ele>55.37</ele>
      </trkpt>
      <trkpt lat="46.57829753123224" lon="-0.7734593097120523">
        <ele>54.96</ele>
      </trkpt>
      <trkpt lat="46.57855896279216" lon="-0.7734493352472782">
        <ele>54.52</ele>
      </trkpt>
      <trkpt lat="46.57886892557144" lon="-0.773474145680666">
        <ele>54.17</ele>
      </trkpt>
      <trkpt lat="46.57901527360082" lon="-0.7735637482255697">
        <ele>53.83</ele>
      </trkpt>
      <trkpt lat="46.57916170544922" lon="-0.7736534345895052">
        <ele>53.46</ele>
      </trkpt>
      <trkpt lat="46.579457335174084" lon="-0.7737039774656296">
        <ele>52.99</ele>
      </trkpt>
      <trkpt lat="46.579629918560386" lon="-0.773682938888669">
        <ele>52.66</ele>
      </trkpt>
      <trkpt lat="46.579850194975734" lon="-0.7735075056552887">
        <ele>52.41</ele>
      </trkpt>
      <trkpt lat="46.57999997958541" lon="-0.7731727324426174">
        <ele>52.13</ele>
      </trkpt>
      <trkpt lat="46.58016971312463" lon="-0.7728771027177572">
        <ele>51.67</ele>
      </trkpt>
      <trkpt lat="46.5803871396929" lon="-0.7726720813661814">
        <ele>51.44</ele>
      </trkpt>
      <trkpt lat="46.58060842193663" lon="-0.7725633680820465">
        <ele>51.29</ele>
      </trkpt>
      <trkpt lat="46.58088401891291" lon="-0.7725385576486588">
        <ele>51.17</ele>
      </trkpt>
      <trkpt lat="46.581150982528925" lon="-0.7726263161748648">
        <ele>51.16</ele>
      </trkpt>
      <trkpt lat="46.58141987398267" lon="-0.7727527990937233">
        <ele>51.25</ele>
      </trkpt>
      <trkpt lat="46.58168876543641" lon="-0.7728792820125818">
        <ele>51.23</ele>
      </trkpt>
      <trkpt lat="46.58195782452822" lon="-0.7730058487504721">
        <ele>51.14</ele>
      </trkpt>
      <trkpt lat="46.58218178898096" lon="-0.7730730716139078">
        <ele>51.16</ele>
      </trkpt>
      <trkpt lat="46.5824060048908" lon="-0.7731402944773436">
        <ele>51.27</ele>
      </trkpt>
      <trkpt lat="46.58259862102568" lon="-0.7731432281434536">
        <ele>51.46</ele>
      </trkpt>
      <trkpt lat="46.582830883562565" lon="-0.7730993907898664">
        <ele>51.74</ele>
      </trkpt>
      <trkpt lat="46.58306314609945" lon="-0.7730554696172476">
        <ele>52.03</ele>
      </trkpt>
      <trkpt lat="46.58329574391246" lon="-0.7730116322636604">
        <ele>52.39</ele>
      </trkpt>
      <trkpt lat="46.583501771092415" lon="-0.772921945899725">
        <ele>52.81</ele>
      </trkpt>
      <trkpt lat="46.583739230409265" lon="-0.7728323433548212">
        <ele>53.33</ele>
      </trkpt>
      <trkpt lat="46.58402438275516" lon="-0.7728657033294439">
        <ele>53.95</ele>
      </trkpt>
      <trkpt lat="46.584212221205235" lon="-0.7729657832533121">
        <ele>54.6</ele>
      </trkpt>
      <trkpt lat="46.584350522607565" lon="-0.7730907574295998">
        <ele>55.38</ele>
      </trkpt>
      <trkpt lat="46.58459225669503" lon="-0.7733665220439434">
        <ele>56.26</ele>
      </trkpt>
      <trkpt lat="46.5848339907825" lon="-0.773642286658287">
        <ele>57.29</ele>
      </trkpt>
      <trkpt lat="46.58507572486997" lon="-0.7739180512726307">
        <ele>58.31</ele>
      </trkpt>
      <trkpt lat="46.585317542776465" lon="-0.7741938158869743">
        <ele>59.39</ele>
      </trkpt>
      <trkpt lat="46.58555927686393" lon="-0.7744696643203497">
        <ele>60.4</ele>
      </trkpt>
      <trkpt lat="46.58580008894205" lon="-0.774744339287281">
        <ele>61.2</ele>
      </trkpt>
      <trkpt lat="46.58593260683119" lon="-0.7748388033360243">
        <ele>62.02</ele>
      </trkpt>
      <trkpt lat="46.58608524128795" lon="-0.774912228807807">
        <ele>62.81</ele>
      </trkpt>
      <trkpt lat="46.58621775917709" lon="-0.7749579939991236">
        <ele>63.48</ele>
      </trkpt>
      <trkpt lat="46.586530739441514" lon="-0.774977020919323">
        <ele>64.02</ele>
      </trkpt>
      <trkpt lat="46.58684363588691" lon="-0.7749961316585541">
        <ele>64.4</ele>
      </trkpt>
      <trkpt lat="46.58715711906552" lon="-0.7750152423977852">
        <ele>64.67</ele>
      </trkpt>
      <trkpt lat="46.5874192211777" lon="-0.7750342693179846">
        <ele>64.93</ele>
      </trkpt>
      <trkpt lat="46.58768132328987" lon="-0.7750533800572157">
        <ele>65.2</ele>
      </trkpt>
      <trkpt lat="46.587943425402045" lon="-0.7750724069774151">
        <ele>65.49</ele>
      </trkpt>
      <trkpt lat="46.58820552751422" lon="-0.7750914338976145">
        <ele>65.7</ele>
      </trkpt>
      <trkpt lat="46.58846762962639" lon="-0.7751105446368456">
        <ele>65.81</ele>
      </trkpt>
      <trkpt lat="46.588730653747916" lon="-0.7751296553760767">
        <ele>65.85</ele>
      </trkpt>
      <trkpt lat="46.58891371451318" lon="-0.7751668710261583">
        <ele>65.94</ele>
      </trkpt>
      <trkpt lat="46.589027205482125" lon="-0.7752040028572083">
        <ele>66.05</ele>
      </trkpt>
      <trkpt lat="46.589075988158584" lon="-0.7752341777086258">
        <ele>66.13</ele>
      </trkpt>
      <trkpt lat="46.58907590433955" lon="-0.7752345968037844">
        <ele>66.2</ele>
      </trkpt>
      <trkpt lat="46.589048244059086" lon="-0.7753194216638803">
        <ele>66.3</ele>
      </trkpt>
      <trkpt lat="46.58904346637428" lon="-0.7754014804959297">
        <ele>66.37</ele>
      </trkpt>
      <trkpt lat="46.58903961069882" lon="-0.7754825334995985">
        <ele>66.43</ele>
      </trkpt>
      <trkpt lat="46.589065343141556" lon="-0.7755997963249683">
        <ele>66.51</ele>
      </trkpt>
      <trkpt lat="46.58915787935257" lon="-0.7756751496344805">
        <ele>66.51</ele>
      </trkpt>
      <trkpt lat="46.58924086019397" lon="-0.7757313922047615">
        <ele>66.46</ele>
      </trkpt>
      <trkpt lat="46.589323841035366" lon="-0.7757867127656937">
        <ele>66.38</ele>
      </trkpt>
      <trkpt lat="46.5893981885165" lon="-0.7757753133773804">
        <ele>66.24</ele>
      </trkpt>
      <trkpt lat="46.589444959536195" lon="-0.7757447194308043">
        <ele>66.06</ele>
      </trkpt>
      <trkpt lat="46.589501202106476" lon="-0.7756875548511744">
        <ele>65.82</ele>
      </trkpt>
      <trkpt lat="46.5895345620811" lon="-0.775540703907609">
        <ele>65.15</ele>
      </trkpt>
      <trkpt lat="46.58964327536523" lon="-0.775549253448844">
        <ele>64.29</ele>
      </trkpt>
      <trkpt lat="46.589950220659375" lon="-0.7756407838314772">
        <ele>63.75</ele>
      </trkpt>
      <trkpt lat="46.59025741741061" lon="-0.7757323980331421">
        <ele>63.07</ele>
      </trkpt>
      <trkpt lat="46.59051734022796" lon="-0.7758057396858931">
        <ele>62.46</ele>
      </trkpt>
      <trkpt lat="46.59077726304531" lon="-0.7758791651576757">
        <ele>61.79</ele>
      </trkpt>
      <trkpt lat="46.59103752113879" lon="-0.7759526744484901">
        <ele>61.07</ele>
      </trkpt>
      <trkpt lat="46.591321248561144" lon="-0.7760289497673512">
        <ele>60.27</ele>
      </trkpt>
      <trkpt lat="46.5916049759835" lon="-0.7761051412671804">
        <ele>59.63</ele>
      </trkpt>
      <trkpt lat="46.591889122501016" lon="-0.7761815004050732">
        <ele>59.16</ele>
      </trkpt>
      <trkpt lat="46.59194444306195" lon="-0.7762282714247704">
        <ele>58.7</ele>
      </trkpt>
      <trkpt lat="46.59199498593807" lon="-0.7761548459529877">
        <ele>57.88</ele>
      </trkpt>
      <trkpt lat="46.592030273750424" lon="-0.7760794926434755">
        <ele>57.52</ele>
      </trkpt>
      <trkpt lat="46.59206078387797" lon="-0.7759803347289562">
        <ele>57.2</ele>
      </trkpt>
      <trkpt lat="46.59207411110401" lon="-0.7758810929954052">
        <ele>56.93</ele>
      </trkpt>
      <trkpt lat="46.59207318909466" lon="-0.7758038956671953">
        <ele>56.71</ele>
      </trkpt>
      <trkpt lat="46.59207318909466" lon="-0.7757266145199537">
        <ele>56.54</ele>
      </trkpt>
      <trkpt lat="46.59205600619316" lon="-0.7756465673446655">
        <ele>56.42</ele>
      </trkpt>
      <trkpt lat="46.59203890711069" lon="-0.7755655143409967">
        <ele>56.32</ele>
      </trkpt>
      <trkpt lat="46.59201694652438" lon="-0.7754843775182962">
        <ele>56.25</ele>
      </trkpt>
      <trkpt lat="46.59199599176645" lon="-0.7754033245146275">
        <ele>56.2</ele>
      </trkpt>
      <trkpt lat="46.59198450855911" lon="-0.7753298990428448">
        <ele>56.15</ele>
      </trkpt>
      <trkpt lat="46.59197403118014" lon="-0.7752555515617132">
        <ele>56.1</ele>
      </trkpt>
      <trkpt lat="46.59197595901787" lon="-0.7751849759370089">
        <ele>56.05</ele>
      </trkpt>
      <trkpt lat="46.591991214081645" lon="-0.7751029171049595">
        <ele>56.0</ele>
      </trkpt>
      <trkpt lat="46.592009318992496" lon="-0.775056229904294">
        <ele>55.93</ele>
      </trkpt>
      <trkpt lat="46.59204360097647" lon="-0.7749675493687391">
        <ele>55.77</ele>
      </trkpt>
      <trkpt lat="46.59207796677947" lon="-0.7748883403837681">
        <ele>55.56</ele>
      </trkpt>
      <trkpt lat="46.592129431664944" lon="-0.7748149149119854">
        <ele>55.43</ele>
      </trkpt>
      <trkpt lat="46.592288771644235" lon="-0.7746895216405392">
        <ele>55.26</ele>
      </trkpt>
      <trkpt lat="46.59244794398546" lon="-0.7745641283690929">
        <ele>55.06</ele>
      </trkpt>
      <trkpt lat="46.592580545693636" lon="-0.7744487095624208">
        <ele>54.92</ele>
      </trkpt>
      <trkpt lat="46.592662520706654" lon="-0.7743648067116737">
        <ele>54.83</ele>
      </trkpt>
      <trkpt lat="46.592759834602475" lon="-0.7742942310869694">
        <ele>54.76</ele>
      </trkpt>
      <trkpt lat="46.59304590895772" lon="-0.7741244975477457">
        <ele>54.71</ele>
      </trkpt>
      <trkpt lat="46.59322955645621" lon="-0.7739814184606075">
        <ele>54.72</ele>
      </trkpt>
      <trkpt lat="46.593413120135665" lon="-0.7738384231925011">
        <ele>54.73</ele>
      </trkpt>
      <trkpt lat="46.59351604990661" lon="-0.7737382594496012">
        <ele>54.71</ele>
      </trkpt>
      <trkpt lat="46.59359232522547" lon="-0.7736458070576191">
        <ele>54.72</ele>
      </trkpt>
      <trkpt lat="46.59372014924884" lon="-0.7734407018870115">
        <ele>54.8</ele>
      </trkpt>
      <trkpt lat="46.59390036016703" lon="-0.7731440663337708">
        <ele>54.93</ele>
      </trkpt>
      <trkpt lat="46.594080571085215" lon="-0.7728473469614983">
        <ele>55.03</ele>
      </trkpt>
      <trkpt lat="46.5942607820034" lon="-0.7725506275892258">
        <ele>55.04</ele>
      </trkpt>
      <trkpt lat="46.594440154731274" lon="-0.7722553331404924">
        <ele>55.13</ele>
      </trkpt>
      <trkpt lat="46.59458331763744" lon="-0.7724558282643557">
        <ele>55.28</ele>
      </trkpt>
      <trkpt lat="46.59472622908652" lon="-0.7726559042930603">
        <ele>55.34</ele>
      </trkpt>
      <trkpt lat="46.59489403478801" lon="-0.772900739684701">
        <ele>55.34</ele>
      </trkpt>
      <trkpt lat="46.59506184048951" lon="-0.7731455750763416">
        <ele>55.44</ele>
      </trkpt>
      <trkpt lat="46.59522956237197" lon="-0.773390494287014">
        <ele>55.55</ele>
      </trkpt>
      <trkpt lat="46.59539669752121" lon="-0.7736343238502741">
        <ele>55.63</ele>
      </trkpt>
      <trkpt lat="46.595659889280796" lon="-0.7738327234983444">
        <ele>55.87</ele>
      </trkpt>
      <trkpt lat="46.59585761837661" lon="-0.7739643193781376">
        <ele>56.11</ele>
      </trkpt>
      <trkpt lat="46.59605534747243" lon="-0.7740959152579308">
        <ele>56.34</ele>
      </trkpt>
      <trkpt lat="46.596253076568246" lon="-0.7742275111377239">
        <ele>56.63</ele>
      </trkpt>
      <trkpt lat="46.59644477069378" lon="-0.7742647267878056">
        <ele>56.98</ele>
      </trkpt>
      <trkpt lat="46.596645936369896" lon="-0.7742741983383894">
        <ele>57.32</ele>
      </trkpt>
      <trkpt lat="46.596945840865374" lon="-0.7742392458021641">
        <ele>57.71</ele>
      </trkpt>
      <trkpt lat="46.59724582917988" lon="-0.7742042932659388">
        <ele>58.16</ele>
      </trkpt>
      <trkpt lat="46.59754623658955" lon="-0.7741693407297134">
        <ele>58.72</ele>
      </trkpt>
      <trkpt lat="46.59780356101692" lon="-0.7741324603557587">
        <ele>59.26</ele>
      </trkpt>
      <trkpt lat="46.59806088544428" lon="-0.7740955799818039">
        <ele>59.85</ele>
      </trkpt>
      <trkpt lat="46.59831862896681" lon="-0.7740586996078491">
        <ele>60.54</ele>
      </trkpt>
      <trkpt lat="46.598524656146765" lon="-0.7740939874202013">
        <ele>61.25</ele>
      </trkpt>
      <trkpt lat="46.598717188462615" lon="-0.7741607073694468">
        <ele>61.98</ele>
      </trkpt>
      <trkpt lat="46.59890997223556" lon="-0.7742275111377239">
        <ele>62.74</ele>
      </trkpt>
      <trkpt lat="46.59914986230433" lon="-0.7743018586188555">
        <ele>63.6</ele>
      </trkpt>
      <trkpt lat="46.5993897523731" lon="-0.774376206099987">
        <ele>64.53</ele>
      </trkpt>
      <trkpt lat="46.599629977717996" lon="-0.7744506374001503">
        <ele>65.4</ele>
      </trkpt>
      <trkpt lat="46.599826365709305" lon="-0.7744630426168442">
        <ele>66.22</ele>
      </trkpt>
      <trkpt lat="46.59999995492399" lon="-0.7744144275784492">
        <ele>67.04</ele>
      </trkpt>
      <trkpt lat="46.60016683861613" lon="-0.7743257470428944">
        <ele>68.55</ele>
      </trkpt>
      <trkpt lat="46.60033472813666" lon="-0.7742131780833006">
        <ele>69.3</ele>
      </trkpt>
      <trkpt lat="46.600398598238826" lon="-0.7741493079811335">
        <ele>70.01</ele>
      </trkpt>
      <trkpt lat="46.60045391879976" lon="-0.7738756388425827">
        <ele>71.45</ele>
      </trkpt>
      <trkpt lat="46.60048820078373" lon="-0.7735551986843348">
        <ele>72.19</ele>
      </trkpt>
      <trkpt lat="46.60048250108957" lon="-0.7732757460325956">
        <ele>72.86</ele>
      </trkpt>
      <trkpt lat="46.60042625851929" lon="-0.7730916794389486">
        <ele>74.0</ele>
      </trkpt>
      <trkpt lat="46.60032609477639" lon="-0.7728905137628317">
        <ele>74.6</ele>
      </trkpt>
      <trkpt lat="46.60029181279242" lon="-0.7728017494082451">
        <ele>75.11</ele>
      </trkpt>
      <trkpt lat="46.6002965066582" lon="-0.7727512065321207">
        <ele>75.58</ele>
      </trkpt>
      <trkpt lat="46.600439585745335" lon="-0.7724069617688656">
        <ele>76.11</ele>
      </trkpt>
      <trkpt lat="46.6005692537874" lon="-0.7721161097288132">
        <ele>76.63</ele>
      </trkpt>
      <trkpt lat="46.60065986216068" lon="-0.7721799798309803">
        <ele>77.3</ele>
      </trkpt>
      <trkpt lat="46.600795816630125" lon="-0.7722992543131113">
        <ele>77.57</ele>
      </trkpt>
      <trkpt lat="46.600931687280536" lon="-0.7724184449762106">
        <ele>77.89</ele>
      </trkpt>
      <trkpt lat="46.60116872750223" lon="-0.772599158808589">
        <ele>78.25</ele>
      </trkpt>
      <trkpt lat="46.601405600085855" lon="-0.7727798726409674">
        <ele>78.63</ele>
      </trkpt>
      <trkpt lat="46.601600144058466" lon="-0.772868050262332">
        <ele>78.96</ele>
      </trkpt>
      <trkpt lat="46.60179477185011" lon="-0.7729563117027283">
        <ele>79.34</ele>
      </trkpt>
      <trkpt lat="46.60207414068282" lon="-0.7730468362569809">
        <ele>79.83</ele>
      </trkpt>
      <trkpt lat="46.60238502547145" lon="-0.7730468362569809">
        <ele>80.49</ele>
      </trkpt>
      <trkpt lat="46.60262189805508" lon="-0.7730387896299362">
        <ele>81.03</ele>
      </trkpt>
      <trkpt lat="46.602858770638704" lon="-0.7730306591838598">
        <ele>81.56</ele>
      </trkpt>
      <trkpt lat="46.6030955594033" lon="-0.7730226125568151">
        <ele>82.09</ele>
      </trkpt>
      <trkpt lat="46.60333293490112" lon="-0.7730144821107388">
        <ele>82.64</ele>
      </trkpt>
      <trkpt lat="46.60360115580261" lon="-0.7729813735932112">
        <ele>83.12</ele>
      </trkpt>
      <trkpt lat="46.603869292885065" lon="-0.7729483488947153">
        <ele>83.58</ele>
      </trkpt>
      <trkpt lat="46.60413784906268" lon="-0.7729152403771877">
        <ele>84.02</ele>
      </trkpt>
      <trkpt lat="46.6044235881418" lon="-0.7728938665241003">
        <ele>84.51</ele>
      </trkpt>
      <trkpt lat="46.604709243401885" lon="-0.7728724088519812">
        <ele>85.05</ele>
      </trkpt>
      <trkpt lat="46.604994982481" lon="-0.772850951179862">
        <ele>85.5</ele>
      </trkpt>
      <trkpt lat="46.60528130829334" lon="-0.7728294096887112">
        <ele>85.77</ele>
      </trkpt>
      <trkpt lat="46.60547870211303" lon="-0.7727798726409674">
        <ele>86.02</ele>
      </trkpt>
      <trkpt lat="46.60577525384724" lon="-0.7726406492292881">
        <ele>86.28</ele>
      </trkpt>
      <trkpt lat="46.60599645227194" lon="-0.7725233864039183">
        <ele>86.55</ele>
      </trkpt>
      <trkpt lat="46.60621773451567" lon="-0.7724060397595167">
        <ele>86.82</ele>
      </trkpt>
      <trkpt lat="46.6063732188195" lon="-0.7723087258636951">
        <ele>87.09</ele>
      </trkpt>
      <trkpt lat="46.60660305060446" lon="-0.7720159459859133">
        <ele>87.39</ele>
      </trkpt>
      <trkpt lat="46.6067651566118" lon="-0.7719024550169706">
        <ele>87.68</ele>
      </trkpt>
      <trkpt lat="46.60692013800144" lon="-0.771825760602951">
        <ele>88.0</ele>
      </trkpt>
      <trkpt lat="46.607075119391084" lon="-0.7717489823698997">
        <ele>88.35</ele>
      </trkpt>
      <trkpt lat="46.607367815449834" lon="-0.7716154586523771">
        <ele>88.79</ele>
      </trkpt>
      <trkpt lat="46.60766067914665" lon="-0.7714819349348545">
        <ele>89.23</ele>
      </trkpt>
      <trkpt lat="46.60786704160273" lon="-0.7714080903679132">
        <ele>89.6</ele>
      </trkpt>
      <trkpt lat="46.60807357169688" lon="-0.7713340781629086">
        <ele>89.89</ele>
      </trkpt>
      <trkpt lat="46.60828814841807" lon="-0.7713379338383675">
        <ele>90.22</ele>
      </trkpt>
      <trkpt lat="46.6084954328835" lon="-0.771358385682106">
        <ele>90.58</ele>
      </trkpt>
      <trkpt lat="46.60870296880603" lon="-0.7713789213448763">
        <ele>90.96</ele>
      </trkpt>
      <trkpt lat="46.60896146669984" lon="-0.7714485749602318">
        <ele>91.36</ele>
      </trkpt>
      <trkpt lat="46.608910923823714" lon="-0.7712702080607414">
        <ele>92.08</ele>
      </trkpt>
      <trkpt lat="46.608841605484486" lon="-0.7709279749542475">
        <ele>92.51</ele>
      </trkpt>
      <trkpt lat="46.608772622421384" lon="-0.7705874182283878">
        <ele>92.96</ele>
      </trkpt>
      <trkpt lat="46.608671536669135" lon="-0.7702736835926771">
        <ele>93.41</ele>
      </trkpt>
      <trkpt lat="46.608513202518225" lon="-0.7699332106858492">
        <ele>93.82</ele>
      </trkpt>
      <trkpt lat="46.60840339958668" lon="-0.7697618007659912">
        <ele>94.27</ele>
      </trkpt>
      <trkpt lat="46.608293848112226" lon="-0.7695908099412918">
        <ele>94.74</ele>
      </trkpt>
      <trkpt lat="46.60815495997667" lon="-0.7693989481776953">
        <ele>95.23</ele>
      </trkpt>
      <trkpt lat="46.608016323298216" lon="-0.7692075055092573">
        <ele>95.74</ele>
      </trkpt>
      <trkpt lat="46.60791238769889" lon="-0.768980523571372">
        <ele>96.26</ele>
      </trkpt>
      <trkpt lat="46.607835441827774" lon="-0.7687200978398323">
        <ele>96.79</ele>
      </trkpt>
      <trkpt lat="46.60775891505182" lon="-0.7684607617557049">
        <ele>97.35</ele>
      </trkpt>
      <trkpt lat="46.60765590146184" lon="-0.768219530582428">
        <ele>97.99</ele>
      </trkpt>
      <trkpt lat="46.60751265473664" lon="-0.7679635472595692">
        <ele>98.62</ele>
      </trkpt>
      <trkpt lat="46.60736974328756" lon="-0.7677083183079958">
        <ele>99.3</ele>
      </trkpt>
      <trkpt lat="46.60726706497371" lon="-0.7674737926572561">
        <ele>99.97</ele>
      </trkpt>
      <trkpt lat="46.60716472193599" lon="-0.7672401051968336">
        <ele>100.54</ele>
      </trkpt>
      <trkpt lat="46.60706858150661" lon="-0.7669451460242271">
        <ele>101.06</ele>
      </trkpt>
      <trkpt lat="46.6069723572582" lon="-0.7666501868516207">
        <ele>101.44</ele>
      </trkpt>
      <trkpt lat="46.60687671974301" lon="-0.7663569878786802">
        <ele>101.74</ele>
      </trkpt>
      <trkpt lat="46.606789799407125" lon="-0.7660760264843702">
        <ele>102.04</ele>
      </trkpt>
      <trkpt lat="46.60670321434736" lon="-0.7657962385565042">
        <ele>102.34</ele>
      </trkpt>
      <trkpt lat="46.60660137422383" lon="-0.7653757184743881">
        <ele>102.5</ele>
      </trkpt>
      <trkpt lat="46.606500037014484" lon="-0.7649570424109697">
        <ele>102.59</ele>
      </trkpt>
      <trkpt lat="46.60647237673402" lon="-0.7647100277245045">
        <ele>102.59</ele>
      </trkpt>
      <trkpt lat="46.60647044889629" lon="-0.764587065204978">
        <ele>102.51</ele>
      </trkpt>
      <trkpt lat="46.606191247701645" lon="-0.7645729836076498">
        <ele>102.28</ele>
      </trkpt>
      <trkpt lat="46.60591196268797" lon="-0.7645589020103216">
        <ele>102.11</ele>
      </trkpt>
      <trkpt lat="46.60563267767429" lon="-0.7645448204129934">
        <ele>101.77</ele>
      </trkpt>
      <trkpt lat="46.605352805927396" lon="-0.7645307388156652">
        <ele>101.35</ele>
      </trkpt>
      <trkpt lat="46.605039071291685" lon="-0.7645002286881208">
        <ele>100.78</ele>
      </trkpt>
      <trkpt lat="46.604801611974835" lon="-0.7644058484584093">
        <ele>100.33</ele>
      </trkpt>
      <trkpt lat="46.604538755491376" lon="-0.7642377074807882">
        <ele>99.93</ele>
      </trkpt>
      <trkpt lat="46.604275815188885" lon="-0.7640695665031672">
        <ele>99.4</ele>
      </trkpt>
      <trkpt lat="46.604012958705425" lon="-0.7639013417065144">
        <ele>98.84</ele>
      </trkpt>
      <trkpt lat="46.603778852149844" lon="-0.7637463603168726">
        <ele>98.26</ele>
      </trkpt>
      <trkpt lat="46.60354466177523" lon="-0.7635913789272308">
        <ele>97.71</ele>
      </trkpt>
      <trkpt lat="46.60337023437023" lon="-0.7635042071342468">
        <ele>97.18</ele>
      </trkpt>
      <trkpt lat="46.60319563932717" lon="-0.7634168677031994">
        <ele>96.7</ele>
      </trkpt>
      <trkpt lat="46.60297913476825" lon="-0.7633368205279112">
        <ele>96.25</ele>
      </trkpt>
      <trkpt lat="46.60298299044371" lon="-0.7629582099616528">
        <ele>95.32</ele>
      </trkpt>
      <trkpt lat="46.603025905787945" lon="-0.7625929266214371">
        <ele>94.83</ele>
      </trkpt>
      <trkpt lat="46.60313059575856" lon="-0.7621755078434944">
        <ele>94.31</ele>
      </trkpt>
      <trkpt lat="46.60323520191014" lon="-0.7617580890655518">
        <ele>93.83</ele>
      </trkpt>
      <trkpt lat="46.60333989188075" lon="-0.7613406702876091">
        <ele>93.34</ele>
      </trkpt>
      <trkpt lat="46.60344357602298" lon="-0.7609269395470619">
        <ele>93.0</ele>
      </trkpt>
      <trkpt lat="46.60352152772248" lon="-0.7606057450175285">
        <ele>92.77</ele>
      </trkpt>
      <trkpt lat="46.603599060326815" lon="-0.760286059230566">
        <ele>92.63</ele>
      </trkpt>
      <trkpt lat="46.603639125823975" lon="-0.7600810378789902">
        <ele>92.49</ele>
      </trkpt>
      <trkpt lat="46.60366200841963" lon="-0.7599999848753214">
        <ele>92.4</ele>
      </trkpt>
      <trkpt lat="46.60367055796087" lon="-0.7599713187664747">
        <ele>92.26</ele>
      </trkpt>
      <trkpt lat="46.6037602443248" lon="-0.759917926043272">
        <ele>92.22</ele>
      </trkpt>
      <trkpt lat="46.60386417992413" lon="-0.7598760165274143">
        <ele>92.19</ele>
      </trkpt>
      <trkpt lat="46.60390893928707" lon="-0.7598263956606388">
        <ele>92.14</ele>
      </trkpt>
      <trkpt lat="46.60394137725234" lon="-0.7597396429628134">
        <ele>92.07</ele>
      </trkpt>
      <trkpt lat="46.603951854631305" lon="-0.759669067338109">
        <ele>91.97</ele>
      </trkpt>
      <trkpt lat="46.603932827711105" lon="-0.7595765311270952">
        <ele>91.85</ele>
      </trkpt>
      <trkpt lat="46.6038622520864" lon="-0.7593743596225977">
        <ele>91.69</ele>
      </trkpt>
      <trkpt lat="46.603853702545166" lon="-0.7592741958796978">
        <ele>91.5</ele>
      </trkpt>
      <trkpt lat="46.603855546563864" lon="-0.7591674104332924">
        <ele>91.28</ele>
      </trkpt>
      <trkpt lat="46.603894690051675" lon="-0.7589414343237877">
        <ele>91.02</ele>
      </trkpt>
      <trkpt lat="46.60388798452914" lon="-0.7588317152112722">
        <ele>90.74</ele>
      </trkpt>
      <trkpt lat="46.6038622520864" lon="-0.7587153743952513">
        <ele>90.42</ele>
      </trkpt>
      <trkpt lat="46.6037361882627" lon="-0.7584235165268183">
        <ele>89.96</ele>
      </trkpt>
      <trkpt lat="46.60361004061997" lon="-0.758131742477417">
        <ele>89.49</ele>
      </trkpt>
      <trkpt lat="46.60348397679627" lon="-0.757839884608984">
        <ele>89.05</ele>
      </trkpt>
      <trkpt lat="46.60335875116289" lon="-0.7575500383973122">
        <ele>88.73</ele>
      </trkpt>
      <trkpt lat="46.6033529676497" lon="-0.7574718352407217">
        <ele>88.54</ele>
      </trkpt>
      <trkpt lat="46.60338926129043" lon="-0.7573526445776224">
        <ele>88.41</ele>
      </trkpt>
      <trkpt lat="46.60363501869142" lon="-0.757155166938901">
        <ele>88.39</ele>
      </trkpt>
      <trkpt lat="46.60388077609241" lon="-0.7569577731192112">
        <ele>88.35</ele>
      </trkpt>
      <trkpt lat="46.60412644967437" lon="-0.7567603792995214">
        <ele>88.42</ele>
      </trkpt>
      <trkpt lat="46.604371620342135" lon="-0.7565075810998678">
        <ele>88.41</ele>
      </trkpt>
      <trkpt lat="46.60461662337184" lon="-0.7562549505382776">
        <ele>88.4</ele>
      </trkpt>
      <trkpt lat="46.60482625477016" lon="-0.7559925131499767">
        <ele>88.48</ele>
      </trkpt>
      <trkpt lat="46.60503588616848" lon="-0.7557300757616758">
        <ele>88.66</ele>
      </trkpt>
      <trkpt lat="46.60524501465261" lon="-0.755468225106597">
        <ele>88.86</ele>
      </trkpt>
      <trkpt lat="46.60541768185794" lon="-0.7551639620214701">
        <ele>89.06</ele>
      </trkpt>
      <trkpt lat="46.60551876761019" lon="-0.7549284305423498">
        <ele>89.22</ele>
      </trkpt>
      <trkpt lat="46.605670899152756" lon="-0.7546027097851038">
        <ele>89.35</ele>
      </trkpt>
      <trkpt lat="46.60582311451435" lon="-0.7542769890278578">
        <ele>89.5</ele>
      </trkpt>
      <trkpt lat="46.60597457550466" lon="-0.7539528608322144">
        <ele>89.71</ele>
      </trkpt>
      <trkpt lat="46.60618211142719" lon="-0.7536185067147017">
        <ele>89.93</ele>
      </trkpt>
      <trkpt lat="46.606389647349715" lon="-0.7532840687781572">
        <ele>90.22</ele>
      </trkpt>
      <trkpt lat="46.60659709945321" lon="-0.7529497146606445">
        <ele>90.53</ele>
      </trkpt>
      <trkpt lat="46.60680463537574" lon="-0.7526153605431318">
        <ele>90.79</ele>
      </trkpt>
      <trkpt lat="46.607012171298265" lon="-0.7522810064256191">
        <ele>91.07</ele>
      </trkpt>
      <trkpt lat="46.60721962340176" lon="-0.7519465684890747">
        <ele>91.44</ele>
      </trkpt>
      <trkpt lat="46.60742715932429" lon="-0.751612214371562">
        <ele>91.95</ele>
      </trkpt>
      <trkpt lat="46.607634611427784" lon="-0.7512778602540493">
        <ele>92.44</ele>
      </trkpt>
      <trkpt lat="46.60783996805549" lon="-0.7509469427168369">
        <ele>92.83</ele>
      </trkpt>
      <trkpt lat="46.60804398357868" lon="-0.7506047934293747">
        <ele>93.24</ele>
      </trkpt>
      <trkpt lat="46.60824799910188" lon="-0.7502626441419125">
        <ele>93.74</ele>
      </trkpt>
      <trkpt lat="46.60845126025379" lon="-0.749921752139926">
        <ele>94.19</ele>
      </trkpt>
      <trkpt lat="46.6085456404835" lon="-0.7497882284224033">
        <ele>94.63</ele>
      </trkpt>
      <trkpt lat="46.608769688755274" lon="-0.7495380286127329">
        <ele>95.06</ele>
      </trkpt>
      <trkpt lat="46.60899373702705" lon="-0.7492878288030624">
        <ele>95.55</ele>
      </trkpt>
      <trkpt lat="46.609217785298824" lon="-0.749037628993392">
        <ele>96.08</ele>
      </trkpt>
      <trkpt lat="46.6094418335706" lon="-0.7487874291837215">
        <ele>96.56</ele>
      </trkpt>
      <trkpt lat="46.60966521129012" lon="-0.7485379837453365">
        <ele>96.94</ele>
      </trkpt>
      <trkpt lat="46.60989982075989" lon="-0.748288119211793">
        <ele>97.26</ele>
      </trkpt>
      <trkpt lat="46.60996846854687" lon="-0.7482604589313269">
        <ele>97.58</ele>
      </trkpt>
      <trkpt lat="46.610151613131166" lon="-0.747990645468235">
        <ele>97.9</ele>
      </trkpt>
      <trkpt lat="46.61031195893884" lon="-0.7477375958114862">
        <ele>98.2</ele>
      </trkpt>
      <trkpt lat="46.61047205328941" lon="-0.7474852167069912">
        <ele>98.45</ele>
      </trkpt>
      <trkpt lat="46.61065528169274" lon="-0.7472117990255356">
        <ele>98.72</ele>
      </trkpt>
      <trkpt lat="46.610838593915105" lon="-0.7469384651631117">
        <ele>99.03</ele>
      </trkpt>
      <trkpt lat="46.611021319404244" lon="-0.7466659694910049">
        <ele>99.29</ele>
      </trkpt>
      <trkpt lat="46.61118099465966" lon="-0.7464572601020336">
        <ele>99.57</ele>
      </trkpt>
      <trkpt lat="46.61134075373411" lon="-0.7462485507130623">
        <ele>99.83</ele>
      </trkpt>
      <trkpt lat="46.6115000937134" lon="-0.746040428057313">
        <ele>100.06</ele>
      </trkpt>
      <trkpt lat="46.611729841679335" lon="-0.7457773201167583">
        <ele>100.28</ele>
      </trkpt>
      <trkpt lat="46.6119596734643" lon="-0.7455142959952354">
        <ele>100.39</ele>
      </trkpt>
      <trkpt lat="46.61218950524926" lon="-0.7452511880546808">
        <ele>100.49</ele>
      </trkpt>
      <trkpt lat="46.612419337034225" lon="-0.7449881639331579">
        <ele>100.58</ele>
      </trkpt>
      <trkpt lat="46.61264916881919" lon="-0.744725139811635">
        <ele>100.63</ele>
      </trkpt>
      <trkpt lat="46.612878078594804" lon="-0.744463037699461">
        <ele>100.68</ele>
      </trkpt>
      <trkpt lat="46.61310514435172" lon="-0.7442460302263498">
        <ele>100.73</ele>
      </trkpt>
      <trkpt lat="46.613332042470574" lon="-0.7440291065722704">
        <ele>100.83</ele>
      </trkpt>
      <trkpt lat="46.61353806965053" lon="-0.7438481412827969">
        <ele>100.87</ele>
      </trkpt>
      <trkpt lat="46.61374409683049" lon="-0.7436670921742916">
        <ele>100.89</ele>
      </trkpt>
      <trkpt lat="46.613950124010444" lon="-0.7434861268848181">
        <ele>100.88</ele>
      </trkpt>
      <trkpt lat="46.61415598355234" lon="-0.743305329233408">
        <ele>100.84</ele>
      </trkpt>
      <trkpt lat="46.61433049477637" lon="-0.7431937661021948">
        <ele>100.82</ele>
      </trkpt>
      <trkpt lat="46.6145050060004" lon="-0.7430822029709816">
        <ele>100.8</ele>
      </trkpt>
      <trkpt lat="46.61479267291725" lon="-0.7429153192788363">
        <ele>100.8</ele>
      </trkpt>
      <trkpt lat="46.615080339834094" lon="-0.7427484355866909">
        <ele>100.84</ele>
      </trkpt>
      <trkpt lat="46.61536809056997" lon="-0.7425814680755138">
        <ele>100.84</ele>
      </trkpt>
      <trkpt lat="46.61560362204909" lon="-0.7424651272594929">
        <ele>100.82</ele>
      </trkpt>
      <trkpt lat="46.61586890928447" lon="-0.7423723395913839">
        <ele>100.9</ele>
      </trkpt>
      <trkpt lat="46.61613428033888" lon="-0.742279551923275">
        <ele>100.96</ele>
      </trkpt>
      <trkpt lat="46.61639990285039" lon="-0.7421866804361343">
        <ele>101.01</ele>
      </trkpt>
      <trkpt lat="46.616470478475094" lon="-0.742147620767355">
        <ele>101.13</ele>
      </trkpt>
      <trkpt lat="46.61661976017058" lon="-0.7420498039573431">
        <ele>101.28</ele>
      </trkpt>
      <trkpt lat="46.61676895804703" lon="-0.741952070966363">
        <ele>101.5</ele>
      </trkpt>
      <trkpt lat="46.61696291528642" lon="-0.7418144401162863">
        <ele>101.83</ele>
      </trkpt>
      <trkpt lat="46.61715678870678" lon="-0.7416768092662096">
        <ele>102.25</ele>
      </trkpt>
      <trkpt lat="46.61735074594617" lon="-0.7415391784161329">
        <ele>102.7</ele>
      </trkpt>
      <trkpt lat="46.61748234182596" lon="-0.741407498717308">
        <ele>103.16</ele>
      </trkpt>
      <trkpt lat="46.617613937705755" lon="-0.7412759866565466">
        <ele>103.67</ele>
      </trkpt>
      <trkpt lat="46.61784628406167" lon="-0.7410154771059752">
        <ele>104.24</ele>
      </trkpt>
      <trkpt lat="46.61807837896049" lon="-0.7407552190124989">
        <ele>104.81</ele>
      </trkpt>
      <trkpt lat="46.618128921836615" lon="-0.7406846433877945">
        <ele>105.44</ele>
      </trkpt>
      <trkpt lat="46.61823922768235" lon="-0.740483645349741">
        <ele>106.16</ele>
      </trkpt>
      <trkpt lat="46.61834919825196" lon="-0.7402832340449095">
        <ele>106.95</ele>
      </trkpt>
      <trkpt lat="46.618558075279" lon="-0.7399999257177114">
        <ele>107.77</ele>
      </trkpt>
      <trkpt lat="46.61878187209368" lon="-0.7396959140896797">
        <ele>109.57</ele>
      </trkpt>
      <trkpt lat="46.61900533363223" lon="-0.73939248919487">
        <ele>110.67</ele>
      </trkpt>
      <trkpt lat="46.61920658312738" lon="-0.7391870487481356">
        <ele>111.81</ele>
      </trkpt>
      <trkpt lat="46.61940791644156" lon="-0.7389816083014011">
        <ele>112.94</ele>
      </trkpt>
      <trkpt lat="46.619608998298645" lon="-0.7387764193117619">
        <ele>113.96</ele>
      </trkpt>
      <trkpt lat="46.61978920921683" lon="-0.738611463457346">
        <ele>114.97</ele>
      </trkpt>
      <trkpt lat="46.619999930262566" lon="-0.7384598348289728">
        <ele>116.05</ele>
      </trkpt>
      <trkpt lat="46.62024510093033" lon="-0.7382827252149582">
        <ele>118.28</ele>
      </trkpt>
      <trkpt lat="46.62049018777907" lon="-0.7381056994199753">
        <ele>119.42</ele>
      </trkpt>
      <trkpt lat="46.62073519080877" lon="-0.7379285898059607">
        <ele>120.4</ele>
      </trkpt>
      <trkpt lat="46.62094599567354" lon="-0.7378056272864342">
        <ele>121.24</ele>
      </trkpt>
      <trkpt lat="46.62113098427653" lon="-0.7376854307949543">
        <ele>121.98</ele>
      </trkpt>
      <trkpt lat="46.62131597287953" lon="-0.7375653181225061">
        <ele>122.66</ele>
      </trkpt>
      <trkpt lat="46.62155410274863" lon="-0.7373939082026482">
        <ele>123.25</ele>
      </trkpt>
      <trkpt lat="46.621792232617736" lon="-0.7372225821018219">
        <ele>123.64</ele>
      </trkpt>
      <trkpt lat="46.62203027866781" lon="-0.7370512560009956">
        <ele>123.84</ele>
      </trkpt>
      <trkpt lat="46.622142512351274" lon="-0.7369785849004984">
        <ele>123.94</ele>
      </trkpt>
      <trkpt lat="46.622333535924554" lon="-0.7368547841906548">
        <ele>123.65</ele>
      </trkpt>
      <trkpt lat="46.62256395444274" lon="-0.7367511838674545">
        <ele>123.25</ele>
      </trkpt>
      <trkpt lat="46.622794372960925" lon="-0.7366475835442543">
        <ele>122.69</ele>
      </trkpt>
      <trkpt lat="46.623024959117174" lon="-0.7365438994020224">
        <ele>121.95</ele>
      </trkpt>
      <trkpt lat="46.623123195022345" lon="-0.7365210168063641">
        <ele>121.03</ele>
      </trkpt>
      <trkpt lat="46.623200392350554" lon="-0.736493356525898">
        <ele>118.72</ele>
      </trkpt>
      <trkpt lat="46.623319583013654" lon="-0.7364342641085386">
        <ele>117.27</ele>
      </trkpt>
      <trkpt lat="46.62362091243267" lon="-0.7363076135516167">
        <ele>115.58</ele>
      </trkpt>
      <trkpt lat="46.623922158032656" lon="-0.7361810468137264">
        <ele>113.66</ele>
      </trkpt>
      <trkpt lat="46.62422340363264" lon="-0.7360544800758362">
        <ele>111.66</ele>
      </trkpt>
      <trkpt lat="46.624524649232626" lon="-0.7359278295189142">
        <ele>109.59</ele>
      </trkpt>
      <trkpt lat="46.6248263977468" lon="-0.7358010113239288">
        <ele>107.3</ele>
      </trkpt>
      <trkpt lat="46.62508757784963" lon="-0.7356828264892101">
        <ele>104.92</ele>
      </trkpt>
      <trkpt lat="46.62534884177148" lon="-0.7355645578354597">
        <ele>102.62</ele>
      </trkpt>
      <trkpt lat="46.625610273331404" lon="-0.7354462891817093">
        <ele>100.31</ele>
      </trkpt>
      <trkpt lat="46.6258954256773" lon="-0.7352622225880623">
        <ele>98.14</ele>
      </trkpt>
      <trkpt lat="46.626101452857256" lon="-0.7351182214915752">
        <ele>96.01</ele>
      </trkpt>
      <trkpt lat="46.62630739621818" lon="-0.7349742203950882">
        <ele>93.97</ele>
      </trkpt>
      <trkpt lat="46.62652675062418" lon="-0.7347415387630463">
        <ele>91.99</ele>
      </trkpt>
      <trkpt lat="46.626665219664574" lon="-0.7345348410308361">
        <ele>90.17</ele>
      </trkpt>
      <trkpt lat="46.62680335342884" lon="-0.7343285623937845">
        <ele>88.57</ele>
      </trkpt>
      <trkpt lat="46.6268986556679" lon="-0.734222698956728">
        <ele>87.18</ele>
      </trkpt>
      <trkpt lat="46.627017846331" lon="-0.7341998163610697">
        <ele>85.96</ele>
      </trkpt>
      <trkpt lat="46.6272958740592" lon="-0.7343691308051348">
        <ele>84.86</ele>
      </trkpt>
      <trkpt lat="46.6275739017874" lon="-0.7345383614301682">
        <ele>83.78</ele>
      </trkpt>
      <trkpt lat="46.62760533392429" lon="-0.7344687916338444">
        <ele>82.44</ele>
      </trkpt>
      <trkpt lat="46.62765679880977" lon="-0.7343934383243322">
        <ele>81.99</ele>
      </trkpt>
      <trkpt lat="46.62774841301143" lon="-0.734301907941699">
        <ele>81.66</ele>
      </trkpt>
      <trkpt lat="46.62781513296068" lon="-0.7342522870749235">
        <ele>81.47</ele>
      </trkpt>
      <trkpt lat="46.62790666334331" lon="-0.7341559790074825">
        <ele>81.52</ele>
      </trkpt>
      <trkpt lat="46.62794773466885" lon="-0.7340873312205076">
        <ele>81.7</ele>
      </trkpt>
      <trkpt lat="46.627981094643474" lon="-0.7340004947036505">
        <ele>81.99</ele>
      </trkpt>
      <trkpt lat="46.62805259227753" lon="-0.7337420806288719">
        <ele>82.34</ele>
      </trkpt>
      <trkpt lat="46.628177566453815" lon="-0.7333806529641151">
        <ele>82.75</ele>
      </trkpt>
      <trkpt lat="46.62826809100807" lon="-0.7331536710262299">
        <ele>83.24</ele>
      </trkpt>
      <trkpt lat="46.62836632691324" lon="-0.7329305447638035">
        <ele>83.87</ele>
      </trkpt>
      <trkpt lat="46.62843790836632" lon="-0.7327855378389359">
        <ele>84.51</ele>
      </trkpt>
      <trkpt lat="46.62851896136999" lon="-0.7326530199497938">
        <ele>85.17</ele>
      </trkpt>
      <trkpt lat="46.628708727657795" lon="-0.7324346713721752">
        <ele>85.88</ele>
      </trkpt>
      <trkpt lat="46.62883177399635" lon="-0.7323354296386242">
        <ele>86.6</ele>
      </trkpt>
      <trkpt lat="46.62880218587816" lon="-0.7321418914943933">
        <ele>88.07</ele>
      </trkpt>
      <trkpt lat="46.62879070267081" lon="-0.7320216950029135">
        <ele>88.89</ele>
      </trkpt>
      <trkpt lat="46.628806963562965" lon="-0.7318786159157753">
        <ele>89.69</ele>
      </trkpt>
      <trkpt lat="46.62883177399635" lon="-0.7318033464252949">
        <ele>90.53</ele>
      </trkpt>
      <trkpt lat="46.6289328597486" lon="-0.7316088024526834">
        <ele>91.38</ele>
      </trkpt>
      <trkpt lat="46.6291091311723" lon="-0.7312881946563721">
        <ele>92.33</ele>
      </trkpt>
      <trkpt lat="46.62928548641503" lon="-0.7309676706790924">
        <ele>93.38</ele>
      </trkpt>
      <trkpt lat="46.629461171105504" lon="-0.7306484039872885">
        <ele>94.54</ele>
      </trkpt>
      <trkpt lat="46.62964230403304" lon="-0.7303106971085072">
        <ele>95.52</ele>
      </trkpt>
      <trkpt lat="46.62982343696058" lon="-0.7299729064106941">
        <ele>96.54</ele>
      </trkpt>
      <trkpt lat="46.6300037316978" lon="-0.729636624455452">
        <ele>97.55</ele>
      </trkpt>
      <trkpt lat="46.630112528800964" lon="-0.7294096425175667">
        <ele>98.51</ele>
      </trkpt>
      <trkpt lat="46.63026030175388" lon="-0.7290529925376177">
        <ele>99.47</ele>
      </trkpt>
      <trkpt lat="46.63037186488509" lon="-0.7288116775453091">
        <ele>100.31</ele>
      </trkpt>
      <trkpt lat="46.6305130161345" lon="-0.7286076620221138">
        <ele>101.05</ele>
      </trkpt>
      <trkpt lat="46.63075374439359" lon="-0.7283180672675371">
        <ele>101.68</ele>
      </trkpt>
      <trkpt lat="46.63099438883364" lon="-0.7280285563319921">
        <ele>102.18</ele>
      </trkpt>
      <trkpt lat="46.63123511709273" lon="-0.7277389615774155">
        <ele>102.53</ele>
      </trkpt>
      <trkpt lat="46.63147576153278" lon="-0.7274494506418705">
        <ele>102.76</ele>
      </trkpt>
      <trkpt lat="46.63171556778252" lon="-0.7271609455347061">
        <ele>102.86</ele>
      </trkpt>
      <trkpt lat="46.63185395300388" lon="-0.7270034495741129">
        <ele>102.86</ele>
      </trkpt>
      <trkpt lat="46.63199217058718" lon="-0.7268462050706148">
        <ele>102.83</ele>
      </trkpt>
      <trkpt lat="46.632026452571154" lon="-0.7268014457076788">
        <ele>102.73</ele>
      </trkpt>
      <trkpt lat="46.632084622979164" lon="-0.7266945764422417">
        <ele>102.56</ele>
      </trkpt>
      <trkpt lat="46.632085628807545" lon="-0.7266928162425756">
        <ele>102.32</ele>
      </trkpt>
      <trkpt lat="46.631947327405214" lon="-0.7265686802566051">
        <ele>101.96</ele>
      </trkpt>
      <trkpt lat="46.631865268573165" lon="-0.7264819275587797">
        <ele>101.61</ele>
      </trkpt>
      <trkpt lat="46.631784215569496" lon="-0.7263951748609543">
        <ele>101.23</ele>
      </trkpt>
      <trkpt lat="46.631708862259984" lon="-0.7262940891087055">
        <ele>100.83</ele>
      </trkpt>
      <trkpt lat="46.63153267465532" lon="-0.7259750738739967">
        <ele>100.45</ele>
      </trkpt>
      <trkpt lat="46.63135698996484" lon="-0.7256570644676685">
        <ele>100.0</ele>
      </trkpt>
      <trkpt lat="46.6312419064343" lon="-0.7254182640463114">
        <ele>99.56</ele>
      </trkpt>
      <trkpt lat="46.63112715817988" lon="-0.7251802179962397">
        <ele>99.14</ele>
      </trkpt>
      <trkpt lat="46.63109187036753" lon="-0.7251134142279625">
        <ele>98.8</ele>
      </trkpt>
      <trkpt lat="46.631056582555175" lon="-0.7250457722693682">
        <ele>98.49</ele>
      </trkpt>
      <trkpt lat="46.631016517058015" lon="-0.7249808963388205">
        <ele>98.24</ele>
      </trkpt>
      <trkpt lat="46.630977457389235" lon="-0.7249160204082727">
        <ele>98.02</ele>
      </trkpt>
      <trkpt lat="46.63090210407972" lon="-0.7248159404844046">
        <ele>97.87</ele>
      </trkpt>
      <trkpt lat="46.63082867860794" lon="-0.7247310318052769">
        <ele>97.72</ele>
      </trkpt>
      <trkpt lat="46.63063413463533" lon="-0.7245736196637154">
        <ele>97.57</ele>
      </trkpt>
      <trkpt lat="46.63043959066272" lon="-0.7244162913411856">
        <ele>97.39</ele>
      </trkpt>
      <trkpt lat="46.63034898228943" lon="-0.7243199832737446">
        <ele>97.24</ele>
      </trkpt>
      <trkpt lat="46.63025937974453" lon="-0.7242236752063036">
        <ele>97.11</ele>
      </trkpt>
      <trkpt lat="46.63016013801098" lon="-0.724137844517827">
        <ele>96.99</ele>
      </trkpt>
      <trkpt lat="46.629913207143545" lon="-0.7240186538547277">
        <ele>96.84</ele>
      </trkpt>
      <trkpt lat="46.629832154139876" lon="-0.7239576335996389">
        <ele>96.72</ele>
      </trkpt>
      <trkpt lat="46.6297463234514" lon="-0.7238746527582407">
        <ele>96.55</ele>
      </trkpt>
      <trkpt lat="46.62950484082103" lon="-0.7236045878380537">
        <ele>96.39</ele>
      </trkpt>
      <trkpt lat="46.629263777285814" lon="-0.7233348581939936">
        <ele>96.2</ele>
      </trkpt>
      <trkpt lat="46.62918649613857" lon="-0.7232624385505915">
        <ele>95.98</ele>
      </trkpt>
      <trkpt lat="46.62910921499133" lon="-0.7231890130788088">
        <ele>95.7</ele>
      </trkpt>
      <trkpt lat="46.629044422879815" lon="-0.7231498695909977">
        <ele>95.43</ele>
      </trkpt>
      <trkpt lat="46.62895574234426" lon="-0.7231212873011827">
        <ele>95.12</ele>
      </trkpt>
      <trkpt lat="46.6289175208658" lon="-0.723116509616375">
        <ele>94.78</ele>
      </trkpt>
      <trkpt lat="46.62885272875428" lon="-0.723132686689496">
        <ele>94.38</ele>
      </trkpt>
      <trkpt lat="46.628747787326574" lon="-0.7231937069445848">
        <ele>93.93</ele>
      </trkpt>
      <trkpt lat="46.62866388447583" lon="-0.7232624385505915">
        <ele>93.47</ele>
      </trkpt>
      <trkpt lat="46.62858090363443" lon="-0.7233711518347263">
        <ele>93.01</ele>
      </trkpt>
      <trkpt lat="46.62849792279303" lon="-0.7234798651188612">
        <ele>92.56</ele>
      </trkpt>
      <trkpt lat="46.628369595855474" lon="-0.7236306555569172">
        <ele>92.12</ele>
      </trkpt>
      <trkpt lat="46.62824143655598" lon="-0.723781194537878">
        <ele>91.69</ele>
      </trkpt>
      <trkpt lat="46.62814412266016" lon="-0.7238641753792763">
        <ele>91.28</ele>
      </trkpt>
      <trkpt lat="46.62809835746884" lon="-0.7238794304430485">
        <ele>90.91</ele>
      </trkpt>
      <trkpt lat="46.6280678473413" lon="-0.7238765805959702">
        <ele>90.59</ele>
      </trkpt>
      <trkpt lat="46.62801252678037" lon="-0.7238508481532335">
        <ele>90.28</ele>
      </trkpt>
      <trkpt lat="46.62792292423546" lon="-0.7237802725285292">
        <ele>90.01</ele>
      </trkpt>
      <trkpt lat="46.62783323787153" lon="-0.7237086910754442">
        <ele>89.84</ele>
      </trkpt>
      <trkpt lat="46.62777129560709" lon="-0.7236485928297043">
        <ele>89.79</ele>
      </trkpt>
      <trkpt lat="46.62770926952362" lon="-0.7235875725746155">
        <ele>89.82</ele>
      </trkpt>
      <trkpt lat="46.62749603390694" lon="-0.7233433239161968">
        <ele>90.04</ele>
      </trkpt>
      <trkpt lat="46.627282965928316" lon="-0.7230993267148733">
        <ele>90.35</ele>
      </trkpt>
      <trkpt lat="46.62723912857473" lon="-0.7231289148330688">
        <ele>90.93</ele>
      </trkpt>
      <trkpt lat="46.6272009909153" lon="-0.7231450919061899">
        <ele>91.31</ele>
      </trkpt>
      <trkpt lat="46.62712278775871" lon="-0.7231670524924994">
        <ele>91.74</ele>
      </trkpt>
      <trkpt lat="46.62704458460212" lon="-0.7231880072504282">
        <ele>92.22</ele>
      </trkpt>
      <trkpt lat="46.62694735452533" lon="-0.7232051901519299">
        <ele>92.75</ele>
      </trkpt>
      <trkpt lat="46.626850962638855" lon="-0.7232061121612787">
        <ele>93.37</ele>
      </trkpt>
      <trkpt lat="46.626592548564076" lon="-0.7231823075562716">
        <ele>94.12</ele>
      </trkpt>
      <trkpt lat="46.62648098543286" lon="-0.7231832295656204">
        <ele>94.81</ele>
      </trkpt>
      <trkpt lat="46.62639423273504" lon="-0.7231937069445848">
        <ele>95.48</ele>
      </trkpt>
      <trkpt lat="46.62623262964189" lon="-0.7232280727475882">
        <ele>96.22</ele>
      </trkpt>
      <trkpt lat="46.62607094272971" lon="-0.7232624385505915">
        <ele>96.9</ele>
      </trkpt>
      <trkpt lat="46.62595644593239" lon="-0.7232709880918264">
        <ele>97.49</ele>
      </trkpt>
      <trkpt lat="46.62587162107229" lon="-0.7232662104070187">
        <ele>98.01</ele>
      </trkpt>
      <trkpt lat="46.62578763440251" lon="-0.723260510712862">
        <ele>98.44</ele>
      </trkpt>
      <trkpt lat="46.625709515064955" lon="-0.7232662104070187">
        <ele>98.8</ele>
      </trkpt>
      <trkpt lat="46.62563223391771" lon="-0.7232709880918264">
        <ele>99.1</ele>
      </trkpt>
      <trkpt lat="46.6254601534456" lon="-0.7232990674674511">
        <ele>99.29</ele>
      </trkpt>
      <trkpt lat="46.62528798915446" lon="-0.7233272306621075">
        <ele>99.41</ele>
      </trkpt>
      <trkpt lat="46.62517064251006" lon="-0.7233263086527586">
        <ele>99.56</ele>
      </trkpt>
      <trkpt lat="46.62505337968469" lon="-0.7233243808150291">
        <ele>99.66</ele>
      </trkpt>
      <trkpt lat="46.62474534474313" lon="-0.7233548909425735">
        <ele>99.73</ele>
      </trkpt>
      <trkpt lat="46.62462992593646" lon="-0.7233806233853102">
        <ele>99.72</ele>
      </trkpt>
      <trkpt lat="46.62452884018421" lon="-0.7234178390353918">
        <ele>99.72</ele>
      </trkpt>
      <trkpt lat="46.62443823181093" lon="-0.723461676388979">
        <ele>99.77</ele>
      </trkpt>
      <trkpt lat="46.62437151186168" lon="-0.7235027477145195">
        <ele>99.9</ele>
      </trkpt>
      <trkpt lat="46.624304708093405" lon="-0.7235428132116795">
        <ele>100.07</ele>
      </trkpt>
      <trkpt lat="46.624147882685065" lon="-0.7236591540277004">
        <ele>100.34</ele>
      </trkpt>
      <trkpt lat="46.623990973457694" lon="-0.7237754948437214">
        <ele>100.75</ele>
      </trkpt>
      <trkpt lat="46.623989045619965" lon="-0.7240262813866138">
        <ele>101.6</ele>
      </trkpt>
      <trkpt lat="46.623931881040335" lon="-0.7244535069912672">
        <ele>102.12</ele>
      </trkpt>
      <trkpt lat="46.62388326600194" lon="-0.7247281819581985">
        <ele>102.76</ele>
      </trkpt>
      <trkpt lat="46.62386608310044" lon="-0.7248931378126144">
        <ele>103.5</ele>
      </trkpt>
      <trkpt lat="46.62386038340628" lon="-0.7250181119889021">
        <ele>104.31</ele>
      </trkpt>
      <trkpt lat="46.62388703785837" lon="-0.7254329323768616">
        <ele>105.4</ele>
      </trkpt>
      <trkpt lat="46.62388611584902" lon="-0.7256150711327791">
        <ele>106.35</ele>
      </trkpt>
      <trkpt lat="46.623871782794595" lon="-0.7257562223821878">
        <ele>107.27</ele>
      </trkpt>
      <trkpt lat="46.62383649498224" lon="-0.7259030733257532">
        <ele>108.17</ele>
      </trkpt>
      <trkpt lat="46.623771619051695" lon="-0.7261214219033718">
        <ele>109.08</ele>
      </trkpt>
      <trkpt lat="46.623636251315475" lon="-0.7264934107661247">
        <ele>109.93</ele>
      </trkpt>
      <trkpt lat="46.6235676035285" lon="-0.7267184648662806">
        <ele>110.72</ele>
      </trkpt>
      <trkpt lat="46.623536087572575" lon="-0.7268443610519171">
        <ele>111.34</ele>
      </trkpt>
      <trkpt lat="46.623497949913144" lon="-0.727036977186799">
        <ele>111.89</ele>
      </trkpt>
      <trkpt lat="46.62343659438193" lon="-0.7274253107607365">
        <ele>112.34</ele>
      </trkpt>
      <trkpt lat="46.62337523885071" lon="-0.7278136443346739">
        <ele>112.63</ele>
      </trkpt>
      <trkpt lat="46.623313799500465" lon="-0.7282019779086113">
        <ele>112.87</ele>
      </trkpt>
      <trkpt lat="46.62325244396925" lon="-0.728590227663517">
        <ele>112.94</ele>
      </trkpt>
      <trkpt lat="46.62319184280932" lon="-0.7289738673716784">
        <ele>112.78</ele>
      </trkpt>
      <trkpt lat="46.62315085530281" lon="-0.7292971573770046">
        <ele>112.46</ele>
      </trkpt>
      <trkpt lat="46.62313082255423" lon="-0.7295355387032032">
        <ele>112.07</ele>
      </trkpt>
      <trkpt lat="46.62312411703169" lon="-0.7298035081475973">
        <ele>111.6</ele>
      </trkpt>
      <trkpt lat="46.6231220215559" lon="-0.7302252016961575">
        <ele>110.94</ele>
      </trkpt>
      <trkpt lat="46.62311992608011" lon="-0.7306469790637493">
        <ele>110.28</ele>
      </trkpt>
      <trkpt lat="46.62311774678528" lon="-0.7310686726123095">
        <ele>109.81</ele>
      </trkpt>
      <trkpt lat="46.62311565130949" lon="-0.7314903661608696">
        <ele>109.39</ele>
      </trkpt>
      <trkpt lat="46.6231135558337" lon="-0.7319066114723682">
        <ele>109.17</ele>
      </trkpt>
      <trkpt lat="46.62311271764338" lon="-0.7319062761962414">
        <ele>108.98</ele>
      </trkpt>
      <trkpt lat="46.623063096776605" lon="-0.7318900991231203">
        <ele>108.9</ele>
      </trkpt>
      <trkpt lat="46.622844161465764" lon="-0.7318427413702011">
        <ele>109.02</ele>
      </trkpt>
      <trkpt lat="46.62262522615492" lon="-0.7317953836172819">
        <ele>109.19</ele>
      </trkpt>
      <trkpt lat="46.62240603938699" lon="-0.7317480258643627">
        <ele>109.41</ele>
      </trkpt>
      <trkpt lat="46.6223450191319" lon="-0.7317317649722099">
        <ele>109.62</ele>
      </trkpt>
      <trkpt lat="46.62228391505778" lon="-0.7317155878990889">
        <ele>109.91</ele>
      </trkpt>
      <trkpt lat="46.622196240350604" lon="-0.7316850777715445">
        <ele>110.27</ele>
      </trkpt>
      <trkpt lat="46.622094148769975" lon="-0.7316326070576906">
        <ele>110.69</ele>
      </trkpt>
      <trkpt lat="46.62202457897365" lon="-0.7315811421722174">
        <ele>111.13</ele>
      </trkpt>
      <trkpt lat="46.62193397060037" lon="-0.7314838282763958">
        <ele>111.61</ele>
      </trkpt>
      <trkpt lat="46.6218595393002" lon="-0.7313655596226454">
        <ele>112.57</ele>
      </trkpt>
      <trkpt lat="46.62182525731623" lon="-0.7312921341508627">
        <ele>113.07</ele>
      </trkpt>
      <trkpt lat="46.62179189734161" lon="-0.73121870867908">
        <ele>113.58</ele>
      </trkpt>
      <trkpt lat="46.6216869559139" lon="-0.7308982685208321">
        <ele>114.12</ele>
      </trkpt>
      <trkpt lat="46.62167077884078" lon="-0.7308334764093161">
        <ele>114.62</ele>
      </trkpt>
      <trkpt lat="46.62165451794863" lon="-0.7307686004787683">
        <ele>115.12</ele>
      </trkpt>
      <trkpt lat="46.62163448520005" lon="-0.7306494098156691">
        <ele>115.62</ele>
      </trkpt>
      <trkpt lat="46.62161445245147" lon="-0.7305292133241892">
        <ele>116.13</ele>
      </trkpt>
      <trkpt lat="46.621598275378346" lon="-0.7302183285355568">
        <ele>116.69</ele>
      </trkpt>
      <trkpt lat="46.62159349769354" lon="-0.7299522869288921">
        <ele>117.25</ele>
      </trkpt>
      <trkpt lat="46.621598275378346" lon="-0.7298397179692984">
        <ele>117.75</ele>
      </trkpt>
      <trkpt lat="46.6216039750725" lon="-0.7297262270003557">
        <ele>118.24</ele>
      </trkpt>
      <trkpt lat="46.62163448520005" lon="-0.7293209619820118">
        <ele>118.7</ele>
      </trkpt>
      <trkpt lat="46.6216335631907" lon="-0.7292236480861902">
        <ele>119.14</ele>
      </trkpt>
      <trkpt lat="46.621625013649464" lon="-0.7291359733790159">
        <ele>119.57</ele>
      </trkpt>
      <trkpt lat="46.621603053063154" lon="-0.7290529925376177">
        <ele>119.99</ele>
      </trkpt>
      <trkpt lat="46.621582098305225" lon="-0.7289690896868706">
        <ele>120.4</ele>
      </trkpt>
      <trkpt lat="46.621523927897215" lon="-0.7288479711860418">
        <ele>120.84</ele>
      </trkpt>
      <trkpt lat="46.62147145718336" lon="-0.7287716120481491">
        <ele>121.22</ele>
      </trkpt>
      <trkpt lat="46.62142854183912" lon="-0.7287220750004053">
        <ele>121.56</ele>
      </trkpt>
      <trkpt lat="46.621385626494884" lon="-0.7286839373409748">
        <ele>121.88</ele>
      </trkpt>
      <trkpt lat="46.62133315578103" lon="-0.7286628987640142">
        <ele>122.17</ele>
      </trkpt>
      <trkpt lat="46.621248330920935" lon="-0.7286552712321281">
        <ele>122.42</ele>
      </trkpt>
      <trkpt lat="46.62115386687219" lon="-0.7286658324301243">
        <ele>122.63</ele>
      </trkpt>
      <trkpt lat="46.62103467620909" lon="-0.7287182193249464">
        <ele>122.81</ele>
      </trkpt>
      <trkpt lat="46.62084734067321" lon="-0.7288207300007343">
        <ele>122.95</ele>
      </trkpt>
      <trkpt lat="46.62065992131829" lon="-0.728923324495554">
        <ele>122.96</ele>
      </trkpt>
      <trkpt lat="46.62055120803416" lon="-0.7289776392281055">
        <ele>122.87</ele>
      </trkpt>
      <trkpt lat="46.62044341675937" lon="-0.7290320377796888">
        <ele>122.66</ele>
      </trkpt>
      <trkpt lat="46.6201725974679" lon="-0.7291502226144075">
        <ele>122.34</ele>
      </trkpt>
      <trkpt lat="46.62008576095104" lon="-0.729183666408062">
        <ele>121.98</ele>
      </trkpt>
      <trkpt lat="46.619999930262566" lon="-0.7292170263826847">
        <ele>121.52</ele>
      </trkpt>
      <trkpt lat="46.61977688781917" lon="-0.7293043658137321">
        <ele>120.36</ele>
      </trkpt>
      <trkpt lat="46.619553845375776" lon="-0.7293917890638113">
        <ele>119.58</ele>
      </trkpt>
      <trkpt lat="46.619330467656255" lon="-0.7294792961329222">
        <ele>118.78</ele>
      </trkpt>
      <trkpt lat="46.619132654741406" lon="-0.7295751012861729">
        <ele>117.97</ele>
      </trkpt>
      <trkpt lat="46.618934758007526" lon="-0.7296709064394236">
        <ele>117.13</ele>
      </trkpt>
      <trkpt lat="46.61867952905595" lon="-0.7298040948808193">
        <ele>116.24</ele>
      </trkpt>
      <trkpt lat="46.61842430010438" lon="-0.7299372833222151">
        <ele>115.3</ele>
      </trkpt>
      <trkpt lat="46.61816890351474" lon="-0.7300705555826426">
        <ele>114.31</ele>
      </trkpt>
      <trkpt lat="46.61797628737986" lon="-0.7301496807485819">
        <ele>113.34</ele>
      </trkpt>
      <trkpt lat="46.61777411587536" lon="-0.7302183285355568">
        <ele>112.37</ele>
      </trkpt>
      <trkpt lat="46.61751251667738" lon="-0.7302816957235336">
        <ele>111.39</ele>
      </trkpt>
      <trkpt lat="46.61725058220327" lon="-0.7303451467305422">
        <ele>110.36</ele>
      </trkpt>
      <trkpt lat="46.61698034964502" lon="-0.7304057478904724">
        <ele>109.43</ele>
      </trkpt>
      <trkpt lat="46.61670986562967" lon="-0.7304662652313709">
        <ele>108.55</ele>
      </trkpt>
      <trkpt lat="46.61651439964771" lon="-0.7304967753589153">
        <ele>107.7</ele>
      </trkpt>
      <trkpt lat="46.616310300305486" lon="-0.730513958260417">
        <ele>106.94</ele>
      </trkpt>
      <trkpt lat="46.6161229647696" lon="-0.7305073365569115">
        <ele>106.26</ele>
      </trkpt>
      <trkpt lat="46.615935461595654" lon="-0.7305006310343742">
        <ele>105.68</ele>
      </trkpt>
      <trkpt lat="46.61567528732121" lon="-0.7304837834089994">
        <ele>105.2</ele>
      </trkpt>
      <trkpt lat="46.615415113046765" lon="-0.7304669357836246">
        <ele>104.75</ele>
      </trkpt>
      <trkpt lat="46.61515443585813" lon="-0.7304500881582499">
        <ele>104.35</ele>
      </trkpt>
      <trkpt lat="46.614848747849464" lon="-0.7304405327886343">
        <ele>103.98</ele>
      </trkpt>
      <trkpt lat="46.6145430598408" lon="-0.7304310612380505">
        <ele>103.69</ele>
      </trkpt>
      <trkpt lat="46.6142372880131" lon="-0.7304215058684349">
        <ele>103.49</ele>
      </trkpt>
      <trkpt lat="46.61393092945218" lon="-0.7304119504988194">
        <ele>103.2</ele>
      </trkpt>
      <trkpt lat="46.61365432664752" lon="-0.7304357551038265">
        <ele>102.86</ele>
      </trkpt>
      <trkpt lat="46.6134946513921" lon="-0.7304910756647587">
        <ele>102.64</ele>
      </trkpt>
      <trkpt lat="46.61333489231765" lon="-0.7305463962256908">
        <ele>102.48</ele>
      </trkpt>
      <trkpt lat="46.613156106323004" lon="-0.7306212466210127">
        <ele>102.42</ele>
      </trkpt>
      <trkpt lat="46.61297723650932" lon="-0.7306960970163345">
        <ele>102.34</ele>
      </trkpt>
      <trkpt lat="46.612803312018514" lon="-0.7307418622076511">
        <ele>102.26</ele>
      </trkpt>
      <trkpt lat="46.61262921988964" lon="-0.7307877112179995">
        <ele>102.19</ele>
      </trkpt>
      <trkpt lat="46.61231808364391" lon="-0.7308048103004694">
        <ele>102.23</ele>
      </trkpt>
      <trkpt lat="46.612006947398186" lon="-0.730821993201971">
        <ele>102.19</ele>
      </trkpt>
      <trkpt lat="46.61169589497149" lon="-0.7308391761034727">
        <ele>102.11</ele>
      </trkpt>
      <trkpt lat="46.61138475872576" lon="-0.7308562751859426">
        <ele>101.89</ele>
      </trkpt>
      <trkpt lat="46.61107278428972" lon="-0.730873541906476">
        <ele>101.73</ele>
      </trkpt>
      <trkpt lat="46.61097748205066" lon="-0.7308544311672449">
        <ele>101.63</ele>
      </trkpt>
      <trkpt lat="46.61091570742428" lon="-0.730817886069417">
        <ele>101.57</ele>
      </trkpt>
      <trkpt lat="46.61091545596719" lon="-0.7308182213455439">
        <ele>101.53</ele>
      </trkpt>
      <trkpt lat="46.610803892835975" lon="-0.7309812493622303">
        <ele>101.49</ele>
      </trkpt>
      <trkpt lat="46.6105919983238" lon="-0.7312300242483616">
        <ele>101.49</ele>
      </trkpt>
      <trkpt lat="46.61038018763065" lon="-0.7314787991344929">
        <ele>101.52</ele>
      </trkpt>
      <trkpt lat="46.61016879603267" lon="-0.7317269872874022">
        <ele>101.53</ele>
      </trkpt>
      <trkpt lat="46.61016594618559" lon="-0.7317303400486708">
        <ele>101.61</ele>
      </trkpt>
      <trkpt lat="46.6100980527699" lon="-0.731431357562542">
        <ele>101.75</ele>
      </trkpt>
      <trkpt lat="46.61003049463034" lon="-0.731133883818984">
        <ele>101.95</ele>
      </trkpt>
      <trkpt lat="46.60998472943902" lon="-0.7310089096426964">
        <ele>102.1</ele>
      </trkpt>
      <trkpt lat="46.60986361093819" lon="-0.7308801636099815">
        <ele>102.22</ele>
      </trkpt>
      <trkpt lat="46.609753891825676" lon="-0.7307209074497223">
        <ele>102.36</ele>
      </trkpt>
      <trkpt lat="46.609676694497466" lon="-0.7306446321308613">
        <ele>102.48</ele>
      </trkpt>
      <trkpt lat="46.60956982523203" lon="-0.7305625732988119">
        <ele>102.56</ele>
      </trkpt>
      <trkpt lat="46.60950880497694" lon="-0.7304701209068298">
        <ele>102.67</ele>
      </trkpt>
      <trkpt lat="46.60947259515524" lon="-0.7303718850016594">
        <ele>102.78</ele>
      </trkpt>
      <trkpt lat="46.60942817106843" lon="-0.7300979644060135">
        <ele>102.84</ele>
      </trkpt>
      <trkpt lat="46.609383914619684" lon="-0.7298254687339067">
        <ele>102.93</ele>
      </trkpt>
      <trkpt lat="46.60935818217695" lon="-0.7297396380454302">
        <ele>102.95</ele>
      </trkpt>
      <trkpt lat="46.6093276720494" lon="-0.7296823896467686">
        <ele>102.92</ele>
      </trkpt>
      <trkpt lat="46.60917126573622" lon="-0.7298416458070278">
        <ele>102.76</ele>
      </trkpt>
      <trkpt lat="46.60903388634324" lon="-0.7299589924514294">
        <ele>102.64</ele>
      </trkpt>
      <trkpt lat="46.6088183876127" lon="-0.7301258761435747">
        <ele>102.48</ele>
      </trkpt>
      <trkpt lat="46.60854849033058" lon="-0.7303080148994923">
        <ele>102.31</ele>
      </trkpt>
      <trkpt lat="46.60831857472658" lon="-0.7305154670029879">
        <ele>102.17</ele>
      </trkpt>
      <trkpt lat="46.60808882676065" lon="-0.7307228352874517">
        <ele>102.06</ele>
      </trkpt>
      <trkpt lat="46.60791146568954" lon="-0.7308458816260099">
        <ele>101.94</ele>
      </trkpt>
      <trkpt lat="46.60773787647486" lon="-0.7308934908360243">
        <ele>101.78</ele>
      </trkpt>
      <trkpt lat="46.60759387537837" lon="-0.730890640988946">
        <ele>101.58</ele>
      </trkpt>
      <trkpt lat="46.607330264523625" lon="-0.7307705283164978">
        <ele>101.34</ele>
      </trkpt>
      <trkpt lat="46.60706648603082" lon="-0.7306503318250179">
        <ele>101.15</ele>
      </trkpt>
      <trkpt lat="46.606857273727655" lon="-0.7306236773729324">
        <ele>100.95</ele>
      </trkpt>
      <trkpt lat="46.60664789378643" lon="-0.7305969391018152">
        <ele>100.71</ele>
      </trkpt>
      <trkpt lat="46.60639626905322" lon="-0.7305769063532352">
        <ele>100.48</ele>
      </trkpt>
      <trkpt lat="46.606144309043884" lon="-0.7305568736046553">
        <ele>100.35</ele>
      </trkpt>
      <trkpt lat="46.60597993992269" lon="-0.7305559515953064">
        <ele>100.19</ele>
      </trkpt>
      <trkpt lat="46.6058153193444" lon="-0.7305549457669258">
        <ele>100.0</ele>
      </trkpt>
      <trkpt lat="46.605628402903676" lon="-0.7305779121816158">
        <ele>99.75</ele>
      </trkpt>
      <trkpt lat="46.60544249229133" lon="-0.7306522596627474">
        <ele>99.43</ele>
      </trkpt>
      <trkpt lat="46.60523612983525" lon="-0.7307997811585665">
        <ele>99.06</ele>
      </trkpt>
      <trkpt lat="46.605029851198196" lon="-0.7309473026543856">
        <ele>98.6</ele>
      </trkpt>
      <trkpt lat="46.604823572561145" lon="-0.7310947403311729">
        <ele>98.14</ele>
      </trkpt>
      <trkpt lat="46.604564152657986" lon="-0.7312607020139694">
        <ele>97.63</ele>
      </trkpt>
      <trkpt lat="46.604366758838296" lon="-0.7314380630850792">
        <ele>97.03</ele>
      </trkpt>
      <trkpt lat="46.604114044457674" lon="-0.7316964771598577">
        <ele>96.29</ele>
      </trkpt>
      <trkpt lat="46.60389116965234" lon="-0.73197852820158">
        <ele>95.55</ele>
      </trkpt>
      <trkpt lat="46.60366863012314" lon="-0.732260076329112">
        <ele>94.84</ele>
      </trkpt>
      <trkpt lat="46.603465201333165" lon="-0.7325468212366104">
        <ele>94.1</ele>
      </trkpt>
      <trkpt lat="46.60326168872416" lon="-0.7328334823250771">
        <ele>93.31</ele>
      </trkpt>
      <trkpt lat="46.603058176115155" lon="-0.7331202272325754">
        <ele>92.39</ele>
      </trkpt>
      <trkpt lat="46.60285474732518" lon="-0.7334068883210421">
        <ele>91.45</ele>
      </trkpt>
      <trkpt lat="46.60265123471618" lon="-0.7336936332285404">
        <ele>90.45</ele>
      </trkpt>
      <trkpt lat="46.60244897939265" lon="-0.7339786179363728">
        <ele>89.43</ele>
      </trkpt>
      <trkpt lat="46.60223222337663" lon="-0.7342998124659061">
        <ele>88.33</ele>
      </trkpt>
      <trkpt lat="46.602015970274806" lon="-0.7346204202622175">
        <ele>87.29</ele>
      </trkpt>
      <trkpt lat="46.60183425061405" lon="-0.73493423871696">
        <ele>86.3</ele>
      </trkpt>
      <trkpt lat="46.601652447134256" lon="-0.7352480571717024">
        <ele>85.32</ele>
      </trkpt>
      <trkpt lat="46.60147148184478" lon="-0.7355607021600008">
        <ele>84.32</ele>
      </trkpt>
      <trkpt lat="46.60133888013661" lon="-0.7358458545058966">
        <ele>83.37</ele>
      </trkpt>
      <trkpt lat="46.60125531256199" lon="-0.7360569946467876">
        <ele>82.46</ele>
      </trkpt>
      <trkpt lat="46.601171996444464" lon="-0.7362673804163933">
        <ele>81.6</ele>
      </trkpt>
      <trkpt lat="46.60100226290524" lon="-0.7366431411355734">
        <ele>80.85</ele>
      </trkpt>
      <trkpt lat="46.60096219740808" lon="-0.7367775868624449">
        <ele>80.16</ele>
      </trkpt>
      <trkpt lat="46.600912576541305" lon="-0.7370246015489101">
        <ele>79.48</ele>
      </trkpt>
      <trkpt lat="46.60088684409857" lon="-0.7372906431555748">
        <ele>78.81</ele>
      </trkpt>
      <trkpt lat="46.600875025615096" lon="-0.7376612909138203">
        <ele>78.17</ele>
      </trkpt>
      <trkpt lat="46.600863290950656" lon="-0.7380319386720657">
        <ele>77.62</ele>
      </trkpt>
      <trkpt lat="46.600851556286216" lon="-0.7383997365832329">
        <ele>77.17</ele>
      </trkpt>
      <trkpt lat="46.600832529366016" lon="-0.7387163210660219">
        <ele>76.74</ele>
      </trkpt>
      <trkpt lat="46.600735215470195" lon="-0.7391349971294403">
        <ele>76.45</ele>
      </trkpt>
      <trkpt lat="46.60064653493464" lon="-0.7393400184810162">
        <ele>76.25</ele>
      </trkpt>
      <trkpt lat="46.600635051727295" lon="-0.7395012024790049">
        <ele>76.13</ele>
      </trkpt>
      <trkpt lat="46.600682409480214" lon="-0.7397511508315802">
        <ele>76.04</ele>
      </trkpt>
      <trkpt lat="46.60072951577604" lon="-0.7399999257177114">
        <ele>76.09</ele>
      </trkpt>
      <trkpt lat="46.60080595873296" lon="-0.7404363714158535">
        <ele>76.5</ele>
      </trkpt>
      <trkpt lat="46.60088206641376" lon="-0.740870637819171">
        <ele>76.95</ele>
      </trkpt>
      <trkpt lat="46.60088592208922" lon="-0.7411185745149851">
        <ele>77.45</ele>
      </trkpt>
      <trkpt lat="46.60086681134999" lon="-0.7413675170391798">
        <ele>77.92</ele>
      </trkpt>
      <trkpt lat="46.60078668035567" lon="-0.7416697684675455">
        <ele>78.47</ele>
      </trkpt>
      <trkpt lat="46.60066983662546" lon="-0.7419286854565144">
        <ele>79.23</ele>
      </trkpt>
      <trkpt lat="46.600552992895246" lon="-0.7421875186264515">
        <ele>80.09</ele>
      </trkpt>
      <trkpt lat="46.600436735898256" lon="-0.7424450945109129">
        <ele>81.02</ele>
      </trkpt>
      <trkpt lat="46.60028703510761" lon="-0.7428189273923635">
        <ele>81.94</ele>
      </trkpt>
      <trkpt lat="46.60020782612264" lon="-0.7432271260768175">
        <ele>82.87</ele>
      </trkpt>
      <trkpt lat="46.60017681308091" lon="-0.7436262723058462">
        <ele>83.92</ele>
      </trkpt>
      <trkpt lat="46.600145883858204" lon="-0.7440234068781137">
        <ele>85.11</ele>
      </trkpt>
      <trkpt lat="46.60012383945286" lon="-0.7443950604647398">
        <ele>86.33</ele>
      </trkpt>
      <trkpt lat="46.60010187886655" lon="-0.7447666302323341">
        <ele>87.45</ele>
      </trkpt>
      <trkpt lat="46.60008008591831" lon="-0.7451353501528502">
        <ele>88.52</ele>
      </trkpt>
      <trkpt lat="46.600045720115304" lon="-0.7455740589648485">
        <ele>89.65</ele>
      </trkpt>
      <trkpt lat="46.59999995492399" lon="-0.7458553556352854">
        <ele>90.8</ele>
      </trkpt>
      <trkpt lat="46.599982772022486" lon="-0.7459574472159147">
        <ele>92.92</ele>
      </trkpt>
      <trkpt lat="46.59987120889127" lon="-0.7463055476546288">
        <ele>94.03</ele>
      </trkpt>
      <trkpt lat="46.599747240543365" lon="-0.7466145046055317">
        <ele>95.13</ele>
      </trkpt>
      <trkpt lat="46.59961195662618" lon="-0.7469264790415764">
        <ele>96.17</ele>
      </trkpt>
      <trkpt lat="46.59947667270899" lon="-0.7472384534776211">
        <ele>97.13</ele>
      </trkpt>
      <trkpt lat="46.59934147261083" lon="-0.7475505117326975">
        <ele>98.02</ele>
      </trkpt>
      <trkpt lat="46.59920618869364" lon="-0.7478624861687422">
        <ele>98.84</ele>
      </trkpt>
      <trkpt lat="46.5990720782429" lon="-0.748171778395772">
        <ele>99.58</ele>
      </trkpt>
      <trkpt lat="46.59889522008598" lon="-0.7484599482268095">
        <ele>100.29</ele>
      </trkpt>
      <trkpt lat="46.59871827811003" lon="-0.7487480342388153">
        <ele>100.91</ele>
      </trkpt>
      <trkpt lat="46.59854141995311" lon="-0.7490361202508211">
        <ele>101.45</ele>
      </trkpt>
      <trkpt lat="46.598365399986506" lon="-0.7493228651583195">
        <ele>101.92</ele>
      </trkpt>
      <trkpt lat="46.598241264000535" lon="-0.7495845481753349">
        <ele>102.2</ele>
      </trkpt>
      <trkpt lat="46.59811746329069" lon="-0.749845476821065">
        <ele>102.38</ele>
      </trkpt>
      <trkpt lat="46.59799517132342" lon="-0.7500880490988493">
        <ele>102.38</ele>
      </trkpt>
      <trkpt lat="46.597873298451304" lon="-0.7503299508243799">
        <ele>102.27</ele>
      </trkpt>
      <trkpt lat="46.597725776955485" lon="-0.75057671405375">
        <ele>102.06</ele>
      </trkpt>
      <trkpt lat="46.597578674554825" lon="-0.7508229743689299">
        <ele>101.68</ele>
      </trkpt>
      <trkpt lat="46.597420340403914" lon="-0.7511118985712528">
        <ele>101.2</ele>
      </trkpt>
      <trkpt lat="46.59726426936686" lon="-0.751479109749198">
        <ele>100.62</ele>
      </trkpt>
      <trkpt lat="46.59710828214884" lon="-0.7518462371081114">
        <ele>99.87</ele>
      </trkpt>
      <trkpt lat="46.5969530493021" lon="-0.7522114366292953">
        <ele>99.07</ele>
      </trkpt>
      <trkpt lat="46.596817346289754" lon="-0.7525405939668417">
        <ele>98.22</ele>
      </trkpt>
      <trkpt lat="46.59668223001063" lon="-0.752868577837944">
        <ele>97.3</ele>
      </trkpt>
      <trkpt lat="46.59653437323868" lon="-0.7531518023461103">
        <ele>96.26</ele>
      </trkpt>
      <trkpt lat="46.59639975987375" lon="-0.7533790357410908">
        <ele>95.23</ele>
      </trkpt>
      <trkpt lat="46.59626548178494" lon="-0.7536056824028492">
        <ele>94.09</ele>
      </trkpt>
      <trkpt lat="46.59616624005139" lon="-0.7537363562732935">
        <ele>92.95</ele>
      </trkpt>
      <trkpt lat="46.596020394936204" lon="-0.753836939111352">
        <ele>91.77</ele>
      </trkpt>
      <trkpt lat="46.59587446600199" lon="-0.7539376057684422">
        <ele>90.55</ele>
      </trkpt>
      <trkpt lat="46.59567128866911" lon="-0.7541188225150108">
        <ele>89.22</ele>
      </trkpt>
      <trkpt lat="46.59554824233055" lon="-0.754264835268259">
        <ele>87.87</ele>
      </trkpt>
      <trkpt lat="46.595425279811025" lon="-0.7544105965644121">
        <ele>86.53</ele>
      </trkpt>
      <trkpt lat="46.595299299806356" lon="-0.7545785699039698">
        <ele>85.12</ele>
      </trkpt>
      <trkpt lat="46.59517348743975" lon="-0.7547462917864323">
        <ele>83.66</ele>
      </trkpt>
      <trkpt lat="46.59502009861171" lon="-0.755050303414464">
        <ele>82.13</ele>
      </trkpt>
      <trkpt lat="46.59486662596464" lon="-0.7553543988615274">
        <ele>80.55</ele>
      </trkpt>
      <trkpt lat="46.594713823869824" lon="-0.75565698556602">
        <ele>79.05</ele>
      </trkpt>
      <trkpt lat="46.59451165236533" lon="-0.7559917587786913">
        <ele>77.51</ele>
      </trkpt>
      <trkpt lat="46.59430378116667" lon="-0.7562521006911993">
        <ele>75.98</ele>
      </trkpt>
      <trkpt lat="46.59414729103446" lon="-0.7564319763332605">
        <ele>74.55</ele>
      </trkpt>
      <trkpt lat="46.59399096854031" lon="-0.7566116005182266">
        <ele>73.21</ele>
      </trkpt>
      <trkpt lat="46.59380128607154" lon="-0.756913349032402">
        <ele>71.89</ele>
      </trkpt>
      <trkpt lat="46.59361160360277" lon="-0.7572150137275457">
        <ele>70.65</ele>
      </trkpt>
      <trkpt lat="46.59342259168625" lon="-0.7575156725943089">
        <ele>69.61</ele>
      </trkpt>
      <trkpt lat="46.59332628361881" lon="-0.7577045168727636">
        <ele>68.74</ele>
      </trkpt>
      <trkpt lat="46.59328437410295" lon="-0.7578532956540585">
        <ele>68.0</ele>
      </trkpt>
      <trkpt lat="46.59328336827457" lon="-0.7580659445375204">
        <ele>67.35</ele>
      </trkpt>
      <trkpt lat="46.59329862333834" lon="-0.7582061737775803">
        <ele>66.82</ele>
      </trkpt>
      <trkpt lat="46.59327959641814" lon="-0.7583672739565372">
        <ele>66.4</ele>
      </trkpt>
      <trkpt lat="46.59324145875871" lon="-0.7585447188466787">
        <ele>66.08</ele>
      </trkpt>
      <trkpt lat="46.593155628070235" lon="-0.758720152080059">
        <ele>65.85</ele>
      </trkpt>
      <trkpt lat="46.59293149597943" lon="-0.759040592238307">
        <ele>65.71</ele>
      </trkpt>
      <trkpt lat="46.592781795188785" lon="-0.7591836713254452">
        <ele>65.56</ele>
      </trkpt>
      <trkpt lat="46.59255288541317" lon="-0.7593358866870403">
        <ele>65.45</ele>
      </trkpt>
      <trkpt lat="46.59232405945659" lon="-0.7594881858676672">
        <ele>65.3</ele>
      </trkpt>
      <trkpt lat="46.59209514968097" lon="-0.7596404012292624">
        <ele>65.21</ele>
      </trkpt>
      <trkpt lat="46.59193966537714" lon="-0.7597620226442814">
        <ele>65.14</ele>
      </trkpt>
      <trkpt lat="46.59178426489234" lon="-0.7598836440593004">
        <ele>65.08</ele>
      </trkpt>
      <trkpt lat="46.59167840145528" lon="-0.7599999848753214">
        <ele>65.03</ele>
      </trkpt>
      <trkpt lat="46.59146223217249" lon="-0.7602332532405853">
        <ele>64.92</ele>
      </trkpt>
      <trkpt lat="46.59124639816582" lon="-0.7604662701487541">
        <ele>64.83</ele>
      </trkpt>
      <trkpt lat="46.59108806401491" lon="-0.760510191321373">
        <ele>64.66</ele>
      </trkpt>
      <trkpt lat="46.59083543345332" lon="-0.7606052421033382">
        <ele>64.55</ele>
      </trkpt>
      <trkpt lat="46.59058280289173" lon="-0.7607003767043352">
        <ele>64.49</ele>
      </trkpt>
      <trkpt lat="46.59033017233014" lon="-0.7607954274863005">
        <ele>64.44</ele>
      </trkpt>
      <trkpt lat="46.590077206492424" lon="-0.7608906459063292">
        <ele>64.42</ele>
      </trkpt>
      <trkpt lat="46.589920381084085" lon="-0.7609817571938038">
        <ele>64.46</ele>
      </trkpt>
      <trkpt lat="46.58976347185671" lon="-0.7610727846622467">
        <ele>64.54</ele>
      </trkpt>
      <trkpt lat="46.58950438722968" lon="-0.761271184310317">
        <ele>64.72</ele>
      </trkpt>
      <trkpt lat="46.58924538642168" lon="-0.7614695839583874">
        <ele>64.89</ele>
      </trkpt>
      <trkpt lat="46.58898630179465" lon="-0.7616679836064577">
        <ele>65.08</ele>
      </trkpt>
      <trkpt lat="46.58872730098665" lon="-0.761866383254528">
        <ele>65.31</ele>
      </trkpt>
      <trkpt lat="46.58846838399768" lon="-0.762064615264535">
        <ele>65.6</ele>
      </trkpt>
      <trkpt lat="46.5883066970855" lon="-0.7622153218835592">
        <ele>65.94</ele>
      </trkpt>
      <trkpt lat="46.58814509399235" lon="-0.7623659446835518">
        <ele>66.31</ele>
      </trkpt>
      <trkpt lat="46.587928254157305" lon="-0.7625784259289503">
        <ele>66.72</ele>
      </trkpt>
      <trkpt lat="46.587711330503225" lon="-0.7627908233553171">
        <ele>67.13</ele>
      </trkpt>
      <trkpt lat="46.58749474212527" lon="-0.7630029693245888">
        <ele>67.52</ele>
      </trkpt>
      <trkpt lat="46.58728586509824" lon="-0.7631841860711575">
        <ele>67.96</ele>
      </trkpt>
      <trkpt lat="46.58708562143147" lon="-0.7632786501199007">
        <ele>68.37</ele>
      </trkpt>
      <trkpt lat="46.586851766332984" lon="-0.7633275166153908">
        <ele>68.8</ele>
      </trkpt>
      <trkpt lat="46.5866179112345" lon="-0.7633764669299126">
        <ele>69.24</ele>
      </trkpt>
      <trkpt lat="46.586383720859885" lon="-0.7634255010634661">
        <ele>69.58</ele>
      </trkpt>
      <trkpt lat="46.586187751963735" lon="-0.7635126728564501">
        <ele>69.85</ele>
      </trkpt>
      <trkpt lat="46.585991783067584" lon="-0.7636000122874975">
        <ele>70.15</ele>
      </trkpt>
      <trkpt lat="46.58573957160115" lon="-0.7637072168290615">
        <ele>70.43</ele>
      </trkpt>
      <trkpt lat="46.58548727631569" lon="-0.7638145890086889">
        <ele>70.68</ele>
      </trkpt>
      <trkpt lat="46.585283763706684" lon="-0.7638398185372353">
        <ele>70.96</ele>
      </trkpt>
      <trkpt lat="46.585080083459616" lon="-0.7638651318848133">
        <ele>71.19</ele>
      </trkpt>
      <trkpt lat="46.58485754393041" lon="-0.7638703286647797">
        <ele>71.34</ele>
      </trkpt>
      <trkpt lat="46.58463466912508" lon="-0.7638756092637777">
        <ele>71.47</ele>
      </trkpt>
      <trkpt lat="46.58436007797718" lon="-0.7639137469232082">
        <ele>71.49</ele>
      </trkpt>
      <trkpt lat="46.58414642326534" lon="-0.7639900222420692">
        <ele>71.47</ele>
      </trkpt>
      <trkpt lat="46.58390812575817" lon="-0.7640994060784578">
        <ele>71.33</ele>
      </trkpt>
      <trkpt lat="46.58366974443197" lon="-0.7642088737338781">
        <ele>71.2</ele>
      </trkpt>
      <trkpt lat="46.583431363105774" lon="-0.7643182575702667">
        <ele>70.99</ele>
      </trkpt>
      <trkpt lat="46.58319281414151" lon="-0.764427725225687">
        <ele>70.69</ele>
      </trkpt>
      <trkpt lat="46.582952588796616" lon="-0.7645068503916264">
        <ele>70.32</ele>
      </trkpt>
      <trkpt lat="46.58271236345172" lon="-0.7645859755575657">
        <ele>69.85</ele>
      </trkpt>
      <trkpt lat="46.582471802830696" lon="-0.7646651845425367">
        <ele>69.28</ele>
      </trkpt>
      <trkpt lat="46.5823211800307" lon="-0.7647004723548889">
        <ele>68.62</ele>
      </trkpt>
      <trkpt lat="46.582250604406" lon="-0.7646814454346895">
        <ele>67.85</ele>
      </trkpt>
      <trkpt lat="46.582161923870444" lon="-0.7646309025585651">
        <ele>66.95</ele>
      </trkpt>
      <trkpt lat="46.58209612593055" lon="-0.7645450718700886">
        <ele>65.96</ele>
      </trkpt>
      <trkpt lat="46.581922536715865" lon="-0.7641636114567518">
        <ele>64.85</ele>
      </trkpt>
      <trkpt lat="46.581749031320214" lon="-0.7637821510434151">
        <ele>63.56</ele>
      </trkpt>
      <trkpt lat="46.58157636411488" lon="-0.7634026184678078">
        <ele>62.16</ele>
      </trkpt>
      <trkpt lat="46.581413922831416" lon="-0.7630271930247545">
        <ele>60.74</ele>
      </trkpt>
      <trkpt lat="46.581252068281174" lon="-0.762653024867177">
        <ele>59.33</ele>
      </trkpt>
      <trkpt lat="46.58107663504779" lon="-0.7623278070241213">
        <ele>58.06</ele>
      </trkpt>
      <trkpt lat="46.58085057511926" lon="-0.7620321772992611">
        <ele>56.84</ele>
      </trkpt>
      <trkpt lat="46.58068662509322" lon="-0.7618872541934252">
        <ele>55.66</ele>
      </trkpt>
      <trkpt lat="46.5804873034358" lon="-0.7617823127657175">
        <ele>54.56</ele>
      </trkpt>
      <trkpt lat="46.58024372532964" lon="-0.7617146708071232">
        <ele>53.57</ele>
      </trkpt>
      <trkpt lat="46.57999997958541" lon="-0.7616469450294971">
        <ele>52.76</ele>
      </trkpt>
      <trkpt lat="46.5799246262759" lon="-0.7616259064525366">
        <ele>51.45</ele>
      </trkpt>
      <trkpt lat="46.579850194975734" lon="-0.7616049516946077">
        <ele>50.96</ele>
      </trkpt>
      <trkpt lat="46.57960041426122" lon="-0.7615629583597183">
        <ele>50.59</ele>
      </trkpt>
      <trkpt lat="46.57951927743852" lon="-0.7615572586655617">
        <ele>50.36</ele>
      </trkpt>
      <trkpt lat="46.57943822443485" lon="-0.7615506369620562">
        <ele>50.26</ele>
      </trkpt>
      <trkpt lat="46.579377204179764" lon="-0.76154007576406">
        <ele>50.27</ele>
      </trkpt>
      <trkpt lat="46.579316183924675" lon="-0.7615295983850956">
        <ele>50.41</ele>
      </trkpt>
      <trkpt lat="46.57922364771366" lon="-0.7614666502922773">
        <ele>50.68</ele>
      </trkpt>
      <trkpt lat="46.57913119532168" lon="-0.7614027801901102">
        <ele>51.03</ele>
      </trkpt>
      <trkpt lat="46.57908543013036" lon="-0.7613265048712492">
        <ele>51.45</ele>
      </trkpt>
      <trkpt lat="46.57898912206292" lon="-0.7614047080278397">
        <ele>52.56</ele>
      </trkpt>
      <trkpt lat="46.578793823719025" lon="-0.7616911176592112">
        <ele>53.21</ele>
      </trkpt>
      <trkpt lat="46.57859902828932" lon="-0.7619768567383289">
        <ele>53.97</ele>
      </trkpt>
      <trkpt lat="46.57847908325493" lon="-0.7623754162341356">
        <ele>54.73</ele>
      </trkpt>
      <trkpt lat="46.57835964113474" lon="-0.7627722155302763">
        <ele>55.56</ele>
      </trkpt>
      <trkpt lat="46.578282779082656" lon="-0.7630091719329357">
        <ele>56.48</ele>
      </trkpt>
      <trkpt lat="46.57820616848767" lon="-0.7632452063262463">
        <ele>57.41</ele>
      </trkpt>
      <trkpt lat="46.578055545687675" lon="-0.7635926362127066">
        <ele>58.4</ele>
      </trkpt>
      <trkpt lat="46.57790492288768" lon="-0.7639400660991669">
        <ele>59.44</ele>
      </trkpt>
      <trkpt lat="46.577755054458976" lon="-0.7642856519669294">
        <ele>60.49</ele>
      </trkpt>
      <trkpt lat="46.577647514641285" lon="-0.7646478340029716">
        <ele>61.31</ele>
      </trkpt>
      <trkpt lat="46.577540477737784" lon="-0.765008507296443">
        <ele>62.05</ele>
      </trkpt>
      <trkpt lat="46.57746990211308" lon="-0.7651572860777378">
        <ele>62.66</ele>
      </trkpt>
      <trkpt lat="46.57740603201091" lon="-0.7652641553431749">
        <ele>63.16</ele>
      </trkpt>
      <trkpt lat="46.57728969119489" lon="-0.7654176279902458">
        <ele>63.57</ele>
      </trkpt>
      <trkpt lat="46.577104702591896" lon="-0.7655597850680351">
        <ele>63.83</ele>
      </trkpt>
      <trkpt lat="46.57688392326236" lon="-0.7656963262706995">
        <ele>63.97</ele>
      </trkpt>
      <trkpt lat="46.57666314393282" lon="-0.7658329512923956">
        <ele>64.05</ele>
      </trkpt>
      <trkpt lat="46.57644244842231" lon="-0.7659695763140917">
        <ele>64.12</ele>
      </trkpt>
      <trkpt lat="46.57622158527374" lon="-0.7661062013357878">
        <ele>64.14</ele>
      </trkpt>
      <trkpt lat="46.57597423531115" lon="-0.7662803772836924">
        <ele>64.13</ele>
      </trkpt>
      <trkpt lat="46.57572696916759" lon="-0.7664546370506287">
        <ele>64.07</ele>
      </trkpt>
      <trkpt lat="46.575479619205" lon="-0.7666288129985332">
        <ele>63.82</ele>
      </trkpt>
      <trkpt lat="46.575232269242406" lon="-0.7668030727654696">
        <ele>63.48</ele>
      </trkpt>
      <trkpt lat="46.574985003098845" lon="-0.7669772487133741">
        <ele>63.05</ele>
      </trkpt>
      <trkpt lat="46.574737736955285" lon="-0.7671514246612787">
        <ele>62.62</ele>
      </trkpt>
      <trkpt lat="46.57450597733259" lon="-0.7672448828816414">
        <ele>62.03</ele>
      </trkpt>
      <trkpt lat="46.57424286939204" lon="-0.7672702800482512">
        <ele>61.23</ele>
      </trkpt>
      <trkpt lat="46.573979845270514" lon="-0.7672956772148609">
        <ele>60.3</ele>
      </trkpt>
      <trkpt lat="46.5737163182348" lon="-0.7673211582005024">
        <ele>59.31</ele>
      </trkpt>
      <trkpt lat="46.57352278009057" lon="-0.7672867923974991">
        <ele>58.44</ele>
      </trkpt>
      <trkpt lat="46.57336922362447" lon="-0.767219066619873">
        <ele>57.62</ele>
      </trkpt>
      <trkpt lat="46.573432171717286" lon="-0.7673068251460791">
        <ele>56.32</ele>
      </trkpt>
      <trkpt lat="46.573495119810104" lon="-0.7673936616629362">
        <ele>55.77</ele>
      </trkpt>
      <trkpt lat="46.573581704869866" lon="-0.7674539275467396">
        <ele>55.26</ele>
      </trkpt>
      <trkpt lat="46.573495119810104" lon="-0.7675385847687721">
        <ele>54.35</ele>
      </trkpt>
      <trkpt lat="46.573431165888906" lon="-0.7675815001130104">
        <ele>54.01</ele>
      </trkpt>
      <trkpt lat="46.573353968560696" lon="-0.7675499841570854">
        <ele>53.77</ele>
      </trkpt>
      <trkpt lat="46.57329009845853" lon="-0.7674784865230322">
        <ele>53.63</ele>
      </trkpt>
      <trkpt lat="46.57324240542948" lon="-0.767406988888979">
        <ele>53.55</ele>
      </trkpt>
      <trkpt lat="46.573195634409785" lon="-0.7673344854265451">
        <ele>53.54</ele>
      </trkpt>
      <trkpt lat="46.57312505878508" lon="-0.7672515045851469">
        <ele>53.58</ele>
      </trkpt>
      <trkpt lat="46.572876032441854" lon="-0.766995856538415">
        <ele>53.76</ele>
      </trkpt>
      <trkpt lat="46.57262725755572" lon="-0.7667403761297464">
        <ele>53.71</ele>
      </trkpt>
      <trkpt lat="46.572563387453556" lon="-0.7666765060275793">
        <ele>53.88</ele>
      </trkpt>
      <trkpt lat="46.572506139054894" lon="-0.7666087802499533">
        <ele>54.03</ele>
      </trkpt>
      <trkpt lat="46.57244989648461" lon="-0.7665401324629784">
        <ele>54.1</ele>
      </trkpt>
      <trkpt lat="46.57241268083453" lon="-0.7664724066853523">
        <ele>54.14</ele>
      </trkpt>
      <trkpt lat="46.57237546518445" lon="-0.7664037588983774">
        <ele>54.18</ele>
      </trkpt>
      <trkpt lat="46.572370771318674" lon="-0.7663388829678297">
        <ele>54.23</ele>
      </trkpt>
      <trkpt lat="46.57244126312435" lon="-0.7662388030439615">
        <ele>54.34</ele>
      </trkpt>
      <trkpt lat="46.57239264808595" lon="-0.7661528885364532">
        <ele>54.28</ele>
      </trkpt>
      <trkpt lat="46.572266751900315" lon="-0.7659783773124218">
        <ele>54.16</ele>
      </trkpt>
      <trkpt lat="46.572113865986466" lon="-0.7658906187862158">
        <ele>54.04</ele>
      </trkpt>
      <trkpt lat="46.5720827691257" lon="-0.7660976517945528">
        <ele>53.57</ele>
      </trkpt>
      <trkpt lat="46.572049325332046" lon="-0.7661033514887094">
        <ele>53.12</ele>
      </trkpt>
      <trkpt lat="46.571932062506676" lon="-0.7662015873938799">
        <ele>52.82</ele>
      </trkpt>
      <trkpt lat="46.571814799681306" lon="-0.7662998232990503">
        <ele>52.53</ele>
      </trkpt>
      <trkpt lat="46.57174229621887" lon="-0.7664113864302635">
        <ele>52.26</ele>
      </trkpt>
      <trkpt lat="46.57166694290936" lon="-0.7665286492556334">
        <ele>51.86</ele>
      </trkpt>
      <trkpt lat="46.57159259542823" lon="-0.7666449900716543">
        <ele>51.72</ele>
      </trkpt>
      <trkpt lat="46.571520091965795" lon="-0.7667671144008636">
        <ele>51.55</ele>
      </trkpt>
      <trkpt lat="46.57148455269635" lon="-0.7668277155607939">
        <ele>51.53</ele>
      </trkpt>
      <trkpt lat="46.57139612361789" lon="-0.7667050883173943">
        <ele>51.54</ele>
      </trkpt>
      <trkpt lat="46.57133317552507" lon="-0.7666497677564621">
        <ele>51.61</ele>
      </trkpt>
      <trkpt lat="46.57117391936481" lon="-0.7665963750332594">
        <ele>51.74</ele>
      </trkpt>
      <trkpt lat="46.57109378837049" lon="-0.7665878254920244">
        <ele>51.85</ele>
      </trkpt>
      <trkpt lat="46.57100225798786" lon="-0.7666049245744944">
        <ele>51.96</ele>
      </trkpt>
      <trkpt lat="46.5709135774523" lon="-0.7666402123868465">
        <ele>52.07</ele>
      </trkpt>
      <trkpt lat="46.57075281254947" lon="-0.7667661085724831">
        <ele>52.21</ele>
      </trkpt>
      <trkpt lat="46.570592215284705" lon="-0.7668920047581196">
        <ele>52.36</ele>
      </trkpt>
      <trkpt lat="46.57054259441793" lon="-0.7669473253190517">
        <ele>52.47</ele>
      </trkpt>
      <trkpt lat="46.57049775123596" lon="-0.7670150510966778">
        <ele>52.56</ele>
      </trkpt>
      <trkpt lat="46.57046053558588" lon="-0.7671056594699621">
        <ele>52.6</ele>
      </trkpt>
      <trkpt lat="46.57041862607002" lon="-0.7672525104135275">
        <ele>52.61</ele>
      </trkpt>
      <trkpt lat="46.57036238349974" lon="-0.7675338070839643">
        <ele>52.55</ele>
      </trkpt>
      <trkpt lat="46.5703284367919" lon="-0.7677709311246872">
        <ele>52.39</ele>
      </trkpt>
      <trkpt lat="46.570294657722116" lon="-0.7680067978799343">
        <ele>52.34</ele>
      </trkpt>
      <trkpt lat="46.5702488925308" lon="-0.7681813091039658">
        <ele>52.29</ele>
      </trkpt>
      <trkpt lat="46.57013992778957" lon="-0.7685024198144674">
        <ele>52.24</ele>
      </trkpt>
      <trkpt lat="46.57003146596253" lon="-0.7688221894204617">
        <ele>52.23</ele>
      </trkpt>
      <trkpt lat="46.56988553702831" lon="-0.7691940944641829">
        <ele>52.1</ele>
      </trkpt>
      <trkpt lat="46.569743463769555" lon="-0.7695145346224308">
        <ele>51.86</ele>
      </trkpt>
      <trkpt lat="46.56965763308108" lon="-0.7698273472487926">
        <ele>51.84</ele>
      </trkpt>
      <trkpt lat="46.569639444351196" lon="-0.7699990086257458">
        <ele>51.94</ele>
      </trkpt>
      <trkpt lat="46.569661404937506" lon="-0.7704072073101997">
        <ele>52.1</ele>
      </trkpt>
      <trkpt lat="46.569682359695435" lon="-0.7705769408494234">
        <ele>52.34</ele>
      </trkpt>
      <trkpt lat="46.569760562852025" lon="-0.7707628514617682">
        <ele>52.67</ele>
      </trkpt>
      <trkpt lat="46.56992652453482" lon="-0.7709573954343796">
        <ele>53.13</ele>
      </trkpt>
      <trkpt lat="46.570096258074045" lon="-0.7710570562630892">
        <ele>53.64</ele>
      </trkpt>
      <trkpt lat="46.57026599161327" lon="-0.7711567170917988">
        <ele>54.14</ele>
      </trkpt>
      <trkpt lat="46.57048534601927" lon="-0.7712425477802753">
        <ele>54.67</ele>
      </trkpt>
      <trkpt lat="46.57060269266367" lon="-0.7712806854397058">
        <ele>55.07</ele>
      </trkpt>
      <trkpt lat="46.570782316848636" lon="-0.7712845411151648">
        <ele>55.5</ele>
      </trkpt>
      <trkpt lat="46.5709621924907" lon="-0.771288312971592">
        <ele>55.88</ele>
      </trkpt>
      <trkpt lat="46.57102229073644" lon="-0.7712988741695881">
        <ele>56.25</ele>
      </trkpt>
      <trkpt lat="46.57106042839587" lon="-0.771315973252058">
        <ele>57.01</ele>
      </trkpt>
      <trkpt lat="46.57113955356181" lon="-0.771268280223012">
        <ele>57.79</ele>
      </trkpt>
      <trkpt lat="46.5712693054229" lon="-0.7712616585195065">
        <ele>58.21</ele>
      </trkpt>
      <trkpt lat="46.571342730894685" lon="-0.7712940964847803">
        <ele>58.43</ele>
      </trkpt>
      <trkpt lat="46.57139327377081" lon="-0.7713494170457125">
        <ele>58.53</ele>
      </trkpt>
      <trkpt lat="46.571560157462955" lon="-0.7714189868420362">
        <ele>58.69</ele>
      </trkpt>
      <trkpt lat="46.57175277359784" lon="-0.771560138091445">
        <ele>58.72</ele>
      </trkpt>
      <trkpt lat="46.57184908166528" lon="-0.7715629879385233">
        <ele>58.88</ele>
      </trkpt>
      <trkpt lat="46.572153344750404" lon="-0.7716421131044626">
        <ele>59.06</ele>
      </trkpt>
      <trkpt lat="46.57243179157376" lon="-0.7717298716306686">
        <ele>59.05</ele>
      </trkpt>
      <trkpt lat="46.572623401880264" lon="-0.7718490622937679">
        <ele>58.9</ele>
      </trkpt>
      <trkpt lat="46.57281517982483" lon="-0.7719683367758989">
        <ele>58.98</ele>
      </trkpt>
      <trkpt lat="46.572920037433505" lon="-0.7720112521201372">
        <ele>59.16</ele>
      </trkpt>
      <trkpt lat="46.57304911874235" lon="-0.7721540797501802">
        <ele>58.98</ele>
      </trkpt>
      <trkpt lat="46.57317794859409" lon="-0.7722968235611916">
        <ele>58.71</ele>
      </trkpt>
    </trkseg>
  </trk>
</gpx>
