<?xml version="1.0" encoding="UTF-8"?>
<gpx version="1.1" creator="gpx-processor" xmlns="http://www.topografix.com/GPX/1/1">
  <metadata><name>Ultra Trail de l’Île d’Oléron (Duo Relay)</name></metadata>
  <trk>
    <name>Ultra Trail de l’Île d’Oléron (Duo Relay)</name>
    <trkseg>
      <trkpt lat="45.982505" lon="-1.391091"><ele>19.2</ele></trkpt>
      <trkpt lat="45.983038" lon="-1.391737"><ele>7.0</ele></trkpt>
      <trkpt lat="45.983242" lon="-1.391750"><ele>1.2</ele></trkpt>
      <trkpt lat="45.983162" lon="-1.390404"><ele>4.0</ele></trkpt>
      <trkpt lat="45.983669" lon="-1.390160"><ele>3.6</ele></trkpt>
      <trkpt lat="45.983810" lon="-1.390198"><ele>3.6</ele></trkpt>
      <trkpt lat="45.984106" lon="-1.389834"><ele>5.2</ele></trkpt>
      <trkpt lat="45.984551" lon="-1.389743"><ele>4.6</ele></trkpt>
      <trkpt lat="45.984913" lon="-1.387241"><ele>3.2</ele></trkpt>
      <trkpt lat="45.985030" lon="-1.387358"><ele>2.6</ele></trkpt>
      <trkpt lat="45.985404" lon="-1.389270"><ele>5.8</ele></trkpt>
      <trkpt lat="45.985575" lon="-1.389594"><ele>12.8</ele></trkpt>
      <trkpt lat="45.985855" lon="-1.389217"><ele>10.8</ele></trkpt>
      <trkpt lat="45.986335" lon="-1.388970"><ele>10.4</ele></trkpt>
      <trkpt lat="45.986830" lon="-1.388862"><ele>6.8</ele></trkpt>
      <trkpt lat="45.987091" lon="-1.388618"><ele>6.2</ele></trkpt>
      <trkpt lat="45.987296" lon="-1.388652"><ele>5.8</ele></trkpt>
      <trkpt lat="45.987482" lon="-1.388382"><ele>4.2</ele></trkpt>
      <trkpt lat="45.987787" lon="-1.388155"><ele>3.4</ele></trkpt>
      <trkpt lat="45.989121" lon="-1.387451"><ele>9.8</ele></trkpt>
      <trkpt lat="45.989225" lon="-1.387177"><ele>9.4</ele></trkpt>
      <trkpt lat="45.989500" lon="-1.387047"><ele>9.6</ele></trkpt>
      <trkpt lat="45.990078" lon="-1.387097"><ele>2.0</ele></trkpt>
      <trkpt lat="45.991494" lon="-1.386514"><ele>1.4</ele></trkpt>
      <trkpt lat="45.991767" lon="-1.386319"><ele>5.8</ele></trkpt>
      <trkpt lat="45.992251" lon="-1.386388"><ele>5.4</ele></trkpt>
      <trkpt lat="45.992679" lon="-1.385780"><ele>4.6</ele></trkpt>
      <trkpt lat="45.995314" lon="-1.384339"><ele>-2.4</ele></trkpt>
      <trkpt lat="45.996975" lon="-1.382489"><ele>-3.6</ele></trkpt>
      <trkpt lat="45.997422" lon="-1.381813"><ele>-3.8</ele></trkpt>
      <trkpt lat="45.997530" lon="-1.381435"><ele>-3.4</ele></trkpt>
      <trkpt lat="45.997667" lon="-1.381583"><ele>-4.6</ele></trkpt>
      <trkpt lat="45.998120" lon="-1.382689"><ele>-8.4</ele></trkpt>
      <trkpt lat="45.998246" lon="-1.382710"><ele>-5.8</ele></trkpt>
      <trkpt lat="45.998466" lon="-1.382491"><ele>-5.4</ele></trkpt>
      <trkpt lat="46.001140" lon="-1.383739"><ele>-5.6</ele></trkpt>
      <trkpt lat="46.001249" lon="-1.383548"><ele>-5.4</ele></trkpt>
      <trkpt lat="46.001638" lon="-1.381268"><ele>-5.2</ele></trkpt>
      <trkpt lat="46.001906" lon="-1.380479"><ele>-4.8</ele></trkpt>
      <trkpt lat="46.001964" lon="-1.379779"><ele>-4.6</ele></trkpt>
      <trkpt lat="46.002656" lon="-1.380053"><ele>-4.4</ele></trkpt>
      <trkpt lat="46.003067" lon="-1.380437"><ele>-1.6</ele></trkpt>
      <trkpt lat="46.003607" lon="-1.380568"><ele>1.4</ele></trkpt>
      <trkpt lat="46.004239" lon="-1.380242"><ele>3.4</ele></trkpt>
      <trkpt lat="46.005017" lon="-1.380022"><ele>6.4</ele></trkpt>
      <trkpt lat="46.005274" lon="-1.380040"><ele>6.4</ele></trkpt>
      <trkpt lat="46.005539" lon="-1.379842"><ele>7.6</ele></trkpt>
      <trkpt lat="46.006036" lon="-1.381667"><ele>5.2</ele></trkpt>
      <trkpt lat="46.006504" lon="-1.381752"><ele>4.0</ele></trkpt>
      <trkpt lat="46.006649" lon="-1.382345"><ele>2.4</ele></trkpt>
      <trkpt lat="46.007189" lon="-1.382240"><ele>0.8</ele></trkpt>
      <trkpt lat="46.007839" lon="-1.381817"><ele>-0.6</ele></trkpt>
      <trkpt lat="46.009728" lon="-1.381600"><ele>-2.6</ele></trkpt>
      <trkpt lat="46.011391" lon="-1.381207"><ele>-2.8</ele></trkpt>
      <trkpt lat="46.011970" lon="-1.381981"><ele>-2.8</ele></trkpt>
      <trkpt lat="46.014281" lon="-1.381385"><ele>-0.4</ele></trkpt>
      <trkpt lat="46.014538" lon="-1.382007"><ele>0.4</ele></trkpt>
      <trkpt lat="46.014779" lon="-1.383330"><ele>1.4</ele></trkpt>
      <trkpt lat="46.014792" lon="-1.383633"><ele>1.4</ele></trkpt>
      <trkpt lat="46.014654" lon="-1.384225"><ele>1.6</ele></trkpt>
      <trkpt lat="46.014734" lon="-1.386381"><ele>0.8</ele></trkpt>
      <trkpt lat="46.015295" lon="-1.387286"><ele>1.4</ele></trkpt>
      <trkpt lat="46.016866" lon="-1.387094"><ele>3.4</ele></trkpt>
      <trkpt lat="46.019271" lon="-1.385815"><ele>4.4</ele></trkpt>
      <trkpt lat="46.019347" lon="-1.385856"><ele>4.6</ele></trkpt>
      <trkpt lat="46.020082" lon="-1.389340"><ele>7.4</ele></trkpt>
      <trkpt lat="46.020399" lon="-1.390137"><ele>7.4</ele></trkpt>
      <trkpt lat="46.020598" lon="-1.390393"><ele>7.8</ele></trkpt>
      <trkpt lat="46.020664" lon="-1.390855"><ele>7.4</ele></trkpt>
      <trkpt lat="46.020917" lon="-1.391484"><ele>7.4</ele></trkpt>
      <trkpt lat="46.021715" lon="-1.392817"><ele>6.4</ele></trkpt>
      <trkpt lat="46.021199" lon="-1.393870"><ele>5.8</ele></trkpt>
      <trkpt lat="46.021170" lon="-1.394108"><ele>6.0</ele></trkpt>
      <trkpt lat="46.022425" lon="-1.395819"><ele>5.2</ele></trkpt>
      <trkpt lat="46.021976" lon="-1.396458"><ele>5.2</ele></trkpt>
      <trkpt lat="46.022900" lon="-1.397677"><ele>4.0</ele></trkpt>
      <trkpt lat="46.023458" lon="-1.397811"><ele>4.2</ele></trkpt>
      <trkpt lat="46.024317" lon="-1.399024"><ele>3.8</ele></trkpt>
      <trkpt lat="46.024329" lon="-1.399262"><ele>3.6</ele></trkpt>
      <trkpt lat="46.023874" lon="-1.399918"><ele>2.4</ele></trkpt>
      <trkpt lat="46.024070" lon="-1.400544"><ele>3.6</ele></trkpt>
      <trkpt lat="46.024432" lon="-1.400914"><ele>4.8</ele></trkpt>
      <trkpt lat="46.024857" lon="-1.401568"><ele>6.0</ele></trkpt>
      <trkpt lat="46.025268" lon="-1.401053"><ele>6.0</ele></trkpt>
      <trkpt lat="46.025391" lon="-1.401055"><ele>5.8</ele></trkpt>
      <trkpt lat="46.025604" lon="-1.401402"><ele>6.0</ele></trkpt>
      <trkpt lat="46.025767" lon="-1.402187"><ele>6.2</ele></trkpt>
      <trkpt lat="46.025996" lon="-1.402634"><ele>6.2</ele></trkpt>
      <trkpt lat="46.029179" lon="-1.404997"><ele>4.2</ele></trkpt>
      <trkpt lat="46.029920" lon="-1.404493"><ele>5.0</ele></trkpt>
      <trkpt lat="46.030138" lon="-1.404470"><ele>5.0</ele></trkpt>
      <trkpt lat="46.031346" lon="-1.405834"><ele>5.8</ele></trkpt>
      <trkpt lat="46.031795" lon="-1.406125"><ele>6.2</ele></trkpt>
      <trkpt lat="46.036232" lon="-1.407708"><ele>4.6</ele></trkpt>
      <trkpt lat="46.036542" lon="-1.407729"><ele>5.0</ele></trkpt>
      <trkpt lat="46.038042" lon="-1.408349"><ele>4.4</ele></trkpt>
      <trkpt lat="46.041798" lon="-1.409646"><ele>4.6</ele></trkpt>
      <trkpt lat="46.042297" lon="-1.409453"><ele>4.8</ele></trkpt>
      <trkpt lat="46.043932" lon="-1.407880"><ele>8.0</ele></trkpt>
      <trkpt lat="46.044055" lon="-1.408046"><ele>7.8</ele></trkpt>
      <trkpt lat="46.044355" lon="-1.408929"><ele>7.6</ele></trkpt>
      <trkpt lat="46.044924" lon="-1.410836"><ele>6.8</ele></trkpt>
      <trkpt lat="46.045148" lon="-1.410959"><ele>7.4</ele></trkpt>
      <trkpt lat="46.045463" lon="-1.410711"><ele>7.6</ele></trkpt>
      <trkpt lat="46.045542" lon="-1.410748"><ele>7.6</ele></trkpt>
      <trkpt lat="46.046293" lon="-1.412324"><ele>8.4</ele></trkpt>
      <trkpt lat="46.046574" lon="-1.412721"><ele>9.0</ele></trkpt>
      <trkpt lat="46.046760" lon="-1.412610"><ele>8.8</ele></trkpt>
      <trkpt lat="46.047576" lon="-1.411593"><ele>7.4</ele></trkpt>
      <trkpt lat="46.047841" lon="-1.410944"><ele>6.8</ele></trkpt>
      <trkpt lat="46.047705" lon="-1.410486"><ele>6.2</ele></trkpt>
      <trkpt lat="46.047640" lon="-1.409554"><ele>8.0</ele></trkpt>
      <trkpt lat="46.047478" lon="-1.408780"><ele>7.8</ele></trkpt>
      <trkpt lat="46.047558" lon="-1.408183"><ele>7.4</ele></trkpt>
      <trkpt lat="46.047814" lon="-1.407390"><ele>7.2</ele></trkpt>
      <trkpt lat="46.047820" lon="-1.407062"><ele>7.0</ele></trkpt>
      <trkpt lat="46.047716" lon="-1.406866"><ele>6.2</ele></trkpt>
      <trkpt lat="46.047374" lon="-1.406575"><ele>6.8</ele></trkpt>
      <trkpt lat="46.047051" lon="-1.405949"><ele>6.4</ele></trkpt>
      <trkpt lat="46.046782" lon="-1.405746"><ele>6.4</ele></trkpt>
      <trkpt lat="46.046561" lon="-1.405719"><ele>5.0</ele></trkpt>
      <trkpt lat="46.045985" lon="-1.405968"><ele>5.6</ele></trkpt>
      <trkpt lat="46.045799" lon="-1.404661"><ele>7.4</ele></trkpt>
      <trkpt lat="46.045455" lon="-1.403185"><ele>8.0</ele></trkpt>
      <trkpt lat="46.044216" lon="-1.399650"><ele>9.4</ele></trkpt>
      <trkpt lat="46.044190" lon="-1.399338"><ele>9.2</ele></trkpt>
      <trkpt lat="46.044597" lon="-1.398574"><ele>7.6</ele></trkpt>
      <trkpt lat="46.044630" lon="-1.398319"><ele>6.2</ele></trkpt>
      <trkpt lat="46.044464" lon="-1.396894"><ele>1.6</ele></trkpt>
      <trkpt lat="46.044303" lon="-1.396486"><ele>1.2</ele></trkpt>
      <trkpt lat="46.044145" lon="-1.395498"><ele>1.8</ele></trkpt>
      <trkpt lat="46.043617" lon="-1.394765"><ele>7.6</ele></trkpt>
      <trkpt lat="46.043199" lon="-1.393641"><ele>7.4</ele></trkpt>
      <trkpt lat="46.042728" lon="-1.393018"><ele>7.4</ele></trkpt>
      <trkpt lat="46.041992" lon="-1.390926"><ele>4.6</ele></trkpt>
      <trkpt lat="46.041737" lon="-1.389994"><ele>3.8</ele></trkpt>
      <trkpt lat="46.041868" lon="-1.389691"><ele>3.8</ele></trkpt>
      <trkpt lat="46.041745" lon="-1.389370"><ele>3.4</ele></trkpt>
      <trkpt lat="46.041542" lon="-1.388044"><ele>3.8</ele></trkpt>
      <trkpt lat="46.041410" lon="-1.385906"><ele>6.6</ele></trkpt>
      <trkpt lat="46.040545" lon="-1.384990"><ele>5.0</ele></trkpt>
      <trkpt lat="46.039727" lon="-1.383858"><ele>6.8</ele></trkpt>
      <trkpt lat="46.039215" lon="-1.383632"><ele>6.8</ele></trkpt>
      <trkpt lat="46.037878" lon="-1.381982"><ele>8.2</ele></trkpt>
      <trkpt lat="46.038479" lon="-1.380876"><ele>8.2</ele></trkpt>
      <trkpt lat="46.038852" lon="-1.380421"><ele>7.8</ele></trkpt>
      <trkpt lat="46.039154" lon="-1.380367"><ele>7.4</ele></trkpt>
      <trkpt lat="46.039381" lon="-1.380506"><ele>7.2</ele></trkpt>
      <trkpt lat="46.039948" lon="-1.381308"><ele>6.2</ele></trkpt>
      <trkpt lat="46.040505" lon="-1.380717"><ele>6.2</ele></trkpt>
      <trkpt lat="46.040677" lon="-1.380771"><ele>6.2</ele></trkpt>
      <trkpt lat="46.040762" lon="-1.380647"><ele>5.8</ele></trkpt>
      <trkpt lat="46.040373" lon="-1.379992"><ele>1.4</ele></trkpt>
      <trkpt lat="46.040459" lon="-1.379191"><ele>3.4</ele></trkpt>
      <trkpt lat="46.040587" lon="-1.379001"><ele>4.0</ele></trkpt>
      <trkpt lat="46.040504" lon="-1.378668"><ele>3.6</ele></trkpt>
      <trkpt lat="46.040344" lon="-1.378493"><ele>3.4</ele></trkpt>
      <trkpt lat="46.040289" lon="-1.377853"><ele>3.8</ele></trkpt>
      <trkpt lat="46.040032" lon="-1.377441"><ele>3.8</ele></trkpt>
      <trkpt lat="46.039987" lon="-1.377073"><ele>4.6</ele></trkpt>
      <trkpt lat="46.039801" lon="-1.376896"><ele>3.8</ele></trkpt>
      <trkpt lat="46.039763" lon="-1.376975"><ele>4.6</ele></trkpt>
      <trkpt lat="46.039469" lon="-1.376564"><ele>3.6</ele></trkpt>
      <trkpt lat="46.039617" lon="-1.376534"><ele>3.6</ele></trkpt>
      <trkpt lat="46.039897" lon="-1.376261"><ele>5.0</ele></trkpt>
      <trkpt lat="46.039621" lon="-1.375438"><ele>5.2</ele></trkpt>
      <trkpt lat="46.039409" lon="-1.374236"><ele>6.6</ele></trkpt>
      <trkpt lat="46.039265" lon="-1.374283"><ele>6.8</ele></trkpt>
      <trkpt lat="46.039339" lon="-1.374282"><ele>5.8</ele></trkpt>
      <trkpt lat="46.039364" lon="-1.374139"><ele>5.4</ele></trkpt>
      <trkpt lat="46.039170" lon="-1.372691"><ele>3.6</ele></trkpt>
      <trkpt lat="46.039081" lon="-1.372644"><ele>3.0</ele></trkpt>
      <trkpt lat="46.038839" lon="-1.372847"><ele>0.2</ele></trkpt>
      <trkpt lat="46.038643" lon="-1.372876"><ele>0.6</ele></trkpt>
      <trkpt lat="46.038039" lon="-1.373603"><ele>1.2</ele></trkpt>
      <trkpt lat="46.037341" lon="-1.372138"><ele>0.6</ele></trkpt>
      <trkpt lat="46.037201" lon="-1.372117"><ele>-0.4</ele></trkpt>
      <trkpt lat="46.036805" lon="-1.372331"><ele>0.2</ele></trkpt>
      <trkpt lat="46.036395" lon="-1.372266"><ele>-0.2</ele></trkpt>
      <trkpt lat="46.036018" lon="-1.371495"><ele>0.8</ele></trkpt>
      <trkpt lat="46.035606" lon="-1.371074"><ele>1.0</ele></trkpt>
      <trkpt lat="46.035404" lon="-1.371105"><ele>0.0</ele></trkpt>
      <trkpt lat="46.035233" lon="-1.370992"><ele>0.2</ele></trkpt>
      <trkpt lat="46.035129" lon="-1.371069"><ele>-0.6</ele></trkpt>
      <trkpt lat="46.035109" lon="-1.371333"><ele>0.4</ele></trkpt>
      <trkpt lat="46.034985" lon="-1.371485"><ele>-2.8</ele></trkpt>
      <trkpt lat="46.034512" lon="-1.371697"><ele>-1.8</ele></trkpt>
      <trkpt lat="46.033738" lon="-1.372248"><ele>-0.2</ele></trkpt>
      <trkpt lat="46.033178" lon="-1.372243"><ele>1.6</ele></trkpt>
      <trkpt lat="46.032914" lon="-1.372341"><ele>1.4</ele></trkpt>
      <trkpt lat="46.031523" lon="-1.371813"><ele>2.2</ele></trkpt>
      <trkpt lat="46.029914" lon="-1.369964"><ele>2.8</ele></trkpt>
      <trkpt lat="46.029613" lon="-1.369428"><ele>2.0</ele></trkpt>
      <trkpt lat="46.029448" lon="-1.369289"><ele>2.2</ele></trkpt>
      <trkpt lat="46.029091" lon="-1.369259"><ele>3.4</ele></trkpt>
      <trkpt lat="46.027861" lon="-1.367158"><ele>4.8</ele></trkpt>
      <trkpt lat="46.026976" lon="-1.365053"><ele>2.8</ele></trkpt>
      <trkpt lat="46.026665" lon="-1.364044"><ele>3.0</ele></trkpt>
      <trkpt lat="46.026235" lon="-1.363627"><ele>3.8</ele></trkpt>
      <trkpt lat="46.025873" lon="-1.363060"><ele>3.8</ele></trkpt>
      <trkpt lat="46.025290" lon="-1.361128"><ele>3.0</ele></trkpt>
      <trkpt lat="46.024915" lon="-1.360166"><ele>4.0</ele></trkpt>
      <trkpt lat="46.024654" lon="-1.358619"><ele>3.4</ele></trkpt>
      <trkpt lat="46.024326" lon="-1.357589"><ele>2.2</ele></trkpt>
      <trkpt lat="46.023342" lon="-1.356734"><ele>2.4</ele></trkpt>
      <trkpt lat="46.022314" lon="-1.355211"><ele>2.0</ele></trkpt>
      <trkpt lat="46.020855" lon="-1.354716"><ele>1.6</ele></trkpt>
      <trkpt lat="46.020430" lon="-1.354365"><ele>2.4</ele></trkpt>
      <trkpt lat="46.017863" lon="-1.350368"><ele>4.0</ele></trkpt>
      <trkpt lat="46.016941" lon="-1.348207"><ele>5.0</ele></trkpt>
      <trkpt lat="46.016644" lon="-1.347782"><ele>5.0</ele></trkpt>
      <trkpt lat="46.016112" lon="-1.346110"><ele>6.0</ele></trkpt>
      <trkpt lat="46.015909" lon="-1.345865"><ele>6.0</ele></trkpt>
      <trkpt lat="46.015679" lon="-1.345800"><ele>6.4</ele></trkpt>
      <trkpt lat="46.015144" lon="-1.346113"><ele>6.6</ele></trkpt>
      <trkpt lat="46.014985" lon="-1.345949"><ele>5.8</ele></trkpt>
      <trkpt lat="46.014283" lon="-1.344020"><ele>5.0</ele></trkpt>
      <trkpt lat="46.014287" lon="-1.343848"><ele>5.4</ele></trkpt>
      <trkpt lat="46.014503" lon="-1.343340"><ele>6.2</ele></trkpt>
      <trkpt lat="46.014508" lon="-1.343058"><ele>5.4</ele></trkpt>
      <trkpt lat="46.014101" lon="-1.342119"><ele>5.2</ele></trkpt>
      <trkpt lat="46.013410" lon="-1.337989"><ele>5.6</ele></trkpt>
      <trkpt lat="46.013132" lon="-1.337025"><ele>4.6</ele></trkpt>
      <trkpt lat="46.012980" lon="-1.337006"><ele>4.6</ele></trkpt>
      <trkpt lat="46.011891" lon="-1.337639"><ele>5.6</ele></trkpt>
      <trkpt lat="46.011232" lon="-1.336668"><ele>4.0</ele></trkpt>
      <trkpt lat="46.011061" lon="-1.336635"><ele>3.8</ele></trkpt>
      <trkpt lat="46.009632" lon="-1.337809"><ele>3.0</ele></trkpt>
      <trkpt lat="46.009596" lon="-1.338265"><ele>4.6</ele></trkpt>
      <trkpt lat="46.008644" lon="-1.338857"><ele>4.0</ele></trkpt>
      <trkpt lat="46.006249" lon="-1.340848"><ele>-1.0</ele></trkpt>
      <trkpt lat="46.005961" lon="-1.340308"><ele>0.6</ele></trkpt>
      <trkpt lat="46.005819" lon="-1.339849"><ele>0.8</ele></trkpt>
      <trkpt lat="46.005863" lon="-1.339614"><ele>1.2</ele></trkpt>
      <trkpt lat="46.005220" lon="-1.338017"><ele>2.0</ele></trkpt>
      <trkpt lat="46.005214" lon="-1.337735"><ele>1.6</ele></trkpt>
      <trkpt lat="46.005375" lon="-1.337413"><ele>1.2</ele></trkpt>
      <trkpt lat="46.005096" lon="-1.337130"><ele>0.4</ele></trkpt>
      <trkpt lat="46.005135" lon="-1.336972"><ele>0.2</ele></trkpt>
      <trkpt lat="46.005703" lon="-1.336181"><ele>0.0</ele></trkpt>
      <trkpt lat="46.005377" lon="-1.335324"><ele>0.8</ele></trkpt>
      <trkpt lat="46.005029" lon="-1.333553"><ele>1.2</ele></trkpt>
      <trkpt lat="46.005033" lon="-1.332612"><ele>1.2</ele></trkpt>
      <trkpt lat="46.005198" lon="-1.331709"><ele>1.0</ele></trkpt>
      <trkpt lat="46.005368" lon="-1.330046"><ele>0.8</ele></trkpt>
      <trkpt lat="46.005369" lon="-1.329740"><ele>1.2</ele></trkpt>
      <trkpt lat="46.005289" lon="-1.329565"><ele>1.2</ele></trkpt>
      <trkpt lat="46.005207" lon="-1.329491"><ele>1.2</ele></trkpt>
      <trkpt lat="46.004873" lon="-1.329554"><ele>-0.4</ele></trkpt>
      <trkpt lat="46.004596" lon="-1.329315"><ele>0.0</ele></trkpt>
      <trkpt lat="46.004385" lon="-1.328628"><ele>1.6</ele></trkpt>
      <trkpt lat="46.003227" lon="-1.327381"><ele>1.8</ele></trkpt>
      <trkpt lat="46.002702" lon="-1.326631"><ele>2.4</ele></trkpt>
      <trkpt lat="46.002413" lon="-1.325791"><ele>2.8</ele></trkpt>
      <trkpt lat="46.002394" lon="-1.325399"><ele>3.4</ele></trkpt>
      <trkpt lat="46.002222" lon="-1.324910"><ele>3.2</ele></trkpt>
      <trkpt lat="46.001796" lon="-1.324212"><ele>3.8</ele></trkpt>
      <trkpt lat="46.001813" lon="-1.323956"><ele>2.6</ele></trkpt>
      <trkpt lat="46.001449" lon="-1.323855"><ele>2.8</ele></trkpt>
      <trkpt lat="46.000770" lon="-1.322924"><ele>3.0</ele></trkpt>
      <trkpt lat="46.000342" lon="-1.322693"><ele>2.6</ele></trkpt>
      <trkpt lat="45.999732" lon="-1.321848"><ele>2.6</ele></trkpt>
      <trkpt lat="45.999563" lon="-1.321739"><ele>2.4</ele></trkpt>
      <trkpt lat="45.999114" lon="-1.321822"><ele>2.6</ele></trkpt>
      <trkpt lat="45.998568" lon="-1.321691"><ele>2.8</ele></trkpt>
      <trkpt lat="45.998201" lon="-1.322059"><ele>3.4</ele></trkpt>
      <trkpt lat="45.997745" lon="-1.321846"><ele>4.0</ele></trkpt>
      <trkpt lat="45.997021" lon="-1.321079"><ele>4.6</ele></trkpt>
      <trkpt lat="45.996502" lon="-1.320332"><ele>4.8</ele></trkpt>
      <trkpt lat="45.995754" lon="-1.318774"><ele>3.8</ele></trkpt>
      <trkpt lat="45.995370" lon="-1.318160"><ele>4.2</ele></trkpt>
      <trkpt lat="45.995204" lon="-1.317678"><ele>4.6</ele></trkpt>
      <trkpt lat="45.994766" lon="-1.317071"><ele>7.2</ele></trkpt>
      <trkpt lat="45.994578" lon="-1.316661"><ele>7.4</ele></trkpt>
      <trkpt lat="45.994440" lon="-1.316645"><ele>7.6</ele></trkpt>
      <trkpt lat="45.994169" lon="-1.316964"><ele>4.4</ele></trkpt>
      <trkpt lat="45.993510" lon="-1.316443"><ele>4.0</ele></trkpt>
      <trkpt lat="45.993271" lon="-1.315888"><ele>7.4</ele></trkpt>
      <trkpt lat="45.993318" lon="-1.315581"><ele>9.0</ele></trkpt>
      <trkpt lat="45.993159" lon="-1.315429"><ele>7.0</ele></trkpt>
      <trkpt lat="45.993032" lon="-1.315033"><ele>7.4</ele></trkpt>
      <trkpt lat="45.993029" lon="-1.314758"><ele>7.2</ele></trkpt>
      <trkpt lat="45.992804" lon="-1.314549"><ele>6.8</ele></trkpt>
      <trkpt lat="45.992740" lon="-1.314186"><ele>7.8</ele></trkpt>
      <trkpt lat="45.992382" lon="-1.313742"><ele>2.8</ele></trkpt>
      <trkpt lat="45.992233" lon="-1.313196"><ele>3.2</ele></trkpt>
      <trkpt lat="45.991925" lon="-1.312656"><ele>1.8</ele></trkpt>
      <trkpt lat="45.991707" lon="-1.312579"><ele>2.0</ele></trkpt>
      <trkpt lat="45.991543" lon="-1.312299"><ele>2.4</ele></trkpt>
      <trkpt lat="45.990740" lon="-1.310529"><ele>2.0</ele></trkpt>
      <trkpt lat="45.990727" lon="-1.310134"><ele>2.0</ele></trkpt>
      <trkpt lat="45.990497" lon="-1.309808"><ele>3.4</ele></trkpt>
      <trkpt lat="45.990491" lon="-1.309611"><ele>3.8</ele></trkpt>
      <trkpt lat="45.990853" lon="-1.309143"><ele>3.6</ele></trkpt>
      <trkpt lat="45.991025" lon="-1.308619"><ele>3.2</ele></trkpt>
      <trkpt lat="45.990896" lon="-1.307953"><ele>3.6</ele></trkpt>
      <trkpt lat="45.990531" lon="-1.306858"><ele>8.4</ele></trkpt>
      <trkpt lat="45.990456" lon="-1.306768"><ele>7.2</ele></trkpt>
      <trkpt lat="45.990329" lon="-1.306816"><ele>6.0</ele></trkpt>
      <trkpt lat="45.989641" lon="-1.307377"><ele>12.2</ele></trkpt>
      <trkpt lat="45.988677" lon="-1.304178"><ele>4.0</ele></trkpt>
      <trkpt lat="45.988549" lon="-1.304203"><ele>4.2</ele></trkpt>
      <trkpt lat="45.988106" lon="-1.305026"><ele>4.2</ele></trkpt>
      <trkpt lat="45.987179" lon="-1.307130"><ele>2.0</ele></trkpt>
      <trkpt lat="45.986809" lon="-1.307567"><ele>1.8</ele></trkpt>
      <trkpt lat="45.986589" lon="-1.307539"><ele>2.4</ele></trkpt>
      <trkpt lat="45.986442" lon="-1.307281"><ele>2.6</ele></trkpt>
      <trkpt lat="45.986257" lon="-1.307228"><ele>2.6</ele></trkpt>
      <trkpt lat="45.986064" lon="-1.306983"><ele>2.8</ele></trkpt>
      <trkpt lat="45.986001" lon="-1.305656"><ele>3.2</ele></trkpt>
      <trkpt lat="45.985855" lon="-1.304524"><ele>3.8</ele></trkpt>
      <trkpt lat="45.986241" lon="-1.302783"><ele>4.6</ele></trkpt>
      <trkpt lat="45.986281" lon="-1.300331"><ele>6.2</ele></trkpt>
      <trkpt lat="45.986437" lon="-1.299385"><ele>5.4</ele></trkpt>
      <trkpt lat="45.985759" lon="-1.294415"><ele>4.8</ele></trkpt>
      <trkpt lat="45.985840" lon="-1.294216"><ele>5.0</ele></trkpt>
      <trkpt lat="45.986374" lon="-1.294115"><ele>6.4</ele></trkpt>
      <trkpt lat="45.986699" lon="-1.293726"><ele>5.8</ele></trkpt>
      <trkpt lat="45.987756" lon="-1.293302"><ele>7.0</ele></trkpt>
      <trkpt lat="45.987887" lon="-1.293283"><ele>5.8</ele></trkpt>
      <trkpt lat="45.987863" lon="-1.293340"><ele>6.6</ele></trkpt>
      <trkpt lat="45.987917" lon="-1.293166"><ele>5.8</ele></trkpt>
      <trkpt lat="45.987798" lon="-1.292087"><ele>4.6</ele></trkpt>
      <trkpt lat="45.987897" lon="-1.291142"><ele>4.6</ele></trkpt>
      <trkpt lat="45.987638" lon="-1.290180"><ele>4.2</ele></trkpt>
      <trkpt lat="45.987357" lon="-1.289685"><ele>4.2</ele></trkpt>
      <trkpt lat="45.987255" lon="-1.288683"><ele>4.6</ele></trkpt>
      <trkpt lat="45.987132" lon="-1.288347"><ele>7.6</ele></trkpt>
      <trkpt lat="45.987101" lon="-1.287972"><ele>8.4</ele></trkpt>
      <trkpt lat="45.986870" lon="-1.287688"><ele>5.8</ele></trkpt>
      <trkpt lat="45.986739" lon="-1.287275"><ele>5.6</ele></trkpt>
      <trkpt lat="45.986910" lon="-1.286657"><ele>6.8</ele></trkpt>
      <trkpt lat="45.986828" lon="-1.286197"><ele>10.4</ele></trkpt>
      <trkpt lat="45.986866" lon="-1.285649"><ele>5.6</ele></trkpt>
      <trkpt lat="45.986732" lon="-1.285330"><ele>4.6</ele></trkpt>
      <trkpt lat="45.986726" lon="-1.285069"><ele>4.4</ele></trkpt>
      <trkpt lat="45.986792" lon="-1.284455"><ele>4.8</ele></trkpt>
      <trkpt lat="45.986980" lon="-1.284080"><ele>6.8</ele></trkpt>
      <trkpt lat="45.986982" lon="-1.283608"><ele>6.2</ele></trkpt>
      <trkpt lat="45.986610" lon="-1.283171"><ele>8.0</ele></trkpt>
      <trkpt lat="45.986491" lon="-1.282773"><ele>8.0</ele></trkpt>
      <trkpt lat="45.986240" lon="-1.282398"><ele>3.4</ele></trkpt>
      <trkpt lat="45.986214" lon="-1.281150"><ele>3.4</ele></trkpt>
      <trkpt lat="45.985974" lon="-1.280643"><ele>3.8</ele></trkpt>
      <trkpt lat="45.986426" lon="-1.279958"><ele>4.2</ele></trkpt>
      <trkpt lat="45.986377" lon="-1.279465"><ele>4.0</ele></trkpt>
      <trkpt lat="45.986765" lon="-1.278909"><ele>5.2</ele></trkpt>
      <trkpt lat="45.986963" lon="-1.278433"><ele>4.8</ele></trkpt>
      <trkpt lat="45.986827" lon="-1.278060"><ele>4.6</ele></trkpt>
      <trkpt lat="45.986538" lon="-1.277792"><ele>7.4</ele></trkpt>
      <trkpt lat="45.986963" lon="-1.277558"><ele>8.6</ele></trkpt>
      <trkpt lat="45.987013" lon="-1.277249"><ele>9.4</ele></trkpt>
      <trkpt lat="45.986890" lon="-1.276943"><ele>9.2</ele></trkpt>
      <trkpt lat="45.986894" lon="-1.276745"><ele>8.8</ele></trkpt>
      <trkpt lat="45.987077" lon="-1.276269"><ele>5.6</ele></trkpt>
      <trkpt lat="45.987002" lon="-1.276129"><ele>4.4</ele></trkpt>
      <trkpt lat="45.986476" lon="-1.275789"><ele>3.2</ele></trkpt>
      <trkpt lat="45.983527" lon="-1.276506"><ele>6.8</ele></trkpt>
      <trkpt lat="45.978644" lon="-1.277531"><ele>7.0</ele></trkpt>
      <trkpt lat="45.978559" lon="-1.277477"><ele>6.8</ele></trkpt>
      <trkpt lat="45.978774" lon="-1.276763"><ele>7.6</ele></trkpt>
      <trkpt lat="45.978673" lon="-1.275306"><ele>9.4</ele></trkpt>
      <trkpt lat="45.978956" lon="-1.274754"><ele>8.4</ele></trkpt>
      <trkpt lat="45.979229" lon="-1.273660"><ele>8.6</ele></trkpt>
      <trkpt lat="45.979876" lon="-1.272516"><ele>6.6</ele></trkpt>
      <trkpt lat="45.980156" lon="-1.272396"><ele>9.0</ele></trkpt>
      <trkpt lat="45.980371" lon="-1.272153"><ele>8.4</ele></trkpt>
      <trkpt lat="45.980569" lon="-1.271469"><ele>6.6</ele></trkpt>
      <trkpt lat="45.981122" lon="-1.270889"><ele>9.8</ele></trkpt>
      <trkpt lat="45.981477" lon="-1.270223"><ele>8.6</ele></trkpt>
      <trkpt lat="45.982133" lon="-1.269868"><ele>7.2</ele></trkpt>
      <trkpt lat="45.982216" lon="-1.269461"><ele>7.6</ele></trkpt>
      <trkpt lat="45.982374" lon="-1.269207"><ele>8.6</ele></trkpt>
      <trkpt lat="45.982683" lon="-1.267647"><ele>5.6</ele></trkpt>
      <trkpt lat="45.983537" lon="-1.267064"><ele>8.2</ele></trkpt>
      <trkpt lat="45.983618" lon="-1.266190"><ele>6.0</ele></trkpt>
      <trkpt lat="45.984661" lon="-1.266065"><ele>5.4</ele></trkpt>
      <trkpt lat="45.985244" lon="-1.266182"><ele>5.6</ele></trkpt>
      <trkpt lat="45.985632" lon="-1.266079"><ele>6.0</ele></trkpt>
      <trkpt lat="45.985893" lon="-1.266198"><ele>9.6</ele></trkpt>
      <trkpt lat="45.986268" lon="-1.266047"><ele>8.0</ele></trkpt>
      <trkpt lat="45.986867" lon="-1.265513"><ele>8.8</ele></trkpt>
      <trkpt lat="45.987162" lon="-1.265420"><ele>7.4</ele></trkpt>
      <trkpt lat="45.987585" lon="-1.264937"><ele>7.0</ele></trkpt>
      <trkpt lat="45.987487" lon="-1.261469"><ele>14.8</ele></trkpt>
      <trkpt lat="45.988021" lon="-1.255504"><ele>8.0</ele></trkpt>
      <trkpt lat="45.988111" lon="-1.255404"><ele>9.0</ele></trkpt>
      <trkpt lat="45.989081" lon="-1.255353"><ele>13.0</ele></trkpt>
      <trkpt lat="45.989257" lon="-1.255214"><ele>15.4</ele></trkpt>
      <trkpt lat="45.989586" lon="-1.254177"><ele>14.2</ele></trkpt>
      <trkpt lat="45.989526" lon="-1.253840"><ele>14.0</ele></trkpt>
      <trkpt lat="45.989618" lon="-1.252720"><ele>14.2</ele></trkpt>
      <trkpt lat="45.989808" lon="-1.251963"><ele>13.2</ele></trkpt>
      <trkpt lat="45.989711" lon="-1.251457"><ele>13.0</ele></trkpt>
      <trkpt lat="45.989703" lon="-1.250597"><ele>14.0</ele></trkpt>
      <trkpt lat="45.989559" lon="-1.250158"><ele>14.0</ele></trkpt>
      <trkpt lat="45.989445" lon="-1.248697"><ele>12.2</ele></trkpt>
      <trkpt lat="45.989471" lon="-1.248448"><ele>12.2</ele></trkpt>
      <trkpt lat="45.989660" lon="-1.248170"><ele>12.6</ele></trkpt>
      <trkpt lat="45.989678" lon="-1.247884"><ele>11.2</ele></trkpt>
      <trkpt lat="45.989884" lon="-1.247353"><ele>11.0</ele></trkpt>
      <trkpt lat="45.989773" lon="-1.247137"><ele>10.8</ele></trkpt>
      <trkpt lat="45.989473" lon="-1.246892"><ele>10.4</ele></trkpt>
      <trkpt lat="45.989277" lon="-1.246413"><ele>10.6</ele></trkpt>
      <trkpt lat="45.988736" lon="-1.245562"><ele>9.6</ele></trkpt>
      <trkpt lat="45.988139" lon="-1.245154"><ele>10.0</ele></trkpt>
      <trkpt lat="45.987532" lon="-1.244531"><ele>10.6</ele></trkpt>
      <trkpt lat="45.987493" lon="-1.244263"><ele>10.0</ele></trkpt>
      <trkpt lat="45.987592" lon="-1.243815"><ele>9.4</ele></trkpt>
      <trkpt lat="45.987757" lon="-1.243553"><ele>9.6</ele></trkpt>
      <trkpt lat="45.987753" lon="-1.243306"><ele>9.4</ele></trkpt>
      <trkpt lat="45.987384" lon="-1.242477"><ele>9.0</ele></trkpt>
      <trkpt lat="45.986810" lon="-1.241665"><ele>8.6</ele></trkpt>
      <trkpt lat="45.985348" lon="-1.240162"><ele>8.2</ele></trkpt>
      <trkpt lat="45.984754" lon="-1.239418"><ele>7.6</ele></trkpt>
      <trkpt lat="45.984333" lon="-1.239093"><ele>8.0</ele></trkpt>
      <trkpt lat="45.983555" lon="-1.238248"><ele>7.0</ele></trkpt>
      <trkpt lat="45.982141" lon="-1.237253"><ele>6.8</ele></trkpt>
      <trkpt lat="45.981784" lon="-1.237113"><ele>6.8</ele></trkpt>
      <trkpt lat="45.981058" lon="-1.237033"><ele>6.2</ele></trkpt>
      <trkpt lat="45.980754" lon="-1.237129"><ele>6.6</ele></trkpt>
      <trkpt lat="45.980550" lon="-1.237450"><ele>7.2</ele></trkpt>
      <trkpt lat="45.979514" lon="-1.237581"><ele>6.8</ele></trkpt>
      <trkpt lat="45.977431" lon="-1.238348"><ele>6.8</ele></trkpt>
      <trkpt lat="45.976422" lon="-1.238542"><ele>7.8</ele></trkpt>
      <trkpt lat="45.976365" lon="-1.239029"><ele>7.0</ele></trkpt>
      <trkpt lat="45.976145" lon="-1.239398"><ele>7.8</ele></trkpt>
      <trkpt lat="45.975764" lon="-1.239598"><ele>7.2</ele></trkpt>
      <trkpt lat="45.975674" lon="-1.240280"><ele>9.4</ele></trkpt>
      <trkpt lat="45.975557" lon="-1.240501"><ele>9.4</ele></trkpt>
      <trkpt lat="45.975276" lon="-1.240466"><ele>8.8</ele></trkpt>
      <trkpt lat="45.974882" lon="-1.240232"><ele>9.0</ele></trkpt>
      <trkpt lat="45.974451" lon="-1.240309"><ele>11.0</ele></trkpt>
      <trkpt lat="45.974056" lon="-1.240028"><ele>11.4</ele></trkpt>
      <trkpt lat="45.973617" lon="-1.240279"><ele>10.2</ele></trkpt>
      <trkpt lat="45.972415" lon="-1.238927"><ele>10.2</ele></trkpt>
      <trkpt lat="45.972110" lon="-1.238271"><ele>10.4</ele></trkpt>
      <trkpt lat="45.971715" lon="-1.237757"><ele>10.2</ele></trkpt>
      <trkpt lat="45.971523" lon="-1.237779"><ele>10.4</ele></trkpt>
      <trkpt lat="45.971208" lon="-1.238912"><ele>8.2</ele></trkpt>
      <trkpt lat="45.970863" lon="-1.239769"><ele>8.2</ele></trkpt>
      <trkpt lat="45.969861" lon="-1.238770"><ele>7.6</ele></trkpt>
      <trkpt lat="45.969669" lon="-1.238754"><ele>7.4</ele></trkpt>
      <trkpt lat="45.969484" lon="-1.238431"><ele>7.4</ele></trkpt>
      <trkpt lat="45.969227" lon="-1.238189"><ele>7.8</ele></trkpt>
      <trkpt lat="45.968761" lon="-1.238331"><ele>9.0</ele></trkpt>
      <trkpt lat="45.968287" lon="-1.238074"><ele>8.6</ele></trkpt>
      <trkpt lat="45.968027" lon="-1.238526"><ele>9.2</ele></trkpt>
      <trkpt lat="45.967933" lon="-1.238952"><ele>9.2</ele></trkpt>
      <trkpt lat="45.967944" lon="-1.239651"><ele>8.6</ele></trkpt>
      <trkpt lat="45.968203" lon="-1.240413"><ele>7.8</ele></trkpt>
      <trkpt lat="45.968159" lon="-1.240555"><ele>7.6</ele></trkpt>
      <trkpt lat="45.967160" lon="-1.242129"><ele>6.8</ele></trkpt>
      <trkpt lat="45.966631" lon="-1.241662"><ele>6.4</ele></trkpt>
      <trkpt lat="45.966375" lon="-1.241789"><ele>6.6</ele></trkpt>
      <trkpt lat="45.966250" lon="-1.241683"><ele>6.2</ele></trkpt>
      <trkpt lat="45.966182" lon="-1.241738"><ele>6.4</ele></trkpt>
      <trkpt lat="45.964560" lon="-1.244606"><ele>6.0</ele></trkpt>
      <trkpt lat="45.963955" lon="-1.243902"><ele>6.0</ele></trkpt>
      <trkpt lat="45.963543" lon="-1.243578"><ele>5.8</ele></trkpt>
      <trkpt lat="45.962893" lon="-1.243393"><ele>5.4</ele></trkpt>
      <trkpt lat="45.959920" lon="-1.243542"><ele>4.4</ele></trkpt>
      <trkpt lat="45.957663" lon="-1.243334"><ele>5.0</ele></trkpt>
      <trkpt lat="45.957332" lon="-1.243411"><ele>5.8</ele></trkpt>
      <trkpt lat="45.956740" lon="-1.243336"><ele>5.6</ele></trkpt>
      <trkpt lat="45.954940" lon="-1.242812"><ele>5.4</ele></trkpt>
      <trkpt lat="45.954635" lon="-1.242826"><ele>5.4</ele></trkpt>
      <trkpt lat="45.954000" lon="-1.242512"><ele>4.8</ele></trkpt>
      <trkpt lat="45.953864" lon="-1.242898"><ele>4.2</ele></trkpt>
      <trkpt lat="45.953657" lon="-1.242704"><ele>4.6</ele></trkpt>
      <trkpt lat="45.952375" lon="-1.243023"><ele>4.2</ele></trkpt>
      <trkpt lat="45.952133" lon="-1.242680"><ele>3.2</ele></trkpt>
      <trkpt lat="45.950636" lon="-1.241632"><ele>3.2</ele></trkpt>
      <trkpt lat="45.950672" lon="-1.241213"><ele>3.8</ele></trkpt>
      <trkpt lat="45.950401" lon="-1.240936"><ele>4.8</ele></trkpt>
      <trkpt lat="45.950836" lon="-1.239938"><ele>4.0</ele></trkpt>
      <trkpt lat="45.950823" lon="-1.239724"><ele>3.6</ele></trkpt>
      <trkpt lat="45.950647" lon="-1.239457"><ele>3.8</ele></trkpt>
      <trkpt lat="45.949256" lon="-1.238892"><ele>4.0</ele></trkpt>
      <trkpt lat="45.948944" lon="-1.238667"><ele>4.2</ele></trkpt>
      <trkpt lat="45.946883" lon="-1.238743"><ele>4.6</ele></trkpt>
      <trkpt lat="45.946496" lon="-1.238513"><ele>3.8</ele></trkpt>
      <trkpt lat="45.946120" lon="-1.237319"><ele>4.4</ele></trkpt>
      <trkpt lat="45.945267" lon="-1.236195"><ele>4.4</ele></trkpt>
      <trkpt lat="45.945324" lon="-1.235311"><ele>4.2</ele></trkpt>
      <trkpt lat="45.944879" lon="-1.234449"><ele>4.0</ele></trkpt>
      <trkpt lat="45.944878" lon="-1.233357"><ele>4.8</ele></trkpt>
      <trkpt lat="45.944809" lon="-1.233071"><ele>4.2</ele></trkpt>
      <trkpt lat="45.943930" lon="-1.232596"><ele>3.6</ele></trkpt>
      <trkpt lat="45.943134" lon="-1.231687"><ele>3.8</ele></trkpt>
      <trkpt lat="45.941965" lon="-1.231038"><ele>2.8</ele></trkpt>
      <trkpt lat="45.941773" lon="-1.232748"><ele>1.4</ele></trkpt>
      <trkpt lat="45.941662" lon="-1.238545"><ele>1.0</ele></trkpt>
      <trkpt lat="45.941490" lon="-1.238615"><ele>0.6</ele></trkpt>
      <trkpt lat="45.940358" lon="-1.238222"><ele>1.0</ele></trkpt>
      <trkpt lat="45.937830" lon="-1.237974"><ele>1.2</ele></trkpt>
      <trkpt lat="45.936408" lon="-1.237933"><ele>1.2</ele></trkpt>
      <trkpt lat="45.935978" lon="-1.238033"><ele>1.8</ele></trkpt>
      <trkpt lat="45.935842" lon="-1.238243"><ele>2.2</ele></trkpt>
      <trkpt lat="45.935810" lon="-1.238596"><ele>2.4</ele></trkpt>
      <trkpt lat="45.935968" lon="-1.239699"><ele>2.6</ele></trkpt>
      <trkpt lat="45.935957" lon="-1.240937"><ele>3.0</ele></trkpt>
      <trkpt lat="45.936277" lon="-1.241585"><ele>3.0</ele></trkpt>
      <trkpt lat="45.936203" lon="-1.241866"><ele>3.8</ele></trkpt>
      <trkpt lat="45.935322" lon="-1.241945"><ele>2.4</ele></trkpt>
      <trkpt lat="45.934567" lon="-1.241828"><ele>2.6</ele></trkpt>
      <trkpt lat="45.933703" lon="-1.242102"><ele>2.6</ele></trkpt>
      <trkpt lat="45.933274" lon="-1.241676"><ele>2.6</ele></trkpt>
      <trkpt lat="45.932468" lon="-1.240475"><ele>3.8</ele></trkpt>
      <trkpt lat="45.932069" lon="-1.239384"><ele>3.0</ele></trkpt>
      <trkpt lat="45.931675" lon="-1.238590"><ele>3.0</ele></trkpt>
      <trkpt lat="45.931525" lon="-1.238014"><ele>2.8</ele></trkpt>
      <trkpt lat="45.931330" lon="-1.237737"><ele>2.6</ele></trkpt>
      <trkpt lat="45.931033" lon="-1.237591"><ele>2.4</ele></trkpt>
      <trkpt lat="45.930253" lon="-1.237597"><ele>2.0</ele></trkpt>
      <trkpt lat="45.929559" lon="-1.237448"><ele>1.6</ele></trkpt>
      <trkpt lat="45.927647" lon="-1.236518"><ele>2.0</ele></trkpt>
      <trkpt lat="45.927451" lon="-1.236587"><ele>2.2</ele></trkpt>
      <trkpt lat="45.927119" lon="-1.237092"><ele>1.4</ele></trkpt>
      <trkpt lat="45.927102" lon="-1.237517"><ele>2.0</ele></trkpt>
      <trkpt lat="45.926969" lon="-1.237814"><ele>2.0</ele></trkpt>
      <trkpt lat="45.926886" lon="-1.238594"><ele>1.8</ele></trkpt>
      <trkpt lat="45.925555" lon="-1.241318"><ele>3.2</ele></trkpt>
      <trkpt lat="45.925524" lon="-1.241515"><ele>3.0</ele></trkpt>
      <trkpt lat="45.925704" lon="-1.241846"><ele>3.0</ele></trkpt>
      <trkpt lat="45.925718" lon="-1.242056"><ele>2.8</ele></trkpt>
      <trkpt lat="45.925148" lon="-1.242996"><ele>3.0</ele></trkpt>
      <trkpt lat="45.925047" lon="-1.242964"><ele>3.0</ele></trkpt>
      <trkpt lat="45.924137" lon="-1.241639"><ele>3.8</ele></trkpt>
      <trkpt lat="45.923908" lon="-1.241467"><ele>3.6</ele></trkpt>
      <trkpt lat="45.923533" lon="-1.242181"><ele>4.0</ele></trkpt>
      <trkpt lat="45.923279" lon="-1.243237"><ele>3.8</ele></trkpt>
      <trkpt lat="45.922290" lon="-1.244740"><ele>3.8</ele></trkpt>
      <trkpt lat="45.921868" lon="-1.244253"><ele>3.4</ele></trkpt>
      <trkpt lat="45.921140" lon="-1.242604"><ele>4.6</ele></trkpt>
      <trkpt lat="45.920972" lon="-1.242481"><ele>4.6</ele></trkpt>
      <trkpt lat="45.920932" lon="-1.242171"><ele>4.8</ele></trkpt>
      <trkpt lat="45.920795" lon="-1.241890"><ele>5.2</ele></trkpt>
      <trkpt lat="45.920574" lon="-1.241726"><ele>4.8</ele></trkpt>
      <trkpt lat="45.920114" lon="-1.241930"><ele>4.6</ele></trkpt>
      <trkpt lat="45.919859" lon="-1.241933"><ele>4.4</ele></trkpt>
      <trkpt lat="45.919567" lon="-1.242304"><ele>4.4</ele></trkpt>
      <trkpt lat="45.919267" lon="-1.242861"><ele>5.0</ele></trkpt>
      <trkpt lat="45.919286" lon="-1.243532"><ele>4.4</ele></trkpt>
      <trkpt lat="45.919208" lon="-1.243679"><ele>3.6</ele></trkpt>
      <trkpt lat="45.918499" lon="-1.243700"><ele>3.6</ele></trkpt>
      <trkpt lat="45.918297" lon="-1.243245"><ele>4.0</ele></trkpt>
      <trkpt lat="45.918188" lon="-1.242362"><ele>4.0</ele></trkpt>
      <trkpt lat="45.917800" lon="-1.241430"><ele>5.0</ele></trkpt>
      <trkpt lat="45.917802" lon="-1.240966"><ele>4.6</ele></trkpt>
      <trkpt lat="45.917654" lon="-1.239951"><ele>3.8</ele></trkpt>
      <trkpt lat="45.917130" lon="-1.238584"><ele>3.8</ele></trkpt>
      <trkpt lat="45.917069" lon="-1.238174"><ele>3.8</ele></trkpt>
      <trkpt lat="45.917099" lon="-1.237581"><ele>3.6</ele></trkpt>
      <trkpt lat="45.916448" lon="-1.235948"><ele>4.6</ele></trkpt>
      <trkpt lat="45.916208" lon="-1.235949"><ele>5.0</ele></trkpt>
      <trkpt lat="45.915793" lon="-1.236355"><ele>4.4</ele></trkpt>
      <trkpt lat="45.915673" lon="-1.236591"><ele>4.2</ele></trkpt>
      <trkpt lat="45.915310" lon="-1.236806"><ele>4.0</ele></trkpt>
      <trkpt lat="45.914286" lon="-1.237786"><ele>4.6</ele></trkpt>
      <trkpt lat="45.914064" lon="-1.237194"><ele>5.2</ele></trkpt>
      <trkpt lat="45.913702" lon="-1.236543"><ele>5.2</ele></trkpt>
      <trkpt lat="45.913515" lon="-1.235867"><ele>5.4</ele></trkpt>
      <trkpt lat="45.913340" lon="-1.235520"><ele>5.0</ele></trkpt>
      <trkpt lat="45.913276" lon="-1.234571"><ele>5.4</ele></trkpt>
      <trkpt lat="45.912827" lon="-1.233517"><ele>5.8</ele></trkpt>
      <trkpt lat="45.912762" lon="-1.233153"><ele>6.0</ele></trkpt>
      <trkpt lat="45.912504" lon="-1.233025"><ele>5.8</ele></trkpt>
      <trkpt lat="45.912206" lon="-1.233216"><ele>5.4</ele></trkpt>
      <trkpt lat="45.912086" lon="-1.233193"><ele>5.6</ele></trkpt>
      <trkpt lat="45.911756" lon="-1.232682"><ele>5.0</ele></trkpt>
      <trkpt lat="45.911614" lon="-1.232613"><ele>5.4</ele></trkpt>
      <trkpt lat="45.910839" lon="-1.233596"><ele>4.6</ele></trkpt>
      <trkpt lat="45.910736" lon="-1.233584"><ele>4.0</ele></trkpt>
      <trkpt lat="45.910630" lon="-1.233018"><ele>4.8</ele></trkpt>
      <trkpt lat="45.910710" lon="-1.232241"><ele>5.0</ele></trkpt>
      <trkpt lat="45.910602" lon="-1.230839"><ele>6.2</ele></trkpt>
      <trkpt lat="45.910459" lon="-1.230105"><ele>6.0</ele></trkpt>
      <trkpt lat="45.910182" lon="-1.229240"><ele>4.8</ele></trkpt>
      <trkpt lat="45.910303" lon="-1.227413"><ele>4.8</ele></trkpt>
      <trkpt lat="45.910562" lon="-1.226654"><ele>4.8</ele></trkpt>
      <trkpt lat="45.910144" lon="-1.226033"><ele>4.0</ele></trkpt>
      <trkpt lat="45.909700" lon="-1.224899"><ele>4.8</ele></trkpt>
      <trkpt lat="45.909594" lon="-1.224884"><ele>4.6</ele></trkpt>
      <trkpt lat="45.909449" lon="-1.225097"><ele>4.2</ele></trkpt>
      <trkpt lat="45.909350" lon="-1.225005"><ele>3.2</ele></trkpt>
      <trkpt lat="45.908821" lon="-1.223530"><ele>4.0</ele></trkpt>
      <trkpt lat="45.908558" lon="-1.223212"><ele>4.8</ele></trkpt>
      <trkpt lat="45.908569" lon="-1.223013"><ele>5.2</ele></trkpt>
      <trkpt lat="45.908307" lon="-1.223133"><ele>5.2</ele></trkpt>
      <trkpt lat="45.908031" lon="-1.222883"><ele>5.2</ele></trkpt>
      <trkpt lat="45.908030" lon="-1.222587"><ele>5.2</ele></trkpt>
      <trkpt lat="45.908543" lon="-1.221427"><ele>4.8</ele></trkpt>
      <trkpt lat="45.908106" lon="-1.220617"><ele>4.0</ele></trkpt>
      <trkpt lat="45.908015" lon="-1.220012"><ele>3.8</ele></trkpt>
      <trkpt lat="45.907212" lon="-1.219142"><ele>4.8</ele></trkpt>
      <trkpt lat="45.905999" lon="-1.218269"><ele>4.6</ele></trkpt>
      <trkpt lat="45.905785" lon="-1.217994"><ele>4.4</ele></trkpt>
      <trkpt lat="45.905437" lon="-1.217198"><ele>4.0</ele></trkpt>
      <trkpt lat="45.905494" lon="-1.216970"><ele>5.0</ele></trkpt>
      <trkpt lat="45.906111" lon="-1.215985"><ele>5.2</ele></trkpt>
      <trkpt lat="45.906402" lon="-1.215712"><ele>5.2</ele></trkpt>
      <trkpt lat="45.906864" lon="-1.214627"><ele>6.0</ele></trkpt>
      <trkpt lat="45.906391" lon="-1.214156"><ele>4.8</ele></trkpt>
      <trkpt lat="45.906084" lon="-1.214250"><ele>4.8</ele></trkpt>
      <trkpt lat="45.905923" lon="-1.214040"><ele>4.8</ele></trkpt>
      <trkpt lat="45.905417" lon="-1.212985"><ele>4.2</ele></trkpt>
      <trkpt lat="45.905401" lon="-1.212341"><ele>4.0</ele></trkpt>
      <trkpt lat="45.905150" lon="-1.211627"><ele>5.0</ele></trkpt>
      <trkpt lat="45.904723" lon="-1.211435"><ele>5.2</ele></trkpt>
      <trkpt lat="45.904249" lon="-1.211022"><ele>5.6</ele></trkpt>
      <trkpt lat="45.904030" lon="-1.211055"><ele>5.2</ele></trkpt>
      <trkpt lat="45.903728" lon="-1.211316"><ele>4.4</ele></trkpt>
      <trkpt lat="45.903572" lon="-1.211125"><ele>4.2</ele></trkpt>
      <trkpt lat="45.902982" lon="-1.209727"><ele>5.6</ele></trkpt>
      <trkpt lat="45.902643" lon="-1.209160"><ele>6.6</ele></trkpt>
      <trkpt lat="45.902343" lon="-1.209266"><ele>5.0</ele></trkpt>
      <trkpt lat="45.902221" lon="-1.209603"><ele>5.0</ele></trkpt>
      <trkpt lat="45.901916" lon="-1.210009"><ele>3.6</ele></trkpt>
      <trkpt lat="45.901719" lon="-1.209913"><ele>2.8</ele></trkpt>
      <trkpt lat="45.901497" lon="-1.209467"><ele>2.8</ele></trkpt>
      <trkpt lat="45.900961" lon="-1.207800"><ele>3.0</ele></trkpt>
      <trkpt lat="45.899801" lon="-1.204788"><ele>4.4</ele></trkpt>
      <trkpt lat="45.898914" lon="-1.203257"><ele>4.2</ele></trkpt>
      <trkpt lat="45.898895" lon="-1.203128"><ele>5.0</ele></trkpt>
      <trkpt lat="45.899042" lon="-1.202968"><ele>4.8</ele></trkpt>
      <trkpt lat="45.899456" lon="-1.202038"><ele>5.4</ele></trkpt>
      <trkpt lat="45.899282" lon="-1.201945"><ele>5.8</ele></trkpt>
      <trkpt lat="45.898106" lon="-1.202328"><ele>5.6</ele></trkpt>
      <trkpt lat="45.897553" lon="-1.202230"><ele>5.2</ele></trkpt>
      <trkpt lat="45.896902" lon="-1.201904"><ele>4.8</ele></trkpt>
      <trkpt lat="45.896515" lon="-1.201967"><ele>6.2</ele></trkpt>
      <trkpt lat="45.896084" lon="-1.201898"><ele>6.0</ele></trkpt>
      <trkpt lat="45.895264" lon="-1.201275"><ele>4.8</ele></trkpt>
      <trkpt lat="45.893343" lon="-1.199184"><ele>5.0</ele></trkpt>
      <trkpt lat="45.892826" lon="-1.198735"><ele>5.0</ele></trkpt>
      <trkpt lat="45.892509" lon="-1.198244"><ele>5.4</ele></trkpt>
      <trkpt lat="45.891289" lon="-1.196918"><ele>4.8</ele></trkpt>
      <trkpt lat="45.891124" lon="-1.196969"><ele>4.0</ele></trkpt>
      <trkpt lat="45.890854" lon="-1.197267"><ele>3.4</ele></trkpt>
      <trkpt lat="45.890202" lon="-1.198688"><ele>2.8</ele></trkpt>
      <trkpt lat="45.890147" lon="-1.198273"><ele>3.2</ele></trkpt>
      <trkpt lat="45.890450" lon="-1.196529"><ele>3.8</ele></trkpt>
      <trkpt lat="45.890267" lon="-1.195992"><ele>5.4</ele></trkpt>
      <trkpt lat="45.890558" lon="-1.194808"><ele>5.8</ele></trkpt>
      <trkpt lat="45.890183" lon="-1.194574"><ele>5.8</ele></trkpt>
      <trkpt lat="45.890096" lon="-1.194319"><ele>7.6</ele></trkpt>
      <trkpt lat="45.889376" lon="-1.193165"><ele>8.2</ele></trkpt>
      <trkpt lat="45.888882" lon="-1.191679"><ele>7.2</ele></trkpt>
      <trkpt lat="45.888716" lon="-1.191570"><ele>7.0</ele></trkpt>
      <trkpt lat="45.888607" lon="-1.191216"><ele>6.0</ele></trkpt>
      <trkpt lat="45.887666" lon="-1.190258"><ele>6.8</ele></trkpt>
      <trkpt lat="45.887505" lon="-1.190254"><ele>7.0</ele></trkpt>
      <trkpt lat="45.887307" lon="-1.190616"><ele>7.6</ele></trkpt>
      <trkpt lat="45.887222" lon="-1.190624"><ele>7.2</ele></trkpt>
      <trkpt lat="45.886909" lon="-1.190448"><ele>6.2</ele></trkpt>
      <trkpt lat="45.886781" lon="-1.189895"><ele>6.8</ele></trkpt>
      <trkpt lat="45.886620" lon="-1.189767"><ele>6.6</ele></trkpt>
      <trkpt lat="45.886042" lon="-1.190252"><ele>6.8</ele></trkpt>
      <trkpt lat="45.885659" lon="-1.190247"><ele>7.2</ele></trkpt>
      <trkpt lat="45.885459" lon="-1.190012"><ele>8.0</ele></trkpt>
      <trkpt lat="45.885108" lon="-1.189180"><ele>8.4</ele></trkpt>
      <trkpt lat="45.884734" lon="-1.189111"><ele>9.2</ele></trkpt>
    </trkseg>
  </trk>
</gpx>
