<?xml version="1.0" encoding="UTF-8"?>
<gpx version="1.1" creator="gpx-processor" xmlns="http://www.topografix.com/GPX/1/1">
  <metadata><name>Ultra Trail de l'Île d'Oléron (Duo Relay)</name></metadata>
  <trk>
    <name>Ultra Trail de l'Île d'Oléron (Duo Relay)</name>
    <trkseg>
      <trkpt lat="45.884432" lon="-1.189325"><ele>8.8</ele></trkpt>
      <trkpt lat="45.884121" lon="-1.189712"><ele>4.8</ele></trkpt>
      <trkpt lat="45.884134" lon="-1.189980"><ele>2.8</ele></trkpt>
      <trkpt lat="45.885960" lon="-1.194621"><ele>8.6</ele></trkpt>
      <trkpt lat="45.885867" lon="-1.194815"><ele>8.2</ele></trkpt>
      <trkpt lat="45.884950" lon="-1.194965"><ele>8.0</ele></trkpt>
      <trkpt lat="45.884630" lon="-1.195418"><ele>5.4</ele></trkpt>
      <trkpt lat="45.884350" lon="-1.195392"><ele>4.4</ele></trkpt>
      <trkpt lat="45.884180" lon="-1.195246"><ele>3.6</ele></trkpt>
      <trkpt lat="45.883453" lon="-1.192453"><ele>3.4</ele></trkpt>
      <trkpt lat="45.883287" lon="-1.192231"><ele>3.6</ele></trkpt>
      <trkpt lat="45.883028" lon="-1.192127"><ele>4.0</ele></trkpt>
      <trkpt lat="45.882536" lon="-1.192294"><ele>4.0</ele></trkpt>
      <trkpt lat="45.881534" lon="-1.193527"><ele>2.8</ele></trkpt>
      <trkpt lat="45.881035" lon="-1.193784"><ele>3.2</ele></trkpt>
      <trkpt lat="45.879737" lon="-1.193610"><ele>3.8</ele></trkpt>
      <trkpt lat="45.876991" lon="-1.193730"><ele>3.8</ele></trkpt>
      <trkpt lat="45.876590" lon="-1.193643"><ele>3.6</ele></trkpt>
      <trkpt lat="45.874564" lon="-1.192789"><ele>3.6</ele></trkpt>
      <trkpt lat="45.873504" lon="-1.193009"><ele>3.2</ele></trkpt>
      <trkpt lat="45.873367" lon="-1.193215"><ele>3.2</ele></trkpt>
      <trkpt lat="45.873276" lon="-1.194871"><ele>2.0</ele></trkpt>
      <trkpt lat="45.873065" lon="-1.195192"><ele>2.4</ele></trkpt>
      <trkpt lat="45.872418" lon="-1.195802"><ele>2.0</ele></trkpt>
      <trkpt lat="45.872372" lon="-1.196053"><ele>1.8</ele></trkpt>
      <trkpt lat="45.871806" lon="-1.196290"><ele>1.8</ele></trkpt>
      <trkpt lat="45.871769" lon="-1.196567"><ele>1.6</ele></trkpt>
      <trkpt lat="45.871277" lon="-1.196935"><ele>1.8</ele></trkpt>
      <trkpt lat="45.871020" lon="-1.197259"><ele>1.6</ele></trkpt>
      <trkpt lat="45.869966" lon="-1.197613"><ele>2.4</ele></trkpt>
      <trkpt lat="45.869382" lon="-1.198037"><ele>2.2</ele></trkpt>
      <trkpt lat="45.868723" lon="-1.198710"><ele>2.2</ele></trkpt>
      <trkpt lat="45.867664" lon="-1.200091"><ele>2.0</ele></trkpt>
      <trkpt lat="45.867329" lon="-1.200178"><ele>2.6</ele></trkpt>
      <trkpt lat="45.867086" lon="-1.200077"><ele>2.2</ele></trkpt>
      <trkpt lat="45.866695" lon="-1.199281"><ele>1.6</ele></trkpt>
      <trkpt lat="45.866294" lon="-1.199613"><ele>1.2</ele></trkpt>
      <trkpt lat="45.866167" lon="-1.199405"><ele>1.0</ele></trkpt>
      <trkpt lat="45.865993" lon="-1.199575"><ele>1.0</ele></trkpt>
      <trkpt lat="45.865888" lon="-1.199547"><ele>1.2</ele></trkpt>
      <trkpt lat="45.865799" lon="-1.199315"><ele>1.4</ele></trkpt>
      <trkpt lat="45.865945" lon="-1.199092"><ele>1.2</ele></trkpt>
      <trkpt lat="45.865913" lon="-1.198888"><ele>1.2</ele></trkpt>
      <trkpt lat="45.865065" lon="-1.197001"><ele>2.4</ele></trkpt>
      <trkpt lat="45.864679" lon="-1.197085"><ele>2.0</ele></trkpt>
      <trkpt lat="45.864398" lon="-1.196891"><ele>2.0</ele></trkpt>
      <trkpt lat="45.864080" lon="-1.196503"><ele>2.0</ele></trkpt>
      <trkpt lat="45.863499" lon="-1.196808"><ele>1.2</ele></trkpt>
      <trkpt lat="45.862937" lon="-1.196787"><ele>2.4</ele></trkpt>
      <trkpt lat="45.862725" lon="-1.196911"><ele>2.0</ele></trkpt>
      <trkpt lat="45.862735" lon="-1.197089"><ele>1.8</ele></trkpt>
      <trkpt lat="45.863070" lon="-1.197907"><ele>2.0</ele></trkpt>
      <trkpt lat="45.863059" lon="-1.198211"><ele>0.8</ele></trkpt>
      <trkpt lat="45.863597" lon="-1.199089"><ele>0.4</ele></trkpt>
      <trkpt lat="45.863875" lon="-1.200454"><ele>1.2</ele></trkpt>
      <trkpt lat="45.864202" lon="-1.201144"><ele>1.2</ele></trkpt>
      <trkpt lat="45.864214" lon="-1.201600"><ele>0.2</ele></trkpt>
      <trkpt lat="45.864093" lon="-1.201946"><ele>0.8</ele></trkpt>
      <trkpt lat="45.864231" lon="-1.202430"><ele>0.8</ele></trkpt>
      <trkpt lat="45.864134" lon="-1.202968"><ele>0.0</ele></trkpt>
      <trkpt lat="45.864359" lon="-1.203255"><ele>-0.2</ele></trkpt>
      <trkpt lat="45.864083" lon="-1.203788"><ele>0.2</ele></trkpt>
      <trkpt lat="45.864101" lon="-1.204519"><ele>0.0</ele></trkpt>
      <trkpt lat="45.864617" lon="-1.206624"><ele>0.2</ele></trkpt>
      <trkpt lat="45.865167" lon="-1.207505"><ele>-0.2</ele></trkpt>
      <trkpt lat="45.865438" lon="-1.207685"><ele>0.2</ele></trkpt>
      <trkpt lat="45.865539" lon="-1.207650"><ele>0.4</ele></trkpt>
      <trkpt lat="45.865736" lon="-1.207988"><ele>0.2</ele></trkpt>
      <trkpt lat="45.866534" lon="-1.208574"><ele>1.0</ele></trkpt>
      <trkpt lat="45.866711" lon="-1.208626"><ele>0.8</ele></trkpt>
      <trkpt lat="45.866955" lon="-1.208538"><ele>0.8</ele></trkpt>
      <trkpt lat="45.867314" lon="-1.209131"><ele>1.2</ele></trkpt>
      <trkpt lat="45.867760" lon="-1.209575"><ele>1.6</ele></trkpt>
      <trkpt lat="45.867972" lon="-1.210447"><ele>0.8</ele></trkpt>
      <trkpt lat="45.868045" lon="-1.211211"><ele>0.6</ele></trkpt>
      <trkpt lat="45.868558" lon="-1.212265"><ele>0.8</ele></trkpt>
      <trkpt lat="45.869242" lon="-1.213112"><ele>0.2</ele></trkpt>
      <trkpt lat="45.869551" lon="-1.213981"><ele>0.8</ele></trkpt>
      <trkpt lat="45.870481" lon="-1.215792"><ele>0.6</ele></trkpt>
      <trkpt lat="45.870584" lon="-1.216467"><ele>0.4</ele></trkpt>
      <trkpt lat="45.871015" lon="-1.217366"><ele>0.4</ele></trkpt>
      <trkpt lat="45.870857" lon="-1.217704"><ele>0.6</ele></trkpt>
      <trkpt lat="45.870790" lon="-1.218258"><ele>0.8</ele></trkpt>
      <trkpt lat="45.870279" lon="-1.218914"><ele>1.2</ele></trkpt>
      <trkpt lat="45.869033" lon="-1.219846"><ele>1.4</ele></trkpt>
      <trkpt lat="45.868407" lon="-1.219968"><ele>1.4</ele></trkpt>
      <trkpt lat="45.867572" lon="-1.220341"><ele>1.4</ele></trkpt>
      <trkpt lat="45.867086" lon="-1.220354"><ele>1.4</ele></trkpt>
      <trkpt lat="45.866067" lon="-1.221231"><ele>1.2</ele></trkpt>
      <trkpt lat="45.865985" lon="-1.221487"><ele>1.2</ele></trkpt>
      <trkpt lat="45.866049" lon="-1.222107"><ele>1.4</ele></trkpt>
      <trkpt lat="45.866011" lon="-1.222568"><ele>1.4</ele></trkpt>
      <trkpt lat="45.865659" lon="-1.223762"><ele>1.2</ele></trkpt>
      <trkpt lat="45.865516" lon="-1.224174"><ele>1.2</ele></trkpt>
      <trkpt lat="45.865001" lon="-1.224911"><ele>1.4</ele></trkpt>
      <trkpt lat="45.864473" lon="-1.226681"><ele>0.4</ele></trkpt>
      <trkpt lat="45.864020" lon="-1.227327"><ele>0.4</ele></trkpt>
      <trkpt lat="45.863462" lon="-1.228408"><ele>0.8</ele></trkpt>
      <trkpt lat="45.863412" lon="-1.229716"><ele>1.0</ele></trkpt>
      <trkpt lat="45.863086" lon="-1.230649"><ele>0.8</ele></trkpt>
      <trkpt lat="45.862886" lon="-1.230955"><ele>1.2</ele></trkpt>
      <trkpt lat="45.862479" lon="-1.230979"><ele>2.2</ele></trkpt>
      <trkpt lat="45.862087" lon="-1.230562"><ele>1.6</ele></trkpt>
      <trkpt lat="45.861792" lon="-1.230776"><ele>1.8</ele></trkpt>
      <trkpt lat="45.861586" lon="-1.230352"><ele>1.4</ele></trkpt>
      <trkpt lat="45.861307" lon="-1.230108"><ele>1.6</ele></trkpt>
      <trkpt lat="45.861060" lon="-1.229983"><ele>1.4</ele></trkpt>
      <trkpt lat="45.860642" lon="-1.229948"><ele>1.2</ele></trkpt>
      <trkpt lat="45.860256" lon="-1.229655"><ele>1.2</ele></trkpt>
      <trkpt lat="45.859017" lon="-1.229510"><ele>1.8</ele></trkpt>
      <trkpt lat="45.858471" lon="-1.229673"><ele>2.0</ele></trkpt>
      <trkpt lat="45.857880" lon="-1.229115"><ele>2.0</ele></trkpt>
      <trkpt lat="45.857383" lon="-1.228848"><ele>2.4</ele></trkpt>
      <trkpt lat="45.856737" lon="-1.228329"><ele>3.6</ele></trkpt>
      <trkpt lat="45.856495" lon="-1.228237"><ele>3.8</ele></trkpt>
      <trkpt lat="45.856349" lon="-1.228494"><ele>5.2</ele></trkpt>
      <trkpt lat="45.855895" lon="-1.227604"><ele>5.8</ele></trkpt>
      <trkpt lat="45.855626" lon="-1.227626"><ele>7.2</ele></trkpt>
      <trkpt lat="45.854626" lon="-1.228444"><ele>6.6</ele></trkpt>
      <trkpt lat="45.854024" lon="-1.228690"><ele>6.8</ele></trkpt>
      <trkpt lat="45.853921" lon="-1.228230"><ele>7.2</ele></trkpt>
      <trkpt lat="45.853531" lon="-1.227631"><ele>9.6</ele></trkpt>
      <trkpt lat="45.853408" lon="-1.226990"><ele>10.2</ele></trkpt>
      <trkpt lat="45.852935" lon="-1.225973"><ele>9.0</ele></trkpt>
      <trkpt lat="45.853120" lon="-1.225146"><ele>7.6</ele></trkpt>
      <trkpt lat="45.853003" lon="-1.224758"><ele>7.4</ele></trkpt>
      <trkpt lat="45.852862" lon="-1.224560"><ele>7.2</ele></trkpt>
      <trkpt lat="45.852636" lon="-1.224440"><ele>7.4</ele></trkpt>
      <trkpt lat="45.852328" lon="-1.224491"><ele>8.8</ele></trkpt>
      <trkpt lat="45.851824" lon="-1.224021"><ele>10.0</ele></trkpt>
      <trkpt lat="45.851317" lon="-1.224058"><ele>8.2</ele></trkpt>
      <trkpt lat="45.851224" lon="-1.223904"><ele>8.0</ele></trkpt>
      <trkpt lat="45.851188" lon="-1.223339"><ele>9.2</ele></trkpt>
      <trkpt lat="45.851057" lon="-1.223074"><ele>9.4</ele></trkpt>
      <trkpt lat="45.850513" lon="-1.223229"><ele>10.2</ele></trkpt>
      <trkpt lat="45.849566" lon="-1.221642"><ele>7.4</ele></trkpt>
      <trkpt lat="45.849328" lon="-1.220817"><ele>7.6</ele></trkpt>
      <trkpt lat="45.848897" lon="-1.221129"><ele>9.2</ele></trkpt>
      <trkpt lat="45.848794" lon="-1.221000"><ele>10.2</ele></trkpt>
      <trkpt lat="45.848717" lon="-1.220661"><ele>11.2</ele></trkpt>
      <trkpt lat="45.848566" lon="-1.220547"><ele>12.2</ele></trkpt>
      <trkpt lat="45.848358" lon="-1.220745"><ele>11.8</ele></trkpt>
      <trkpt lat="45.848251" lon="-1.221120"><ele>10.0</ele></trkpt>
      <trkpt lat="45.847796" lon="-1.221404"><ele>9.4</ele></trkpt>
      <trkpt lat="45.847618" lon="-1.221319"><ele>10.2</ele></trkpt>
      <trkpt lat="45.847238" lon="-1.220789"><ele>11.2</ele></trkpt>
      <trkpt lat="45.847122" lon="-1.220253"><ele>10.0</ele></trkpt>
      <trkpt lat="45.846738" lon="-1.220299"><ele>10.0</ele></trkpt>
      <trkpt lat="45.846701" lon="-1.219886"><ele>10.4</ele></trkpt>
      <trkpt lat="45.846402" lon="-1.219079"><ele>13.0</ele></trkpt>
      <trkpt lat="45.846145" lon="-1.218982"><ele>11.8</ele></trkpt>
      <trkpt lat="45.846312" lon="-1.219074"><ele>11.8</ele></trkpt>
      <trkpt lat="45.846381" lon="-1.218949"><ele>12.4</ele></trkpt>
      <trkpt lat="45.846112" lon="-1.217714"><ele>13.0</ele></trkpt>
      <trkpt lat="45.846136" lon="-1.217427"><ele>11.6</ele></trkpt>
      <trkpt lat="45.846068" lon="-1.217206"><ele>10.0</ele></trkpt>
      <trkpt lat="45.844368" lon="-1.216751"><ele>11.2</ele></trkpt>
      <trkpt lat="45.844658" lon="-1.214865"><ele>17.6</ele></trkpt>
      <trkpt lat="45.844835" lon="-1.214186"><ele>14.4</ele></trkpt>
      <trkpt lat="45.844605" lon="-1.213845"><ele>14.4</ele></trkpt>
      <trkpt lat="45.844590" lon="-1.213580"><ele>14.6</ele></trkpt>
      <trkpt lat="45.844844" lon="-1.212628"><ele>15.4</ele></trkpt>
      <trkpt lat="45.845092" lon="-1.210731"><ele>13.4</ele></trkpt>
      <trkpt lat="45.843854" lon="-1.211008"><ele>26.4</ele></trkpt>
      <trkpt lat="45.843635" lon="-1.212010"><ele>29.2</ele></trkpt>
      <trkpt lat="45.843452" lon="-1.212288"><ele>27.8</ele></trkpt>
      <trkpt lat="45.843133" lon="-1.212523"><ele>29.0</ele></trkpt>
      <trkpt lat="45.842354" lon="-1.212394"><ele>34.8</ele></trkpt>
      <trkpt lat="45.842020" lon="-1.212790"><ele>36.2</ele></trkpt>
      <trkpt lat="45.841535" lon="-1.212911"><ele>35.0</ele></trkpt>
      <trkpt lat="45.841181" lon="-1.212878"><ele>33.2</ele></trkpt>
      <trkpt lat="45.840748" lon="-1.212596"><ele>30.8</ele></trkpt>
      <trkpt lat="45.840235" lon="-1.212631"><ele>31.0</ele></trkpt>
      <trkpt lat="45.840150" lon="-1.212508"><ele>30.8</ele></trkpt>
      <trkpt lat="45.839660" lon="-1.212249"><ele>26.4</ele></trkpt>
      <trkpt lat="45.839304" lon="-1.212196"><ele>23.2</ele></trkpt>
      <trkpt lat="45.839210" lon="-1.212068"><ele>21.6</ele></trkpt>
      <trkpt lat="45.838094" lon="-1.208293"><ele>8.4</ele></trkpt>
      <trkpt lat="45.838005" lon="-1.207691"><ele>7.4</ele></trkpt>
      <trkpt lat="45.838206" lon="-1.207241"><ele>7.2</ele></trkpt>
      <trkpt lat="45.837795" lon="-1.206656"><ele>7.6</ele></trkpt>
      <trkpt lat="45.836917" lon="-1.206092"><ele>13.0</ele></trkpt>
      <trkpt lat="45.836556" lon="-1.206199"><ele>13.8</ele></trkpt>
      <trkpt lat="45.834689" lon="-1.205851"><ele>10.0</ele></trkpt>
      <trkpt lat="45.833697" lon="-1.205459"><ele>7.4</ele></trkpt>
      <trkpt lat="45.832388" lon="-1.205495"><ele>7.4</ele></trkpt>
      <trkpt lat="45.831952" lon="-1.205351"><ele>10.0</ele></trkpt>
      <trkpt lat="45.831871" lon="-1.205463"><ele>9.2</ele></trkpt>
      <trkpt lat="45.831785" lon="-1.206690"><ele>5.6</ele></trkpt>
      <trkpt lat="45.831839" lon="-1.207270"><ele>7.4</ele></trkpt>
      <trkpt lat="45.831664" lon="-1.207923"><ele>6.4</ele></trkpt>
      <trkpt lat="45.831461" lon="-1.208028"><ele>6.6</ele></trkpt>
      <trkpt lat="45.831381" lon="-1.208204"><ele>6.2</ele></trkpt>
      <trkpt lat="45.831535" lon="-1.208559"><ele>6.2</ele></trkpt>
      <trkpt lat="45.831448" lon="-1.209223"><ele>6.4</ele></trkpt>
      <trkpt lat="45.830467" lon="-1.209408"><ele>8.0</ele></trkpt>
      <trkpt lat="45.830069" lon="-1.209288"><ele>7.8</ele></trkpt>
      <trkpt lat="45.829826" lon="-1.209458"><ele>9.0</ele></trkpt>
      <trkpt lat="45.829438" lon="-1.210522"><ele>9.0</ele></trkpt>
      <trkpt lat="45.828978" lon="-1.211278"><ele>7.2</ele></trkpt>
      <trkpt lat="45.828340" lon="-1.211626"><ele>7.0</ele></trkpt>
      <trkpt lat="45.828044" lon="-1.212129"><ele>5.8</ele></trkpt>
      <trkpt lat="45.827710" lon="-1.211968"><ele>5.2</ele></trkpt>
      <trkpt lat="45.826936" lon="-1.211336"><ele>4.0</ele></trkpt>
      <trkpt lat="45.826748" lon="-1.211308"><ele>3.6</ele></trkpt>
      <trkpt lat="45.826651" lon="-1.211485"><ele>3.6</ele></trkpt>
      <trkpt lat="45.826439" lon="-1.212602"><ele>3.4</ele></trkpt>
      <trkpt lat="45.826109" lon="-1.213536"><ele>3.0</ele></trkpt>
      <trkpt lat="45.826017" lon="-1.213537"><ele>2.6</ele></trkpt>
      <trkpt lat="45.824984" lon="-1.212228"><ele>2.0</ele></trkpt>
      <trkpt lat="45.824774" lon="-1.212211"><ele>2.2</ele></trkpt>
      <trkpt lat="45.824474" lon="-1.212352"><ele>2.2</ele></trkpt>
      <trkpt lat="45.824177" lon="-1.211868"><ele>1.8</ele></trkpt>
      <trkpt lat="45.823984" lon="-1.211776"><ele>2.0</ele></trkpt>
      <trkpt lat="45.823378" lon="-1.211999"><ele>1.8</ele></trkpt>
      <trkpt lat="45.822685" lon="-1.212475"><ele>1.8</ele></trkpt>
      <trkpt lat="45.821308" lon="-1.212685"><ele>2.0</ele></trkpt>
      <trkpt lat="45.820728" lon="-1.212632"><ele>1.8</ele></trkpt>
      <trkpt lat="45.820348" lon="-1.212127"><ele>2.0</ele></trkpt>
      <trkpt lat="45.819900" lon="-1.210866"><ele>2.0</ele></trkpt>
      <trkpt lat="45.819778" lon="-1.210695"><ele>1.8</ele></trkpt>
      <trkpt lat="45.819576" lon="-1.210631"><ele>3.0</ele></trkpt>
      <trkpt lat="45.818711" lon="-1.211705"><ele>3.6</ele></trkpt>
      <trkpt lat="45.818269" lon="-1.212418"><ele>3.8</ele></trkpt>
      <trkpt lat="45.816784" lon="-1.214141"><ele>2.6</ele></trkpt>
      <trkpt lat="45.816505" lon="-1.214249"><ele>3.0</ele></trkpt>
      <trkpt lat="45.815338" lon="-1.215698"><ele>3.6</ele></trkpt>
      <trkpt lat="45.814356" lon="-1.216221"><ele>4.4</ele></trkpt>
      <trkpt lat="45.814117" lon="-1.216226"><ele>3.4</ele></trkpt>
      <trkpt lat="45.814198" lon="-1.216527"><ele>3.6</ele></trkpt>
      <trkpt lat="45.816065" lon="-1.219606"><ele>3.0</ele></trkpt>
      <trkpt lat="45.815714" lon="-1.219769"><ele>3.6</ele></trkpt>
      <trkpt lat="45.814553" lon="-1.219848"><ele>3.6</ele></trkpt>
      <trkpt lat="45.814214" lon="-1.220042"><ele>3.4</ele></trkpt>
      <trkpt lat="45.813958" lon="-1.221039"><ele>4.8</ele></trkpt>
      <trkpt lat="45.813785" lon="-1.221145"><ele>5.4</ele></trkpt>
      <trkpt lat="45.813168" lon="-1.221199"><ele>5.2</ele></trkpt>
      <trkpt lat="45.812992" lon="-1.221350"><ele>4.8</ele></trkpt>
      <trkpt lat="45.812563" lon="-1.221921"><ele>5.6</ele></trkpt>
      <trkpt lat="45.811704" lon="-1.223788"><ele>3.4</ele></trkpt>
      <trkpt lat="45.811345" lon="-1.224309"><ele>3.0</ele></trkpt>
      <trkpt lat="45.810025" lon="-1.225466"><ele>2.8</ele></trkpt>
      <trkpt lat="45.808777" lon="-1.226234"><ele>3.0</ele></trkpt>
      <trkpt lat="45.808391" lon="-1.226691"><ele>3.0</ele></trkpt>
      <trkpt lat="45.808236" lon="-1.227334"><ele>3.4</ele></trkpt>
      <trkpt lat="45.807970" lon="-1.230614"><ele>6.4</ele></trkpt>
      <trkpt lat="45.807545" lon="-1.237308"><ele>5.4</ele></trkpt>
      <trkpt lat="45.807702" lon="-1.237541"><ele>4.8</ele></trkpt>
      <trkpt lat="45.808219" lon="-1.237284"><ele>2.2</ele></trkpt>
      <trkpt lat="45.808591" lon="-1.236944"><ele>1.2</ele></trkpt>
      <trkpt lat="45.808872" lon="-1.236946"><ele>1.4</ele></trkpt>
      <trkpt lat="45.809101" lon="-1.236675"><ele>1.2</ele></trkpt>
      <trkpt lat="45.809590" lon="-1.236720"><ele>1.4</ele></trkpt>
      <trkpt lat="45.809648" lon="-1.237353"><ele>5.4</ele></trkpt>
      <trkpt lat="45.810285" lon="-1.237662"><ele>4.2</ele></trkpt>
      <trkpt lat="45.810813" lon="-1.237630"><ele>3.8</ele></trkpt>
      <trkpt lat="45.811133" lon="-1.237789"><ele>2.4</ele></trkpt>
      <trkpt lat="45.811607" lon="-1.237683"><ele>2.2</ele></trkpt>
      <trkpt lat="45.813064" lon="-1.238220"><ele>5.8</ele></trkpt>
      <trkpt lat="45.814043" lon="-1.238304"><ele>9.2</ele></trkpt>
      <trkpt lat="45.814778" lon="-1.238529"><ele>9.4</ele></trkpt>
      <trkpt lat="45.815109" lon="-1.238487"><ele>9.8</ele></trkpt>
      <trkpt lat="45.815350" lon="-1.238281"><ele>8.6</ele></trkpt>
      <trkpt lat="45.816651" lon="-1.238646"><ele>7.2</ele></trkpt>
      <trkpt lat="45.817026" lon="-1.238523"><ele>7.0</ele></trkpt>
      <trkpt lat="45.817409" lon="-1.238539"><ele>7.0</ele></trkpt>
      <trkpt lat="45.817743" lon="-1.238240"><ele>6.2</ele></trkpt>
      <trkpt lat="45.817914" lon="-1.237805"><ele>6.8</ele></trkpt>
      <trkpt lat="45.818171" lon="-1.237663"><ele>6.8</ele></trkpt>
      <trkpt lat="45.818878" lon="-1.237721"><ele>6.8</ele></trkpt>
      <trkpt lat="45.819827" lon="-1.237504"><ele>5.8</ele></trkpt>
      <trkpt lat="45.820220" lon="-1.237706"><ele>6.2</ele></trkpt>
      <trkpt lat="45.820406" lon="-1.237654"><ele>6.4</ele></trkpt>
      <trkpt lat="45.820477" lon="-1.237815"><ele>5.8</ele></trkpt>
      <trkpt lat="45.820390" lon="-1.238147"><ele>5.0</ele></trkpt>
      <trkpt lat="45.820048" lon="-1.238862"><ele>4.2</ele></trkpt>
      <trkpt lat="45.819644" lon="-1.239322"><ele>8.2</ele></trkpt>
      <trkpt lat="45.819725" lon="-1.239959"><ele>6.2</ele></trkpt>
      <trkpt lat="45.819490" lon="-1.241196"><ele>5.2</ele></trkpt>
      <trkpt lat="45.819313" lon="-1.241514"><ele>5.6</ele></trkpt>
      <trkpt lat="45.819301" lon="-1.241805"><ele>5.2</ele></trkpt>
      <trkpt lat="45.819390" lon="-1.241976"><ele>5.0</ele></trkpt>
      <trkpt lat="45.820159" lon="-1.242072"><ele>4.6</ele></trkpt>
      <trkpt lat="45.827646" lon="-1.241906"><ele>3.6</ele></trkpt>
      <trkpt lat="45.830683" lon="-1.242367"><ele>4.6</ele></trkpt>
      <trkpt lat="45.830745" lon="-1.242479"><ele>4.6</ele></trkpt>
      <trkpt lat="45.830677" lon="-1.243439"><ele>5.2</ele></trkpt>
      <trkpt lat="45.830809" lon="-1.244268"><ele>6.8</ele></trkpt>
      <trkpt lat="45.830804" lon="-1.244737"><ele>9.0</ele></trkpt>
      <trkpt lat="45.831357" lon="-1.245999"><ele>13.4</ele></trkpt>
      <trkpt lat="45.831410" lon="-1.247049"><ele>4.0</ele></trkpt>
      <trkpt lat="45.831775" lon="-1.247633"><ele>0.6</ele></trkpt>
      <trkpt lat="45.832332" lon="-1.247925"><ele>0.4</ele></trkpt>
      <trkpt lat="45.834476" lon="-1.248465"><ele>1.4</ele></trkpt>
      <trkpt lat="45.837095" lon="-1.248929"><ele>2.0</ele></trkpt>
      <trkpt lat="45.839413" lon="-1.249131"><ele>3.0</ele></trkpt>
      <trkpt lat="45.840242" lon="-1.248980"><ele>4.0</ele></trkpt>
      <trkpt lat="45.840802" lon="-1.248643"><ele>6.2</ele></trkpt>
      <trkpt lat="45.841198" lon="-1.245374"><ele>6.6</ele></trkpt>
      <trkpt lat="45.841492" lon="-1.244838"><ele>6.2</ele></trkpt>
      <trkpt lat="45.841746" lon="-1.243674"><ele>6.0</ele></trkpt>
      <trkpt lat="45.841850" lon="-1.242766"><ele>6.2</ele></trkpt>
      <trkpt lat="45.842047" lon="-1.242564"><ele>10.0</ele></trkpt>
      <trkpt lat="45.847477" lon="-1.243373"><ele>8.6</ele></trkpt>
      <trkpt lat="45.850664" lon="-1.244875"><ele>8.6</ele></trkpt>
      <trkpt lat="45.851354" lon="-1.244294"><ele>4.0</ele></trkpt>
      <trkpt lat="45.851705" lon="-1.244280"><ele>4.6</ele></trkpt>
      <trkpt lat="45.852026" lon="-1.244032"><ele>4.8</ele></trkpt>
      <trkpt lat="45.852453" lon="-1.244117"><ele>4.6</ele></trkpt>
      <trkpt lat="45.852838" lon="-1.243431"><ele>4.6</ele></trkpt>
      <trkpt lat="45.853260" lon="-1.243217"><ele>4.8</ele></trkpt>
      <trkpt lat="45.853656" lon="-1.243376"><ele>6.0</ele></trkpt>
      <trkpt lat="45.854010" lon="-1.243363"><ele>5.8</ele></trkpt>
      <trkpt lat="45.854572" lon="-1.243525"><ele>5.2</ele></trkpt>
      <trkpt lat="45.855140" lon="-1.243478"><ele>5.0</ele></trkpt>
      <trkpt lat="45.855804" lon="-1.244075"><ele>6.4</ele></trkpt>
      <trkpt lat="45.856370" lon="-1.244313"><ele>4.8</ele></trkpt>
      <trkpt lat="45.857610" lon="-1.242983"><ele>4.0</ele></trkpt>
      <trkpt lat="45.857769" lon="-1.242754"><ele>5.0</ele></trkpt>
      <trkpt lat="45.857812" lon="-1.242379"><ele>5.8</ele></trkpt>
      <trkpt lat="45.858091" lon="-1.242061"><ele>8.8</ele></trkpt>
      <trkpt lat="45.859007" lon="-1.241502"><ele>9.0</ele></trkpt>
      <trkpt lat="45.859974" lon="-1.240199"><ele>9.4</ele></trkpt>
      <trkpt lat="45.860453" lon="-1.239873"><ele>9.4</ele></trkpt>
      <trkpt lat="45.860731" lon="-1.239251"><ele>9.4</ele></trkpt>
      <trkpt lat="45.860708" lon="-1.239102"><ele>8.0</ele></trkpt>
      <trkpt lat="45.860835" lon="-1.238956"><ele>7.4</ele></trkpt>
      <trkpt lat="45.860735" lon="-1.238699"><ele>7.0</ele></trkpt>
      <trkpt lat="45.860586" lon="-1.238564"><ele>7.0</ele></trkpt>
      <trkpt lat="45.860617" lon="-1.238429"><ele>6.8</ele></trkpt>
      <trkpt lat="45.860752" lon="-1.238351"><ele>6.6</ele></trkpt>
      <trkpt lat="45.861130" lon="-1.239022"><ele>7.0</ele></trkpt>
      <trkpt lat="45.860889" lon="-1.239278"><ele>8.0</ele></trkpt>
      <trkpt lat="45.860897" lon="-1.239558"><ele>8.4</ele></trkpt>
      <trkpt lat="45.860702" lon="-1.239825"><ele>9.2</ele></trkpt>
      <trkpt lat="45.860781" lon="-1.240193"><ele>7.4</ele></trkpt>
      <trkpt lat="45.860468" lon="-1.241214"><ele>7.2</ele></trkpt>
      <trkpt lat="45.860521" lon="-1.241606"><ele>6.8</ele></trkpt>
      <trkpt lat="45.860370" lon="-1.242130"><ele>9.4</ele></trkpt>
      <trkpt lat="45.860371" lon="-1.242975"><ele>8.4</ele></trkpt>
      <trkpt lat="45.860273" lon="-1.243608"><ele>9.4</ele></trkpt>
      <trkpt lat="45.859708" lon="-1.245351"><ele>7.0</ele></trkpt>
      <trkpt lat="45.860404" lon="-1.247203"><ele>5.8</ele></trkpt>
      <trkpt lat="45.860773" lon="-1.248805"><ele>6.0</ele></trkpt>
      <trkpt lat="45.860839" lon="-1.249842"><ele>6.0</ele></trkpt>
      <trkpt lat="45.861031" lon="-1.250618"><ele>7.8</ele></trkpt>
      <trkpt lat="45.861195" lon="-1.251110"><ele>8.0</ele></trkpt>
      <trkpt lat="45.861584" lon="-1.251803"><ele>8.6</ele></trkpt>
      <trkpt lat="45.861847" lon="-1.252021"><ele>9.0</ele></trkpt>
      <trkpt lat="45.862707" lon="-1.252413"><ele>9.4</ele></trkpt>
      <trkpt lat="45.863074" lon="-1.252748"><ele>9.2</ele></trkpt>
      <trkpt lat="45.863806" lon="-1.253047"><ele>12.4</ele></trkpt>
      <trkpt lat="45.864110" lon="-1.253352"><ele>10.0</ele></trkpt>
      <trkpt lat="45.864370" lon="-1.253344"><ele>10.0</ele></trkpt>
      <trkpt lat="45.864686" lon="-1.253485"><ele>9.8</ele></trkpt>
      <trkpt lat="45.865656" lon="-1.254437"><ele>7.2</ele></trkpt>
      <trkpt lat="45.866439" lon="-1.254536"><ele>9.2</ele></trkpt>
      <trkpt lat="45.866744" lon="-1.254875"><ele>9.8</ele></trkpt>
      <trkpt lat="45.867426" lon="-1.255290"><ele>10.6</ele></trkpt>
      <trkpt lat="45.869096" lon="-1.256141"><ele>8.8</ele></trkpt>
      <trkpt lat="45.869352" lon="-1.256049"><ele>6.0</ele></trkpt>
      <trkpt lat="45.870576" lon="-1.256647"><ele>7.2</ele></trkpt>
      <trkpt lat="45.870810" lon="-1.256862"><ele>7.0</ele></trkpt>
      <trkpt lat="45.871127" lon="-1.256704"><ele>7.6</ele></trkpt>
      <trkpt lat="45.871390" lon="-1.257112"><ele>7.0</ele></trkpt>
      <trkpt lat="45.871802" lon="-1.257293"><ele>6.2</ele></trkpt>
      <trkpt lat="45.872674" lon="-1.257916"><ele>5.6</ele></trkpt>
      <trkpt lat="45.874007" lon="-1.259063"><ele>5.2</ele></trkpt>
      <trkpt lat="45.875447" lon="-1.260028"><ele>7.6</ele></trkpt>
      <trkpt lat="45.875764" lon="-1.259799"><ele>7.4</ele></trkpt>
      <trkpt lat="45.875941" lon="-1.259537"><ele>7.8</ele></trkpt>
      <trkpt lat="45.875921" lon="-1.259463"><ele>6.8</ele></trkpt>
      <trkpt lat="45.875786" lon="-1.259763"><ele>6.2</ele></trkpt>
      <trkpt lat="45.876347" lon="-1.260322"><ele>6.4</ele></trkpt>
      <trkpt lat="45.876714" lon="-1.260176"><ele>5.6</ele></trkpt>
      <trkpt lat="45.876979" lon="-1.260289"><ele>6.8</ele></trkpt>
      <trkpt lat="45.877129" lon="-1.260195"><ele>8.6</ele></trkpt>
      <trkpt lat="45.877269" lon="-1.260274"><ele>7.8</ele></trkpt>
      <trkpt lat="45.877570" lon="-1.260946"><ele>9.2</ele></trkpt>
      <trkpt lat="45.877945" lon="-1.261244"><ele>7.8</ele></trkpt>
      <trkpt lat="45.877954" lon="-1.261490"><ele>10.2</ele></trkpt>
      <trkpt lat="45.878115" lon="-1.261599"><ele>10.0</ele></trkpt>
      <trkpt lat="45.878186" lon="-1.261919"><ele>9.6</ele></trkpt>
      <trkpt lat="45.878532" lon="-1.262641"><ele>5.8</ele></trkpt>
      <trkpt lat="45.878928" lon="-1.263122"><ele>5.8</ele></trkpt>
      <trkpt lat="45.879224" lon="-1.263281"><ele>6.2</ele></trkpt>
      <trkpt lat="45.879658" lon="-1.263290"><ele>6.8</ele></trkpt>
      <trkpt lat="45.879749" lon="-1.263406"><ele>6.6</ele></trkpt>
      <trkpt lat="45.879797" lon="-1.263711"><ele>5.0</ele></trkpt>
      <trkpt lat="45.880247" lon="-1.263736"><ele>4.2</ele></trkpt>
      <trkpt lat="45.880586" lon="-1.264293"><ele>7.0</ele></trkpt>
      <trkpt lat="45.881009" lon="-1.264164"><ele>7.2</ele></trkpt>
      <trkpt lat="45.881254" lon="-1.264637"><ele>6.8</ele></trkpt>
      <trkpt lat="45.881279" lon="-1.265555"><ele>8.0</ele></trkpt>
      <trkpt lat="45.881580" lon="-1.265786"><ele>10.4</ele></trkpt>
      <trkpt lat="45.881811" lon="-1.265796"><ele>10.6</ele></trkpt>
      <trkpt lat="45.881939" lon="-1.265905"><ele>10.6</ele></trkpt>
      <trkpt lat="45.881986" lon="-1.266089"><ele>12.0</ele></trkpt>
      <trkpt lat="45.881912" lon="-1.266420"><ele>12.4</ele></trkpt>
      <trkpt lat="45.882248" lon="-1.266917"><ele>11.4</ele></trkpt>
      <trkpt lat="45.882198" lon="-1.267576"><ele>10.2</ele></trkpt>
      <trkpt lat="45.882396" lon="-1.267779"><ele>8.6</ele></trkpt>
      <trkpt lat="45.882427" lon="-1.268645"><ele>7.6</ele></trkpt>
      <trkpt lat="45.882798" lon="-1.268788"><ele>7.0</ele></trkpt>
      <trkpt lat="45.882679" lon="-1.269310"><ele>7.0</ele></trkpt>
      <trkpt lat="45.883091" lon="-1.269811"><ele>9.8</ele></trkpt>
      <trkpt lat="45.883095" lon="-1.270492"><ele>7.6</ele></trkpt>
      <trkpt lat="45.883402" lon="-1.271272"><ele>10.8</ele></trkpt>
      <trkpt lat="45.883371" lon="-1.271768"><ele>12.2</ele></trkpt>
      <trkpt lat="45.883717" lon="-1.272019"><ele>10.2</ele></trkpt>
      <trkpt lat="45.883826" lon="-1.272214"><ele>11.2</ele></trkpt>
      <trkpt lat="45.883934" lon="-1.272580"><ele>10.0</ele></trkpt>
      <trkpt lat="45.883919" lon="-1.273103"><ele>9.6</ele></trkpt>
      <trkpt lat="45.884282" lon="-1.273482"><ele>9.8</ele></trkpt>
      <trkpt lat="45.884553" lon="-1.274065"><ele>8.4</ele></trkpt>
      <trkpt lat="45.884860" lon="-1.274221"><ele>11.8</ele></trkpt>
      <trkpt lat="45.884899" lon="-1.274442"><ele>11.0</ele></trkpt>
      <trkpt lat="45.885197" lon="-1.274793"><ele>9.2</ele></trkpt>
      <trkpt lat="45.885388" lon="-1.274811"><ele>9.4</ele></trkpt>
      <trkpt lat="45.885458" lon="-1.274966"><ele>9.2</ele></trkpt>
      <trkpt lat="45.885725" lon="-1.275070"><ele>9.0</ele></trkpt>
      <trkpt lat="45.885812" lon="-1.275221"><ele>9.4</ele></trkpt>
      <trkpt lat="45.885995" lon="-1.275110"><ele>10.4</ele></trkpt>
      <trkpt lat="45.886711" lon="-1.276077"><ele>7.4</ele></trkpt>
      <trkpt lat="45.886392" lon="-1.276781"><ele>4.8</ele></trkpt>
      <trkpt lat="45.886512" lon="-1.277404"><ele>2.6</ele></trkpt>
      <trkpt lat="45.886425" lon="-1.277851"><ele>-2.0</ele></trkpt>
      <trkpt lat="45.887165" lon="-1.279294"><ele>-2.2</ele></trkpt>
      <trkpt lat="45.887339" lon="-1.280113"><ele>-1.6</ele></trkpt>
      <trkpt lat="45.887674" lon="-1.280846"><ele>-2.2</ele></trkpt>
      <trkpt lat="45.890337" lon="-1.282980"><ele>-3.4</ele></trkpt>
      <trkpt lat="45.891318" lon="-1.283871"><ele>-2.6</ele></trkpt>
      <trkpt lat="45.892494" lon="-1.285591"><ele>-3.2</ele></trkpt>
      <trkpt lat="45.893315" lon="-1.286534"><ele>-3.2</ele></trkpt>
      <trkpt lat="45.894852" lon="-1.288661"><ele>-2.8</ele></trkpt>
      <trkpt lat="45.896356" lon="-1.290460"><ele>-2.6</ele></trkpt>
      <trkpt lat="45.898236" lon="-1.291339"><ele>-2.0</ele></trkpt>
      <trkpt lat="45.898820" lon="-1.291784"><ele>-2.2</ele></trkpt>
      <trkpt lat="45.899337" lon="-1.292396"><ele>-2.2</ele></trkpt>
      <trkpt lat="45.900016" lon="-1.293636"><ele>-2.6</ele></trkpt>
      <trkpt lat="45.900443" lon="-1.294894"><ele>-2.4</ele></trkpt>
      <trkpt lat="45.900600" lon="-1.295557"><ele>-2.6</ele></trkpt>
      <trkpt lat="45.900718" lon="-1.296776"><ele>-2.4</ele></trkpt>
      <trkpt lat="45.901134" lon="-1.296972"><ele>2.2</ele></trkpt>
      <trkpt lat="45.901525" lon="-1.297506"><ele>-1.2</ele></trkpt>
      <trkpt lat="45.901736" lon="-1.297286"><ele>-1.2</ele></trkpt>
      <trkpt lat="45.901811" lon="-1.297348"><ele>-0.8</ele></trkpt>
      <trkpt lat="45.902237" lon="-1.298516"><ele>0.0</ele></trkpt>
      <trkpt lat="45.902634" lon="-1.300339"><ele>0.2</ele></trkpt>
      <trkpt lat="45.902870" lon="-1.300978"><ele>0.4</ele></trkpt>
      <trkpt lat="45.903043" lon="-1.301049"><ele>0.2</ele></trkpt>
      <trkpt lat="45.903234" lon="-1.300774"><ele>-0.2</ele></trkpt>
      <trkpt lat="45.904621" lon="-1.297905"><ele>0.8</ele></trkpt>
      <trkpt lat="45.904696" lon="-1.297798"><ele>0.6</ele></trkpt>
      <trkpt lat="45.904784" lon="-1.297824"><ele>0.6</ele></trkpt>
      <trkpt lat="45.905825" lon="-1.299768"><ele>3.2</ele></trkpt>
      <trkpt lat="45.905864" lon="-1.300065"><ele>3.0</ele></trkpt>
      <trkpt lat="45.906010" lon="-1.300289"><ele>3.2</ele></trkpt>
      <trkpt lat="45.906046" lon="-1.300878"><ele>3.0</ele></trkpt>
      <trkpt lat="45.906260" lon="-1.301407"><ele>3.4</ele></trkpt>
      <trkpt lat="45.906143" lon="-1.301541"><ele>3.2</ele></trkpt>
      <trkpt lat="45.906116" lon="-1.301757"><ele>0.6</ele></trkpt>
      <trkpt lat="45.906106" lon="-1.301642"><ele>1.0</ele></trkpt>
      <trkpt lat="45.906270" lon="-1.301532"><ele>0.8</ele></trkpt>
      <trkpt lat="45.906812" lon="-1.302839"><ele>4.0</ele></trkpt>
      <trkpt lat="45.907286" lon="-1.303407"><ele>4.8</ele></trkpt>
      <trkpt lat="45.907515" lon="-1.303930"><ele>5.6</ele></trkpt>
      <trkpt lat="45.907729" lon="-1.304031"><ele>5.8</ele></trkpt>
      <trkpt lat="45.908419" lon="-1.305655"><ele>5.8</ele></trkpt>
      <trkpt lat="45.908988" lon="-1.306198"><ele>6.2</ele></trkpt>
      <trkpt lat="45.910368" lon="-1.309242"><ele>6.0</ele></trkpt>
      <trkpt lat="45.914014" lon="-1.306101"><ele>3.0</ele></trkpt>
      <trkpt lat="45.914873" lon="-1.305660"><ele>2.8</ele></trkpt>
      <trkpt lat="45.915574" lon="-1.305162"><ele>4.2</ele></trkpt>
      <trkpt lat="45.915684" lon="-1.305184"><ele>4.6</ele></trkpt>
      <trkpt lat="45.916611" lon="-1.306542"><ele>4.4</ele></trkpt>
      <trkpt lat="45.916920" lon="-1.306555"><ele>4.6</ele></trkpt>
      <trkpt lat="45.916859" lon="-1.307033"><ele>4.6</ele></trkpt>
      <trkpt lat="45.917589" lon="-1.308904"><ele>2.2</ele></trkpt>
      <trkpt lat="45.917731" lon="-1.309016"><ele>2.2</ele></trkpt>
      <trkpt lat="45.918033" lon="-1.308889"><ele>2.0</ele></trkpt>
      <trkpt lat="45.918663" lon="-1.310082"><ele>1.8</ele></trkpt>
      <trkpt lat="45.918789" lon="-1.310078"><ele>1.6</ele></trkpt>
      <trkpt lat="45.919037" lon="-1.309814"><ele>1.8</ele></trkpt>
      <trkpt lat="45.919152" lon="-1.309844"><ele>2.0</ele></trkpt>
      <trkpt lat="45.920021" lon="-1.311810"><ele>1.2</ele></trkpt>
      <trkpt lat="45.920698" lon="-1.312971"><ele>0.2</ele></trkpt>
      <trkpt lat="45.920860" lon="-1.313494"><ele>0.0</ele></trkpt>
      <trkpt lat="45.920966" lon="-1.313525"><ele>-0.2</ele></trkpt>
      <trkpt lat="45.921287" lon="-1.313295"><ele>0.2</ele></trkpt>
      <trkpt lat="45.921745" lon="-1.313860"><ele>0.4</ele></trkpt>
      <trkpt lat="45.921879" lon="-1.314426"><ele>0.6</ele></trkpt>
      <trkpt lat="45.922088" lon="-1.314900"><ele>1.0</ele></trkpt>
      <trkpt lat="45.922487" lon="-1.315533"><ele>1.8</ele></trkpt>
      <trkpt lat="45.922337" lon="-1.315804"><ele>2.0</ele></trkpt>
      <trkpt lat="45.921744" lon="-1.316315"><ele>2.4</ele></trkpt>
      <trkpt lat="45.922869" lon="-1.319519"><ele>1.8</ele></trkpt>
      <trkpt lat="45.923402" lon="-1.320306"><ele>1.8</ele></trkpt>
      <trkpt lat="45.923722" lon="-1.321181"><ele>1.8</ele></trkpt>
      <trkpt lat="45.923672" lon="-1.321374"><ele>1.4</ele></trkpt>
      <trkpt lat="45.922906" lon="-1.322357"><ele>0.6</ele></trkpt>
      <trkpt lat="45.920932" lon="-1.323799"><ele>1.0</ele></trkpt>
      <trkpt lat="45.921659" lon="-1.324849"><ele>1.2</ele></trkpt>
      <trkpt lat="45.922154" lon="-1.325328"><ele>1.0</ele></trkpt>
      <trkpt lat="45.922622" lon="-1.325566"><ele>1.2</ele></trkpt>
      <trkpt lat="45.922904" lon="-1.326106"><ele>0.6</ele></trkpt>
      <trkpt lat="45.923355" lon="-1.326535"><ele>1.0</ele></trkpt>
      <trkpt lat="45.923845" lon="-1.327331"><ele>1.2</ele></trkpt>
      <trkpt lat="45.924303" lon="-1.328399"><ele>1.6</ele></trkpt>
      <trkpt lat="45.924782" lon="-1.329138"><ele>1.8</ele></trkpt>
      <trkpt lat="45.923920" lon="-1.330358"><ele>2.8</ele></trkpt>
      <trkpt lat="45.922947" lon="-1.331464"><ele>4.0</ele></trkpt>
      <trkpt lat="45.922892" lon="-1.331707"><ele>4.2</ele></trkpt>
      <trkpt lat="45.923777" lon="-1.333134"><ele>5.0</ele></trkpt>
      <trkpt lat="45.924893" lon="-1.334155"><ele>4.2</ele></trkpt>
      <trkpt lat="45.925317" lon="-1.334370"><ele>4.0</ele></trkpt>
      <trkpt lat="45.925896" lon="-1.334493"><ele>4.0</ele></trkpt>
      <trkpt lat="45.925988" lon="-1.334470"><ele>4.0</ele></trkpt>
      <trkpt lat="45.926239" lon="-1.334081"><ele>4.2</ele></trkpt>
      <trkpt lat="45.926363" lon="-1.334069"><ele>4.2</ele></trkpt>
      <trkpt lat="45.927737" lon="-1.336876"><ele>2.8</ele></trkpt>
      <trkpt lat="45.928555" lon="-1.338106"><ele>1.6</ele></trkpt>
      <trkpt lat="45.928563" lon="-1.338325"><ele>1.4</ele></trkpt>
      <trkpt lat="45.928176" lon="-1.338892"><ele>1.4</ele></trkpt>
      <trkpt lat="45.928187" lon="-1.338973"><ele>1.6</ele></trkpt>
      <trkpt lat="45.928841" lon="-1.339760"><ele>1.4</ele></trkpt>
      <trkpt lat="45.929330" lon="-1.339249"><ele>2.6</ele></trkpt>
      <trkpt lat="45.929927" lon="-1.340037"><ele>2.4</ele></trkpt>
      <trkpt lat="45.930056" lon="-1.340494"><ele>3.4</ele></trkpt>
      <trkpt lat="45.930647" lon="-1.341313"><ele>4.0</ele></trkpt>
      <trkpt lat="45.930954" lon="-1.341937"><ele>3.4</ele></trkpt>
      <trkpt lat="45.931739" lon="-1.342595"><ele>5.0</ele></trkpt>
      <trkpt lat="45.932548" lon="-1.344266"><ele>5.4</ele></trkpt>
      <trkpt lat="45.932740" lon="-1.345348"><ele>5.0</ele></trkpt>
      <trkpt lat="45.932732" lon="-1.346466"><ele>4.4</ele></trkpt>
      <trkpt lat="45.935586" lon="-1.350513"><ele>2.0</ele></trkpt>
      <trkpt lat="45.935935" lon="-1.351236"><ele>2.2</ele></trkpt>
      <trkpt lat="45.936667" lon="-1.352354"><ele>2.6</ele></trkpt>
      <trkpt lat="45.936953" lon="-1.352678"><ele>2.4</ele></trkpt>
      <trkpt lat="45.937161" lon="-1.352661"><ele>3.2</ele></trkpt>
      <trkpt lat="45.937786" lon="-1.353575"><ele>3.4</ele></trkpt>
      <trkpt lat="45.937837" lon="-1.353955"><ele>3.0</ele></trkpt>
      <trkpt lat="45.938359" lon="-1.354936"><ele>2.6</ele></trkpt>
      <trkpt lat="45.938989" lon="-1.355993"><ele>2.6</ele></trkpt>
      <trkpt lat="45.939819" lon="-1.357087"><ele>2.2</ele></trkpt>
      <trkpt lat="45.939764" lon="-1.357356"><ele>2.0</ele></trkpt>
      <trkpt lat="45.939026" lon="-1.358329"><ele>1.4</ele></trkpt>
      <trkpt lat="45.939087" lon="-1.358540"><ele>1.8</ele></trkpt>
      <trkpt lat="45.939764" lon="-1.359422"><ele>1.6</ele></trkpt>
      <trkpt lat="45.941257" lon="-1.361076"><ele>0.6</ele></trkpt>
      <trkpt lat="45.941914" lon="-1.361527"><ele>-0.2</ele></trkpt>
      <trkpt lat="45.942933" lon="-1.361948"><ele>0.2</ele></trkpt>
      <trkpt lat="45.942950" lon="-1.362135"><ele>0.0</ele></trkpt>
      <trkpt lat="45.942648" lon="-1.362579"><ele>-1.0</ele></trkpt>
      <trkpt lat="45.942613" lon="-1.362758"><ele>-1.2</ele></trkpt>
      <trkpt lat="45.943615" lon="-1.364007"><ele>-0.6</ele></trkpt>
      <trkpt lat="45.941911" lon="-1.366893"><ele>-0.4</ele></trkpt>
      <trkpt lat="45.942086" lon="-1.368075"><ele>0.0</ele></trkpt>
      <trkpt lat="45.941790" lon="-1.368384"><ele>0.4</ele></trkpt>
      <trkpt lat="45.941272" lon="-1.369343"><ele>1.6</ele></trkpt>
      <trkpt lat="45.941361" lon="-1.369524"><ele>2.2</ele></trkpt>
      <trkpt lat="45.941253" lon="-1.369909"><ele>2.4</ele></trkpt>
      <trkpt lat="45.941518" lon="-1.370216"><ele>2.0</ele></trkpt>
      <trkpt lat="45.941737" lon="-1.370815"><ele>1.8</ele></trkpt>
      <trkpt lat="45.941929" lon="-1.371026"><ele>2.0</ele></trkpt>
      <trkpt lat="45.941894" lon="-1.371110"><ele>2.2</ele></trkpt>
      <trkpt lat="45.941757" lon="-1.371034"><ele>4.4</ele></trkpt>
      <trkpt lat="45.941683" lon="-1.371113"><ele>4.4</ele></trkpt>
      <trkpt lat="45.941647" lon="-1.371442"><ele>1.4</ele></trkpt>
      <trkpt lat="45.941716" lon="-1.371742"><ele>-0.6</ele></trkpt>
      <trkpt lat="45.942494" lon="-1.373148"><ele>-1.6</ele></trkpt>
      <trkpt lat="45.944191" lon="-1.375202"><ele>-1.6</ele></trkpt>
      <trkpt lat="45.945759" lon="-1.376226"><ele>-2.2</ele></trkpt>
      <trkpt lat="45.946926" lon="-1.377243"><ele>-1.8</ele></trkpt>
      <trkpt lat="45.947940" lon="-1.377816"><ele>-2.0</ele></trkpt>
      <trkpt lat="45.948853" lon="-1.378628"><ele>-1.4</ele></trkpt>
      <trkpt lat="45.949260" lon="-1.379122"><ele>-1.6</ele></trkpt>
      <trkpt lat="45.950503" lon="-1.380108"><ele>-0.6</ele></trkpt>
      <trkpt lat="45.950650" lon="-1.380389"><ele>-0.4</ele></trkpt>
      <trkpt lat="45.950798" lon="-1.381034"><ele>0.0</ele></trkpt>
      <trkpt lat="45.951369" lon="-1.382153"><ele>0.0</ele></trkpt>
      <trkpt lat="45.951558" lon="-1.382702"><ele>0.4</ele></trkpt>
      <trkpt lat="45.951776" lon="-1.383521"><ele>0.4</ele></trkpt>
      <trkpt lat="45.951833" lon="-1.384572"><ele>1.6</ele></trkpt>
      <trkpt lat="45.952014" lon="-1.385069"><ele>1.6</ele></trkpt>
      <trkpt lat="45.952253" lon="-1.385441"><ele>1.6</ele></trkpt>
      <trkpt lat="45.954289" lon="-1.387354"><ele>0.6</ele></trkpt>
      <trkpt lat="45.955895" lon="-1.387983"><ele>-0.4</ele></trkpt>
      <trkpt lat="45.957346" lon="-1.388313"><ele>0.2</ele></trkpt>
      <trkpt lat="45.957872" lon="-1.388292"><ele>0.4</ele></trkpt>
      <trkpt lat="45.958281" lon="-1.388156"><ele>1.2</ele></trkpt>
      <trkpt lat="45.958854" lon="-1.387595"><ele>2.4</ele></trkpt>
      <trkpt lat="45.958954" lon="-1.387329"><ele>3.6</ele></trkpt>
      <trkpt lat="45.958874" lon="-1.386914"><ele>8.4</ele></trkpt>
      <trkpt lat="45.958915" lon="-1.386672"><ele>9.6</ele></trkpt>
      <trkpt lat="45.959422" lon="-1.385692"><ele>11.0</ele></trkpt>
      <trkpt lat="45.959465" lon="-1.384831"><ele>12.2</ele></trkpt>
      <trkpt lat="45.959826" lon="-1.385198"><ele>11.8</ele></trkpt>
      <trkpt lat="45.959918" lon="-1.385423"><ele>13.8</ele></trkpt>
      <trkpt lat="45.960165" lon="-1.385462"><ele>15.4</ele></trkpt>
      <trkpt lat="45.960306" lon="-1.385657"><ele>17.6</ele></trkpt>
      <trkpt lat="45.960618" lon="-1.385604"><ele>17.4</ele></trkpt>
      <trkpt lat="45.960592" lon="-1.385374"><ele>20.8</ele></trkpt>
      <trkpt lat="45.960846" lon="-1.384811"><ele>18.4</ele></trkpt>
      <trkpt lat="45.961131" lon="-1.384838"><ele>18.2</ele></trkpt>
      <trkpt lat="45.961464" lon="-1.384647"><ele>20.8</ele></trkpt>
      <trkpt lat="45.961580" lon="-1.384980"><ele>21.6</ele></trkpt>
      <trkpt lat="45.961812" lon="-1.385052"><ele>17.4</ele></trkpt>
      <trkpt lat="45.962053" lon="-1.384851"><ele>16.0</ele></trkpt>
      <trkpt lat="45.962229" lon="-1.384825"><ele>17.6</ele></trkpt>
      <trkpt lat="45.962211" lon="-1.385303"><ele>16.6</ele></trkpt>
      <trkpt lat="45.962395" lon="-1.385589"><ele>12.4</ele></trkpt>
      <trkpt lat="45.962529" lon="-1.385545"><ele>9.2</ele></trkpt>
      <trkpt lat="45.962697" lon="-1.385685"><ele>8.6</ele></trkpt>
      <trkpt lat="45.963014" lon="-1.385586"><ele>7.4</ele></trkpt>
      <trkpt lat="45.963163" lon="-1.385685"><ele>7.6</ele></trkpt>
      <trkpt lat="45.963462" lon="-1.385576"><ele>8.8</ele></trkpt>
      <trkpt lat="45.963571" lon="-1.385719"><ele>8.0</ele></trkpt>
      <trkpt lat="45.963722" lon="-1.385607"><ele>10.0</ele></trkpt>
      <trkpt lat="45.964105" lon="-1.386013"><ele>6.4</ele></trkpt>
      <trkpt lat="45.964195" lon="-1.385758"><ele>6.8</ele></trkpt>
      <trkpt lat="45.964120" lon="-1.385050"><ele>4.6</ele></trkpt>
      <trkpt lat="45.964278" lon="-1.384431"><ele>3.6</ele></trkpt>
      <trkpt lat="45.964035" lon="-1.383898"><ele>5.4</ele></trkpt>
      <trkpt lat="45.963514" lon="-1.383700"><ele>10.4</ele></trkpt>
      <trkpt lat="45.963790" lon="-1.383242"><ele>14.0</ele></trkpt>
      <trkpt lat="45.963558" lon="-1.382756"><ele>19.6</ele></trkpt>
      <trkpt lat="45.963481" lon="-1.381985"><ele>15.0</ele></trkpt>
      <trkpt lat="45.963342" lon="-1.381439"><ele>18.2</ele></trkpt>
      <trkpt lat="45.963401" lon="-1.381240"><ele>17.0</ele></trkpt>
      <trkpt lat="45.963623" lon="-1.381107"><ele>14.0</ele></trkpt>
      <trkpt lat="45.964080" lon="-1.381412"><ele>15.6</ele></trkpt>
      <trkpt lat="45.964441" lon="-1.380956"><ele>13.0</ele></trkpt>
      <trkpt lat="45.964879" lon="-1.380848"><ele>12.8</ele></trkpt>
      <trkpt lat="45.965402" lon="-1.380015"><ele>24.6</ele></trkpt>
      <trkpt lat="45.965418" lon="-1.379876"><ele>26.0</ele></trkpt>
      <trkpt lat="45.965897" lon="-1.379805"><ele>24.8</ele></trkpt>
      <trkpt lat="45.966118" lon="-1.379397"><ele>27.6</ele></trkpt>
      <trkpt lat="45.966170" lon="-1.379095"><ele>26.2</ele></trkpt>
      <trkpt lat="45.966679" lon="-1.378835"><ele>20.8</ele></trkpt>
      <trkpt lat="45.966680" lon="-1.378611"><ele>18.0</ele></trkpt>
      <trkpt lat="45.966879" lon="-1.378446"><ele>13.6</ele></trkpt>
      <trkpt lat="45.966917" lon="-1.378241"><ele>11.6</ele></trkpt>
      <trkpt lat="45.967180" lon="-1.378390"><ele>8.4</ele></trkpt>
      <trkpt lat="45.967665" lon="-1.378157"><ele>6.2</ele></trkpt>
      <trkpt lat="45.967934" lon="-1.378257"><ele>6.2</ele></trkpt>
      <trkpt lat="45.968183" lon="-1.378497"><ele>6.8</ele></trkpt>
      <trkpt lat="45.968549" lon="-1.377993"><ele>6.6</ele></trkpt>
      <trkpt lat="45.969467" lon="-1.378654"><ele>7.6</ele></trkpt>
      <trkpt lat="45.969956" lon="-1.378149"><ele>7.6</ele></trkpt>
      <trkpt lat="45.970296" lon="-1.378330"><ele>7.2</ele></trkpt>
      <trkpt lat="45.970463" lon="-1.378251"><ele>7.0</ele></trkpt>
      <trkpt lat="45.971259" lon="-1.376746"><ele>6.4</ele></trkpt>
      <trkpt lat="45.971717" lon="-1.376724"><ele>2.6</ele></trkpt>
    </trkseg>
  </trk>
</gpx>
