<?xml version="1.0" encoding="UTF-8"?>
<gpx version="1.1" creator="gpx-processor" xmlns="http://www.topografix.com/GPX/1/1">
  <metadata><name>La Noctutrail du Lambon</name></metadata>
  <trk>
    <name>La Noctutrail du Lambon</name>
    <trkseg>
      <trkpt lat="46.301402" lon="-0.205379"><ele>121.8</ele></trkpt>
      <trkpt lat="46.301151" lon="-0.206386"><ele>122.8</ele></trkpt>
      <trkpt lat="46.300764" lon="-0.206793"><ele>121.2</ele></trkpt>
      <trkpt lat="46.300519" lon="-0.206921"><ele>121.8</ele></trkpt>
      <trkpt lat="46.300388" lon="-0.207274"><ele>124.0</ele></trkpt>
      <trkpt lat="46.300222" lon="-0.207446"><ele>124.6</ele></trkpt>
      <trkpt lat="46.299004" lon="-0.207364"><ele>119.4</ele></trkpt>
      <trkpt lat="46.298393" lon="-0.208425"><ele>125.6</ele></trkpt>
      <trkpt lat="46.297998" lon="-0.208590"><ele>132.0</ele></trkpt>
      <trkpt lat="46.297076" lon="-0.208494"><ele>144.8</ele></trkpt>
      <trkpt lat="46.297196" lon="-0.207732"><ele>148.6</ele></trkpt>
      <trkpt lat="46.296861" lon="-0.206278"><ele>150.2</ele></trkpt>
      <trkpt lat="46.296349" lon="-0.205563"><ele>149.2</ele></trkpt>
      <trkpt lat="46.295872" lon="-0.205509"><ele>150.6</ele></trkpt>
      <trkpt lat="46.295154" lon="-0.204551"><ele>143.2</ele></trkpt>
      <trkpt lat="46.295166" lon="-0.204376"><ele>141.4</ele></trkpt>
      <trkpt lat="46.295527" lon="-0.203753"><ele>137.6</ele></trkpt>
      <trkpt lat="46.295568" lon="-0.203401"><ele>139.0</ele></trkpt>
      <trkpt lat="46.295182" lon="-0.202115"><ele>138.4</ele></trkpt>
      <trkpt lat="46.294814" lon="-0.201496"><ele>135.8</ele></trkpt>
      <trkpt lat="46.294498" lon="-0.201207"><ele>131.4</ele></trkpt>
      <trkpt lat="46.294473" lon="-0.200582"><ele>132.6</ele></trkpt>
      <trkpt lat="46.294560" lon="-0.200278"><ele>135.8</ele></trkpt>
      <trkpt lat="46.294802" lon="-0.200358"><ele>130.6</ele></trkpt>
      <trkpt lat="46.294889" lon="-0.200291"><ele>126.6</ele></trkpt>
      <trkpt lat="46.295113" lon="-0.199307"><ele>121.8</ele></trkpt>
      <trkpt lat="46.295435" lon="-0.197160"><ele>126.4</ele></trkpt>
      <trkpt lat="46.295715" lon="-0.196673"><ele>124.2</ele></trkpt>
      <trkpt lat="46.296305" lon="-0.196451"><ele>119.6</ele></trkpt>
      <trkpt lat="46.296918" lon="-0.196001"><ele>119.8</ele></trkpt>
      <trkpt lat="46.297821" lon="-0.196616"><ele>121.2</ele></trkpt>
      <trkpt lat="46.298000" lon="-0.196398"><ele>122.6</ele></trkpt>
      <trkpt lat="46.298097" lon="-0.195829"><ele>122.0</ele></trkpt>
      <trkpt lat="46.297413" lon="-0.195473"><ele>120.6</ele></trkpt>
      <trkpt lat="46.296849" lon="-0.195474"><ele>120.4</ele></trkpt>
      <trkpt lat="46.296537" lon="-0.195649"><ele>121.0</ele></trkpt>
      <trkpt lat="46.295425" lon="-0.196760"><ele>129.6</ele></trkpt>
      <trkpt lat="46.295029" lon="-0.196742"><ele>132.4</ele></trkpt>
      <trkpt lat="46.294800" lon="-0.196564"><ele>134.8</ele></trkpt>
      <trkpt lat="46.294520" lon="-0.196156"><ele>139.8</ele></trkpt>
      <trkpt lat="46.294185" lon="-0.195913"><ele>144.2</ele></trkpt>
      <trkpt lat="46.293611" lon="-0.194671"><ele>155.4</ele></trkpt>
      <trkpt lat="46.293137" lon="-0.193925"><ele>155.0</ele></trkpt>
      <trkpt lat="46.292633" lon="-0.194086"><ele>154.6</ele></trkpt>
      <trkpt lat="46.291939" lon="-0.194027"><ele>153.8</ele></trkpt>
      <trkpt lat="46.290131" lon="-0.192724"><ele>154.6</ele></trkpt>
      <trkpt lat="46.289536" lon="-0.192549"><ele>155.4</ele></trkpt>
      <trkpt lat="46.289158" lon="-0.192597"><ele>154.8</ele></trkpt>
      <trkpt lat="46.288804" lon="-0.192051"><ele>153.2</ele></trkpt>
      <trkpt lat="46.288348" lon="-0.191711"><ele>152.0</ele></trkpt>
      <trkpt lat="46.288451" lon="-0.191441"><ele>151.2</ele></trkpt>
      <trkpt lat="46.289190" lon="-0.190714"><ele>144.8</ele></trkpt>
      <trkpt lat="46.289634" lon="-0.189751"><ele>136.0</ele></trkpt>
      <trkpt lat="46.290137" lon="-0.189528"><ele>131.0</ele></trkpt>
      <trkpt lat="46.290228" lon="-0.189350"><ele>129.8</ele></trkpt>
      <trkpt lat="46.290132" lon="-0.188611"><ele>134.2</ele></trkpt>
      <trkpt lat="46.289497" lon="-0.188733"><ele>140.0</ele></trkpt>
      <trkpt lat="46.289474" lon="-0.188366"><ele>142.2</ele></trkpt>
      <trkpt lat="46.288904" lon="-0.186119"><ele>154.2</ele></trkpt>
      <trkpt lat="46.289119" lon="-0.185882"><ele>153.4</ele></trkpt>
      <trkpt lat="46.289084" lon="-0.185332"><ele>153.2</ele></trkpt>
      <trkpt lat="46.289966" lon="-0.185095"><ele>140.8</ele></trkpt>
      <trkpt lat="46.289980" lon="-0.184528"><ele>139.4</ele></trkpt>
      <trkpt lat="46.289668" lon="-0.182544"><ele>128.8</ele></trkpt>
      <trkpt lat="46.290256" lon="-0.182271"><ele>127.2</ele></trkpt>
      <trkpt lat="46.290369" lon="-0.181845"><ele>131.2</ele></trkpt>
      <trkpt lat="46.290533" lon="-0.181555"><ele>134.4</ele></trkpt>
      <trkpt lat="46.290988" lon="-0.181372"><ele>139.4</ele></trkpt>
      <trkpt lat="46.291737" lon="-0.180763"><ele>144.6</ele></trkpt>
      <trkpt lat="46.292347" lon="-0.180101"><ele>148.2</ele></trkpt>
      <trkpt lat="46.293370" lon="-0.179547"><ele>155.6</ele></trkpt>
      <trkpt lat="46.293533" lon="-0.179610"><ele>156.6</ele></trkpt>
      <trkpt lat="46.293620" lon="-0.180196"><ele>157.4</ele></trkpt>
      <trkpt lat="46.293738" lon="-0.180359"><ele>157.4</ele></trkpt>
      <trkpt lat="46.294665" lon="-0.180817"><ele>160.2</ele></trkpt>
      <trkpt lat="46.294876" lon="-0.180809"><ele>159.4</ele></trkpt>
      <trkpt lat="46.294972" lon="-0.180526"><ele>158.8</ele></trkpt>
      <trkpt lat="46.295011" lon="-0.179597"><ele>159.4</ele></trkpt>
      <trkpt lat="46.294964" lon="-0.177301"><ele>161.2</ele></trkpt>
      <trkpt lat="46.295641" lon="-0.177412"><ele>154.6</ele></trkpt>
      <trkpt lat="46.297190" lon="-0.178291"><ele>141.6</ele></trkpt>
      <trkpt lat="46.297601" lon="-0.178233"><ele>143.4</ele></trkpt>
      <trkpt lat="46.297844" lon="-0.178635"><ele>144.6</ele></trkpt>
      <trkpt lat="46.298196" lon="-0.179785"><ele>140.0</ele></trkpt>
      <trkpt lat="46.298555" lon="-0.180075"><ele>130.2</ele></trkpt>
      <trkpt lat="46.299072" lon="-0.180909"><ele>123.6</ele></trkpt>
      <trkpt lat="46.300010" lon="-0.180597"><ele>134.6</ele></trkpt>
      <trkpt lat="46.301028" lon="-0.179687"><ele>143.8</ele></trkpt>
      <trkpt lat="46.301379" lon="-0.179806"><ele>146.8</ele></trkpt>
      <trkpt lat="46.302122" lon="-0.180810"><ele>158.8</ele></trkpt>
      <trkpt lat="46.302964" lon="-0.182754"><ele>149.4</ele></trkpt>
      <trkpt lat="46.303613" lon="-0.183418"><ele>146.0</ele></trkpt>
      <trkpt lat="46.304240" lon="-0.184315"><ele>154.8</ele></trkpt>
      <trkpt lat="46.304414" lon="-0.184433"><ele>157.0</ele></trkpt>
      <trkpt lat="46.304855" lon="-0.183946"><ele>158.8</ele></trkpt>
      <trkpt lat="46.305167" lon="-0.183294"><ele>159.8</ele></trkpt>
      <trkpt lat="46.305548" lon="-0.182310"><ele>161.8</ele></trkpt>
      <trkpt lat="46.306417" lon="-0.179478"><ele>164.4</ele></trkpt>
      <trkpt lat="46.307323" lon="-0.177594"><ele>164.8</ele></trkpt>
      <trkpt lat="46.308514" lon="-0.176591"><ele>164.4</ele></trkpt>
      <trkpt lat="46.308847" lon="-0.176805"><ele>164.6</ele></trkpt>
      <trkpt lat="46.309475" lon="-0.176215"><ele>165.6</ele></trkpt>
      <trkpt lat="46.309722" lon="-0.175859"><ele>166.2</ele></trkpt>
      <trkpt lat="46.310254" lon="-0.175518"><ele>166.8</ele></trkpt>
      <trkpt lat="46.311497" lon="-0.174042"><ele>168.4</ele></trkpt>
      <trkpt lat="46.312720" lon="-0.173657"><ele>172.8</ele></trkpt>
      <trkpt lat="46.313517" lon="-0.174561"><ele>171.4</ele></trkpt>
      <trkpt lat="46.314631" lon="-0.175024"><ele>166.4</ele></trkpt>
      <trkpt lat="46.315351" lon="-0.174827"><ele>166.6</ele></trkpt>
      <trkpt lat="46.316237" lon="-0.174771"><ele>167.8</ele></trkpt>
      <trkpt lat="46.317649" lon="-0.174333"><ele>171.0</ele></trkpt>
      <trkpt lat="46.317816" lon="-0.174692"><ele>170.6</ele></trkpt>
      <trkpt lat="46.317884" lon="-0.175282"><ele>170.8</ele></trkpt>
      <trkpt lat="46.317639" lon="-0.176688"><ele>171.2</ele></trkpt>
      <trkpt lat="46.317924" lon="-0.177521"><ele>169.4</ele></trkpt>
      <trkpt lat="46.318481" lon="-0.178696"><ele>167.6</ele></trkpt>
      <trkpt lat="46.318706" lon="-0.179506"><ele>166.4</ele></trkpt>
      <trkpt lat="46.318179" lon="-0.180827"><ele>163.6</ele></trkpt>
      <trkpt lat="46.318213" lon="-0.181631"><ele>162.4</ele></trkpt>
      <trkpt lat="46.318147" lon="-0.182289"><ele>161.4</ele></trkpt>
      <trkpt lat="46.318285" lon="-0.182667"><ele>160.6</ele></trkpt>
      <trkpt lat="46.318842" lon="-0.183402"><ele>159.0</ele></trkpt>
      <trkpt lat="46.319071" lon="-0.183182"><ele>158.6</ele></trkpt>
      <trkpt lat="46.319373" lon="-0.182453"><ele>157.6</ele></trkpt>
      <trkpt lat="46.320441" lon="-0.181767"><ele>159.8</ele></trkpt>
      <trkpt lat="46.320644" lon="-0.181397"><ele>160.4</ele></trkpt>
      <trkpt lat="46.321076" lon="-0.181428"><ele>160.6</ele></trkpt>
      <trkpt lat="46.321521" lon="-0.181967"><ele>158.2</ele></trkpt>
      <trkpt lat="46.322036" lon="-0.182232"><ele>156.2</ele></trkpt>
      <trkpt lat="46.322258" lon="-0.181981"><ele>154.6</ele></trkpt>
      <trkpt lat="46.322614" lon="-0.181147"><ele>149.4</ele></trkpt>
      <trkpt lat="46.324427" lon="-0.179692"><ele>160.0</ele></trkpt>
      <trkpt lat="46.324828" lon="-0.179432"><ele>165.4</ele></trkpt>
      <trkpt lat="46.325511" lon="-0.179328"><ele>171.4</ele></trkpt>
      <trkpt lat="46.326154" lon="-0.179034"><ele>175.6</ele></trkpt>
      <trkpt lat="46.326195" lon="-0.178869"><ele>175.6</ele></trkpt>
      <trkpt lat="46.325982" lon="-0.177068"><ele>178.4</ele></trkpt>
      <trkpt lat="46.326068" lon="-0.175090"><ele>178.8</ele></trkpt>
      <trkpt lat="46.326263" lon="-0.174881"><ele>177.6</ele></trkpt>
      <trkpt lat="46.326871" lon="-0.174543"><ele>169.2</ele></trkpt>
      <trkpt lat="46.327280" lon="-0.174467"><ele>163.0</ele></trkpt>
      <trkpt lat="46.328200" lon="-0.174571"><ele>151.8</ele></trkpt>
      <trkpt lat="46.328598" lon="-0.174417"><ele>146.4</ele></trkpt>
      <trkpt lat="46.328634" lon="-0.174235"><ele>144.8</ele></trkpt>
      <trkpt lat="46.328484" lon="-0.173348"><ele>144.6</ele></trkpt>
      <trkpt lat="46.329271" lon="-0.172636"><ele>138.8</ele></trkpt>
      <trkpt lat="46.329849" lon="-0.171814"><ele>140.4</ele></trkpt>
      <trkpt lat="46.330382" lon="-0.170525"><ele>142.8</ele></trkpt>
      <trkpt lat="46.330862" lon="-0.168138"><ele>149.0</ele></trkpt>
      <trkpt lat="46.331685" lon="-0.168307"><ele>154.4</ele></trkpt>
      <trkpt lat="46.332215" lon="-0.168782"><ele>160.2</ele></trkpt>
      <trkpt lat="46.332933" lon="-0.169173"><ele>165.2</ele></trkpt>
      <trkpt lat="46.333306" lon="-0.168486"><ele>168.0</ele></trkpt>
      <trkpt lat="46.333508" lon="-0.168305"><ele>169.0</ele></trkpt>
      <trkpt lat="46.334276" lon="-0.167995"><ele>172.8</ele></trkpt>
      <trkpt lat="46.334755" lon="-0.167426"><ele>174.6</ele></trkpt>
      <trkpt lat="46.335334" lon="-0.167314"><ele>175.6</ele></trkpt>
      <trkpt lat="46.335881" lon="-0.167072"><ele>176.4</ele></trkpt>
      <trkpt lat="46.336462" lon="-0.166310"><ele>178.0</ele></trkpt>
      <trkpt lat="46.337404" lon="-0.165344"><ele>179.4</ele></trkpt>
      <trkpt lat="46.338281" lon="-0.165776"><ele>178.4</ele></trkpt>
      <trkpt lat="46.338746" lon="-0.166224"><ele>178.4</ele></trkpt>
      <trkpt lat="46.339007" lon="-0.166272"><ele>178.0</ele></trkpt>
      <trkpt lat="46.339230" lon="-0.166097"><ele>178.2</ele></trkpt>
      <trkpt lat="46.339675" lon="-0.165486"><ele>178.8</ele></trkpt>
      <trkpt lat="46.340211" lon="-0.164376"><ele>180.6</ele></trkpt>
      <trkpt lat="46.341962" lon="-0.164275"><ele>180.2</ele></trkpt>
      <trkpt lat="46.342102" lon="-0.163918"><ele>180.2</ele></trkpt>
      <trkpt lat="46.342036" lon="-0.163406"><ele>180.0</ele></trkpt>
      <trkpt lat="46.342104" lon="-0.163240"><ele>180.2</ele></trkpt>
      <trkpt lat="46.344371" lon="-0.163103"><ele>178.4</ele></trkpt>
      <trkpt lat="46.345732" lon="-0.163181"><ele>175.8</ele></trkpt>
      <trkpt lat="46.345687" lon="-0.166732"><ele>171.8</ele></trkpt>
      <trkpt lat="46.345632" lon="-0.166822"><ele>171.8</ele></trkpt>
      <trkpt lat="46.345291" lon="-0.166860"><ele>172.2</ele></trkpt>
      <trkpt lat="46.345269" lon="-0.167654"><ele>172.0</ele></trkpt>
      <trkpt lat="46.345449" lon="-0.169410"><ele>170.8</ele></trkpt>
      <trkpt lat="46.345836" lon="-0.171110"><ele>170.8</ele></trkpt>
      <trkpt lat="46.345997" lon="-0.172866"><ele>173.0</ele></trkpt>
      <trkpt lat="46.345757" lon="-0.173289"><ele>174.4</ele></trkpt>
      <trkpt lat="46.345122" lon="-0.173728"><ele>177.4</ele></trkpt>
      <trkpt lat="46.344821" lon="-0.174244"><ele>178.6</ele></trkpt>
      <trkpt lat="46.344406" lon="-0.174405"><ele>179.2</ele></trkpt>
      <trkpt lat="46.343924" lon="-0.174775"><ele>179.4</ele></trkpt>
      <trkpt lat="46.343619" lon="-0.175889"><ele>178.8</ele></trkpt>
      <trkpt lat="46.343329" lon="-0.176228"><ele>178.2</ele></trkpt>
      <trkpt lat="46.343254" lon="-0.177157"><ele>177.0</ele></trkpt>
      <trkpt lat="46.343425" lon="-0.177554"><ele>176.4</ele></trkpt>
      <trkpt lat="46.343128" lon="-0.178782"><ele>173.8</ele></trkpt>
      <trkpt lat="46.343124" lon="-0.179294"><ele>172.2</ele></trkpt>
      <trkpt lat="46.343007" lon="-0.179531"><ele>171.2</ele></trkpt>
      <trkpt lat="46.343122" lon="-0.179641"><ele>170.4</ele></trkpt>
      <trkpt lat="46.343145" lon="-0.179807"><ele>170.4</ele></trkpt>
      <trkpt lat="46.342826" lon="-0.181726"><ele>164.4</ele></trkpt>
      <trkpt lat="46.343025" lon="-0.182080"><ele>163.2</ele></trkpt>
      <trkpt lat="46.343097" lon="-0.182612"><ele>162.4</ele></trkpt>
      <trkpt lat="46.342547" lon="-0.182967"><ele>163.0</ele></trkpt>
      <trkpt lat="46.342572" lon="-0.184843"><ele>160.6</ele></trkpt>
      <trkpt lat="46.342326" lon="-0.186080"><ele>157.8</ele></trkpt>
      <trkpt lat="46.342385" lon="-0.187911"><ele>155.4</ele></trkpt>
      <trkpt lat="46.342185" lon="-0.189528"><ele>154.8</ele></trkpt>
      <trkpt lat="46.342005" lon="-0.190171"><ele>155.0</ele></trkpt>
      <trkpt lat="46.342107" lon="-0.190406"><ele>154.8</ele></trkpt>
      <trkpt lat="46.342127" lon="-0.190741"><ele>154.6</ele></trkpt>
      <trkpt lat="46.342043" lon="-0.190987"><ele>154.4</ele></trkpt>
      <trkpt lat="46.342065" lon="-0.191942"><ele>153.6</ele></trkpt>
      <trkpt lat="46.341793" lon="-0.192404"><ele>152.4</ele></trkpt>
      <trkpt lat="46.341607" lon="-0.193495"><ele>149.4</ele></trkpt>
      <trkpt lat="46.341637" lon="-0.193609"><ele>148.8</ele></trkpt>
      <trkpt lat="46.341845" lon="-0.193723"><ele>146.6</ele></trkpt>
      <trkpt lat="46.341851" lon="-0.194036"><ele>145.0</ele></trkpt>
      <trkpt lat="46.343478" lon="-0.194562"><ele>132.4</ele></trkpt>
      <trkpt lat="46.343668" lon="-0.194758"><ele>129.8</ele></trkpt>
      <trkpt lat="46.343690" lon="-0.195094"><ele>128.0</ele></trkpt>
      <trkpt lat="46.343568" lon="-0.195402"><ele>125.6</ele></trkpt>
      <trkpt lat="46.343345" lon="-0.195489"><ele>127.6</ele></trkpt>
      <trkpt lat="46.343046" lon="-0.195391"><ele>132.4</ele></trkpt>
      <trkpt lat="46.343316" lon="-0.195523"><ele>131.4</ele></trkpt>
      <trkpt lat="46.343497" lon="-0.195456"><ele>128.0</ele></trkpt>
      <trkpt lat="46.343515" lon="-0.195562"><ele>125.8</ele></trkpt>
      <trkpt lat="46.343276" lon="-0.196951"><ele>122.2</ele></trkpt>
      <trkpt lat="46.343294" lon="-0.197628"><ele>120.4</ele></trkpt>
      <trkpt lat="46.342883" lon="-0.198272"><ele>118.4</ele></trkpt>
      <trkpt lat="46.342651" lon="-0.198463"><ele>118.0</ele></trkpt>
      <trkpt lat="46.342205" lon="-0.198474"><ele>117.4</ele></trkpt>
      <trkpt lat="46.341672" lon="-0.198079"><ele>118.2</ele></trkpt>
      <trkpt lat="46.341220" lon="-0.198215"><ele>119.0</ele></trkpt>
      <trkpt lat="46.341070" lon="-0.198110"><ele>119.2</ele></trkpt>
      <trkpt lat="46.340804" lon="-0.198118"><ele>119.2</ele></trkpt>
      <trkpt lat="46.340539" lon="-0.198315"><ele>119.2</ele></trkpt>
      <trkpt lat="46.340148" lon="-0.198327"><ele>120.2</ele></trkpt>
      <trkpt lat="46.339509" lon="-0.198073"><ele>120.8</ele></trkpt>
      <trkpt lat="46.339161" lon="-0.198040"><ele>121.0</ele></trkpt>
      <trkpt lat="46.338320" lon="-0.197397"><ele>124.6</ele></trkpt>
      <trkpt lat="46.338194" lon="-0.197256"><ele>124.4</ele></trkpt>
      <trkpt lat="46.338084" lon="-0.196755"><ele>124.6</ele></trkpt>
      <trkpt lat="46.337614" lon="-0.195854"><ele>125.6</ele></trkpt>
      <trkpt lat="46.336655" lon="-0.194423"><ele>126.2</ele></trkpt>
      <trkpt lat="46.335422" lon="-0.192191"><ele>130.0</ele></trkpt>
      <trkpt lat="46.334915" lon="-0.191571"><ele>129.6</ele></trkpt>
      <trkpt lat="46.334694" lon="-0.191132"><ele>130.6</ele></trkpt>
      <trkpt lat="46.334339" lon="-0.190849"><ele>134.0</ele></trkpt>
      <trkpt lat="46.333778" lon="-0.190183"><ele>135.6</ele></trkpt>
      <trkpt lat="46.333713" lon="-0.190243"><ele>134.4</ele></trkpt>
      <trkpt lat="46.333645" lon="-0.190726"><ele>131.0</ele></trkpt>
      <trkpt lat="46.333103" lon="-0.191535"><ele>129.0</ele></trkpt>
      <trkpt lat="46.332847" lon="-0.192141"><ele>130.8</ele></trkpt>
      <trkpt lat="46.332024" lon="-0.193296"><ele>142.6</ele></trkpt>
      <trkpt lat="46.331987" lon="-0.193570"><ele>144.4</ele></trkpt>
      <trkpt lat="46.332138" lon="-0.194376"><ele>151.4</ele></trkpt>
      <trkpt lat="46.332138" lon="-0.195319"><ele>156.4</ele></trkpt>
      <trkpt lat="46.332239" lon="-0.195911"><ele>158.0</ele></trkpt>
      <trkpt lat="46.332190" lon="-0.196115"><ele>157.8</ele></trkpt>
      <trkpt lat="46.331625" lon="-0.196838"><ele>152.2</ele></trkpt>
      <trkpt lat="46.331367" lon="-0.197031"><ele>150.6</ele></trkpt>
      <trkpt lat="46.330111" lon="-0.196914"><ele>152.4</ele></trkpt>
      <trkpt lat="46.329122" lon="-0.196359"><ele>153.4</ele></trkpt>
      <trkpt lat="46.328447" lon="-0.195246"><ele>153.8</ele></trkpt>
      <trkpt lat="46.327926" lon="-0.194875"><ele>153.4</ele></trkpt>
      <trkpt lat="46.327379" lon="-0.194317"><ele>153.8</ele></trkpt>
      <trkpt lat="46.326654" lon="-0.193297"><ele>158.8</ele></trkpt>
      <trkpt lat="46.326036" lon="-0.193032"><ele>161.0</ele></trkpt>
      <trkpt lat="46.324975" lon="-0.192969"><ele>161.8</ele></trkpt>
      <trkpt lat="46.324214" lon="-0.192627"><ele>163.0</ele></trkpt>
      <trkpt lat="46.324157" lon="-0.192462"><ele>163.2</ele></trkpt>
      <trkpt lat="46.324196" lon="-0.191599"><ele>162.6</ele></trkpt>
      <trkpt lat="46.324001" lon="-0.190958"><ele>161.6</ele></trkpt>
      <trkpt lat="46.323586" lon="-0.191141"><ele>162.8</ele></trkpt>
      <trkpt lat="46.323197" lon="-0.190969"><ele>163.8</ele></trkpt>
      <trkpt lat="46.321970" lon="-0.190710"><ele>162.6</ele></trkpt>
      <trkpt lat="46.320628" lon="-0.190099"><ele>163.2</ele></trkpt>
      <trkpt lat="46.319961" lon="-0.189692"><ele>164.4</ele></trkpt>
      <trkpt lat="46.318595" lon="-0.187649"><ele>158.8</ele></trkpt>
      <trkpt lat="46.318265" lon="-0.186797"><ele>158.4</ele></trkpt>
      <trkpt lat="46.318094" lon="-0.186763"><ele>158.8</ele></trkpt>
      <trkpt lat="46.317425" lon="-0.187025"><ele>160.2</ele></trkpt>
      <trkpt lat="46.316419" lon="-0.186597"><ele>165.0</ele></trkpt>
      <trkpt lat="46.316129" lon="-0.186247"><ele>164.6</ele></trkpt>
      <trkpt lat="46.315912" lon="-0.185503"><ele>162.2</ele></trkpt>
      <trkpt lat="46.315296" lon="-0.184820"><ele>157.2</ele></trkpt>
      <trkpt lat="46.314840" lon="-0.185156"><ele>156.2</ele></trkpt>
      <trkpt lat="46.314464" lon="-0.185736"><ele>155.6</ele></trkpt>
      <trkpt lat="46.313730" lon="-0.186101"><ele>153.6</ele></trkpt>
      <trkpt lat="46.313280" lon="-0.186496"><ele>152.0</ele></trkpt>
      <trkpt lat="46.312353" lon="-0.187625"><ele>153.8</ele></trkpt>
      <trkpt lat="46.309822" lon="-0.188619"><ele>152.8</ele></trkpt>
      <trkpt lat="46.309123" lon="-0.189052"><ele>154.0</ele></trkpt>
      <trkpt lat="46.308714" lon="-0.189451"><ele>155.2</ele></trkpt>
      <trkpt lat="46.306908" lon="-0.189962"><ele>154.8</ele></trkpt>
      <trkpt lat="46.305356" lon="-0.190614"><ele>155.8</ele></trkpt>
      <trkpt lat="46.304550" lon="-0.191356"><ele>156.2</ele></trkpt>
      <trkpt lat="46.304090" lon="-0.191956"><ele>156.4</ele></trkpt>
      <trkpt lat="46.303973" lon="-0.191897"><ele>156.2</ele></trkpt>
      <trkpt lat="46.303516" lon="-0.191195"><ele>151.8</ele></trkpt>
      <trkpt lat="46.303110" lon="-0.190391"><ele>144.8</ele></trkpt>
      <trkpt lat="46.302772" lon="-0.190081"><ele>139.8</ele></trkpt>
      <trkpt lat="46.302364" lon="-0.189982"><ele>133.0</ele></trkpt>
      <trkpt lat="46.302031" lon="-0.190134"><ele>128.2</ele></trkpt>
      <trkpt lat="46.301828" lon="-0.190029"><ele>127.0</ele></trkpt>
      <trkpt lat="46.301223" lon="-0.190292"><ele>133.6</ele></trkpt>
      <trkpt lat="46.300771" lon="-0.190052"><ele>140.0</ele></trkpt>
      <trkpt lat="46.299999" lon="-0.190203"><ele>138.2</ele></trkpt>
      <trkpt lat="46.299741" lon="-0.190451"><ele>136.0</ele></trkpt>
      <trkpt lat="46.299534" lon="-0.191651"><ele>134.4</ele></trkpt>
      <trkpt lat="46.299599" lon="-0.191928"><ele>134.4</ele></trkpt>
      <trkpt lat="46.299811" lon="-0.192237"><ele>134.8</ele></trkpt>
      <trkpt lat="46.299837" lon="-0.192465"><ele>135.0</ele></trkpt>
      <trkpt lat="46.299486" lon="-0.194206"><ele>128.2</ele></trkpt>
      <trkpt lat="46.299009" lon="-0.194916"><ele>124.6</ele></trkpt>
      <trkpt lat="46.298201" lon="-0.195693"><ele>118.0</ele></trkpt>
      <trkpt lat="46.297958" lon="-0.196409"><ele>117.4</ele></trkpt>
      <trkpt lat="46.297028" lon="-0.197858"><ele>118.0</ele></trkpt>
      <trkpt lat="46.296667" lon="-0.199166"><ele>125.8</ele></trkpt>
      <trkpt lat="46.296733" lon="-0.199549"><ele>128.0</ele></trkpt>
      <trkpt lat="46.298124" lon="-0.199387"><ele>139.2</ele></trkpt>
      <trkpt lat="46.298201" lon="-0.199252"><ele>140.0</ele></trkpt>
      <trkpt lat="46.298309" lon="-0.198475"><ele>139.8</ele></trkpt>
      <trkpt lat="46.298799" lon="-0.198225"><ele>140.4</ele></trkpt>
      <trkpt lat="46.299658" lon="-0.198317"><ele>146.2</ele></trkpt>
      <trkpt lat="46.300878" lon="-0.197675"><ele>151.4</ele></trkpt>
      <trkpt lat="46.301680" lon="-0.197134"><ele>155.0</ele></trkpt>
      <trkpt lat="46.302161" lon="-0.197507"><ele>156.6</ele></trkpt>
      <trkpt lat="46.302353" lon="-0.197326"><ele>154.6</ele></trkpt>
      <trkpt lat="46.302451" lon="-0.197346"><ele>154.0</ele></trkpt>
      <trkpt lat="46.303152" lon="-0.198494"><ele>145.6</ele></trkpt>
      <trkpt lat="46.303519" lon="-0.198456"><ele>138.8</ele></trkpt>
      <trkpt lat="46.304065" lon="-0.198625"><ele>134.6</ele></trkpt>
      <trkpt lat="46.304359" lon="-0.198568"><ele>133.6</ele></trkpt>
      <trkpt lat="46.305085" lon="-0.199151"><ele>138.4</ele></trkpt>
      <trkpt lat="46.305359" lon="-0.199126"><ele>140.2</ele></trkpt>
      <trkpt lat="46.306109" lon="-0.199316"><ele>146.2</ele></trkpt>
      <trkpt lat="46.307368" lon="-0.198951"><ele>155.0</ele></trkpt>
      <trkpt lat="46.307861" lon="-0.199090"><ele>157.6</ele></trkpt>
      <trkpt lat="46.307962" lon="-0.199706"><ele>159.2</ele></trkpt>
      <trkpt lat="46.307964" lon="-0.200334"><ele>160.4</ele></trkpt>
      <trkpt lat="46.307846" lon="-0.201049"><ele>160.0</ele></trkpt>
      <trkpt lat="46.307318" lon="-0.201951"><ele>155.4</ele></trkpt>
      <trkpt lat="46.307457" lon="-0.202838"><ele>151.6</ele></trkpt>
      <trkpt lat="46.307633" lon="-0.203233"><ele>146.2</ele></trkpt>
      <trkpt lat="46.307629" lon="-0.203610"><ele>142.2</ele></trkpt>
      <trkpt lat="46.307423" lon="-0.203861"><ele>140.0</ele></trkpt>
      <trkpt lat="46.306907" lon="-0.204277"><ele>138.4</ele></trkpt>
      <trkpt lat="46.306266" lon="-0.204499"><ele>137.6</ele></trkpt>
      <trkpt lat="46.305813" lon="-0.204540"><ele>135.6</ele></trkpt>
      <trkpt lat="46.304941" lon="-0.204287"><ele>130.8</ele></trkpt>
      <trkpt lat="46.304342" lon="-0.203579"><ele>128.6</ele></trkpt>
      <trkpt lat="46.304085" lon="-0.203401"><ele>127.6</ele></trkpt>
      <trkpt lat="46.303744" lon="-0.203365"><ele>127.6</ele></trkpt>
      <trkpt lat="46.303494" lon="-0.203147"><ele>126.8</ele></trkpt>
      <trkpt lat="46.303179" lon="-0.203160"><ele>126.8</ele></trkpt>
      <trkpt lat="46.302966" lon="-0.203298"><ele>125.4</ele></trkpt>
      <trkpt lat="46.302675" lon="-0.203715"><ele>125.0</ele></trkpt>
      <trkpt lat="46.302562" lon="-0.204125"><ele>124.8</ele></trkpt>
      <trkpt lat="46.302646" lon="-0.204384"><ele>129.4</ele></trkpt>
      <trkpt lat="46.302804" lon="-0.204563"><ele>133.6</ele></trkpt>
      <trkpt lat="46.302561" lon="-0.204814"><ele>133.2</ele></trkpt>
      <trkpt lat="46.302360" lon="-0.205310"><ele>131.8</ele></trkpt>
      <trkpt lat="46.301429" lon="-0.206172"><ele>122.2</ele></trkpt>
      <trkpt lat="46.301295" lon="-0.205788"><ele>116.6</ele></trkpt>
      <trkpt lat="46.301409" lon="-0.205377"><ele>116.4</ele></trkpt>
    </trkseg>
  </trk>
</gpx>
