<?xml version="1.0" encoding="UTF-8"?>
<gpx version="1.1" creator="gpx-processor" xmlns="http://www.topografix.com/GPX/1/1">
  <metadata><name>Izeste Trail Running</name></metadata>
  <trk>
    <name>Izeste Trail Running</name>
    <trkseg>
      <trkpt lat="43.086120" lon="-0.422260"><ele>417.4</ele></trkpt>
      <trkpt lat="43.087635" lon="-0.423509"><ele>416.2</ele></trkpt>
      <trkpt lat="43.089067" lon="-0.425023"><ele>415.8</ele></trkpt>
      <trkpt lat="43.089565" lon="-0.425283"><ele>415.8</ele></trkpt>
      <trkpt lat="43.090383" lon="-0.425398"><ele>415.6</ele></trkpt>
      <trkpt lat="43.091106" lon="-0.425228"><ele>415.4</ele></trkpt>
      <trkpt lat="43.091197" lon="-0.425684"><ele>415.6</ele></trkpt>
      <trkpt lat="43.091137" lon="-0.425766"><ele>415.6</ele></trkpt>
      <trkpt lat="43.090897" lon="-0.425769"><ele>415.6</ele></trkpt>
      <trkpt lat="43.090914" lon="-0.426336"><ele>417.2</ele></trkpt>
      <trkpt lat="43.090651" lon="-0.427000"><ele>420.0</ele></trkpt>
      <trkpt lat="43.090834" lon="-0.427686"><ele>422.0</ele></trkpt>
      <trkpt lat="43.090783" lon="-0.428352"><ele>423.2</ele></trkpt>
      <trkpt lat="43.090858" lon="-0.428731"><ele>423.2</ele></trkpt>
      <trkpt lat="43.090640" lon="-0.429163"><ele>422.6</ele></trkpt>
      <trkpt lat="43.090677" lon="-0.429868"><ele>420.0</ele></trkpt>
      <trkpt lat="43.090491" lon="-0.430044"><ele>420.6</ele></trkpt>
      <trkpt lat="43.090309" lon="-0.430075"><ele>422.0</ele></trkpt>
      <trkpt lat="43.090522" lon="-0.430629"><ele>421.6</ele></trkpt>
      <trkpt lat="43.090532" lon="-0.430928"><ele>421.4</ele></trkpt>
      <trkpt lat="43.089751" lon="-0.432114"><ele>421.4</ele></trkpt>
      <trkpt lat="43.089378" lon="-0.433439"><ele>424.2</ele></trkpt>
      <trkpt lat="43.088902" lon="-0.434259"><ele>428.6</ele></trkpt>
      <trkpt lat="43.088788" lon="-0.434666"><ele>431.4</ele></trkpt>
      <trkpt lat="43.088580" lon="-0.434856"><ele>432.8</ele></trkpt>
      <trkpt lat="43.088260" lon="-0.434973"><ele>434.4</ele></trkpt>
      <trkpt lat="43.088171" lon="-0.435107"><ele>435.0</ele></trkpt>
      <trkpt lat="43.088135" lon="-0.435704"><ele>436.2</ele></trkpt>
      <trkpt lat="43.087768" lon="-0.436838"><ele>437.4</ele></trkpt>
      <trkpt lat="43.087337" lon="-0.439019"><ele>437.4</ele></trkpt>
      <trkpt lat="43.086613" lon="-0.441557"><ele>437.2</ele></trkpt>
      <trkpt lat="43.086255" lon="-0.442538"><ele>437.6</ele></trkpt>
      <trkpt lat="43.086076" lon="-0.443550"><ele>439.0</ele></trkpt>
      <trkpt lat="43.086267" lon="-0.444179"><ele>437.6</ele></trkpt>
      <trkpt lat="43.086635" lon="-0.444779"><ele>437.2</ele></trkpt>
      <trkpt lat="43.086895" lon="-0.444870"><ele>437.0</ele></trkpt>
      <trkpt lat="43.087044" lon="-0.445041"><ele>435.6</ele></trkpt>
      <trkpt lat="43.087106" lon="-0.445793"><ele>435.0</ele></trkpt>
      <trkpt lat="43.087564" lon="-0.446222"><ele>434.8</ele></trkpt>
      <trkpt lat="43.087609" lon="-0.447499"><ele>434.2</ele></trkpt>
      <trkpt lat="43.087805" lon="-0.448182"><ele>436.2</ele></trkpt>
      <trkpt lat="43.088175" lon="-0.448826"><ele>437.6</ele></trkpt>
      <trkpt lat="43.088224" lon="-0.449449"><ele>442.0</ele></trkpt>
      <trkpt lat="43.088533" lon="-0.449473"><ele>440.2</ele></trkpt>
      <trkpt lat="43.088600" lon="-0.449754"><ele>443.0</ele></trkpt>
      <trkpt lat="43.088809" lon="-0.449817"><ele>444.2</ele></trkpt>
      <trkpt lat="43.089199" lon="-0.449677"><ele>443.6</ele></trkpt>
      <trkpt lat="43.090269" lon="-0.448942"><ele>442.0</ele></trkpt>
      <trkpt lat="43.090696" lon="-0.448115"><ele>443.8</ele></trkpt>
      <trkpt lat="43.090947" lon="-0.447296"><ele>439.6</ele></trkpt>
      <trkpt lat="43.091691" lon="-0.446399"><ele>437.0</ele></trkpt>
      <trkpt lat="43.091923" lon="-0.446256"><ele>437.0</ele></trkpt>
      <trkpt lat="43.092658" lon="-0.446127"><ele>435.4</ele></trkpt>
      <trkpt lat="43.093451" lon="-0.445640"><ele>432.6</ele></trkpt>
      <trkpt lat="43.093220" lon="-0.445846"><ele>437.2</ele></trkpt>
      <trkpt lat="43.093010" lon="-0.446230"><ele>446.6</ele></trkpt>
      <trkpt lat="43.093074" lon="-0.446875"><ele>463.4</ele></trkpt>
      <trkpt lat="43.092905" lon="-0.447343"><ele>471.4</ele></trkpt>
      <trkpt lat="43.092838" lon="-0.448478"><ele>496.6</ele></trkpt>
      <trkpt lat="43.092641" lon="-0.449176"><ele>506.2</ele></trkpt>
      <trkpt lat="43.092294" lon="-0.449908"><ele>520.8</ele></trkpt>
      <trkpt lat="43.092462" lon="-0.449951"><ele>526.4</ele></trkpt>
      <trkpt lat="43.092483" lon="-0.450052"><ele>529.6</ele></trkpt>
      <trkpt lat="43.092253" lon="-0.450620"><ele>547.6</ele></trkpt>
      <trkpt lat="43.091967" lon="-0.451043"><ele>556.2</ele></trkpt>
      <trkpt lat="43.091664" lon="-0.451372"><ele>564.8</ele></trkpt>
      <trkpt lat="43.091373" lon="-0.451891"><ele>574.6</ele></trkpt>
      <trkpt lat="43.090839" lon="-0.452357"><ele>581.4</ele></trkpt>
      <trkpt lat="43.090590" lon="-0.452808"><ele>586.6</ele></trkpt>
      <trkpt lat="43.090278" lon="-0.453784"><ele>608.6</ele></trkpt>
      <trkpt lat="43.090035" lon="-0.454216"><ele>617.6</ele></trkpt>
      <trkpt lat="43.090055" lon="-0.454893"><ele>621.6</ele></trkpt>
      <trkpt lat="43.089468" lon="-0.455119"><ele>622.8</ele></trkpt>
      <trkpt lat="43.088478" lon="-0.455074"><ele>623.2</ele></trkpt>
      <trkpt lat="43.087899" lon="-0.454856"><ele>624.2</ele></trkpt>
      <trkpt lat="43.087827" lon="-0.454624"><ele>624.2</ele></trkpt>
      <trkpt lat="43.087593" lon="-0.454646"><ele>624.2</ele></trkpt>
      <trkpt lat="43.087246" lon="-0.454515"><ele>627.4</ele></trkpt>
      <trkpt lat="43.086691" lon="-0.454950"><ele>629.0</ele></trkpt>
      <trkpt lat="43.086393" lon="-0.455340"><ele>629.6</ele></trkpt>
      <trkpt lat="43.086313" lon="-0.455754"><ele>629.6</ele></trkpt>
      <trkpt lat="43.086370" lon="-0.456421"><ele>634.4</ele></trkpt>
      <trkpt lat="43.086294" lon="-0.456779"><ele>639.0</ele></trkpt>
      <trkpt lat="43.085968" lon="-0.457455"><ele>644.4</ele></trkpt>
      <trkpt lat="43.085890" lon="-0.458521"><ele>653.4</ele></trkpt>
      <trkpt lat="43.085979" lon="-0.458983"><ele>657.6</ele></trkpt>
      <trkpt lat="43.086537" lon="-0.460687"><ele>673.8</ele></trkpt>
      <trkpt lat="43.086734" lon="-0.460991"><ele>679.4</ele></trkpt>
      <trkpt lat="43.086952" lon="-0.461123"><ele>683.6</ele></trkpt>
      <trkpt lat="43.087360" lon="-0.461869"><ele>696.0</ele></trkpt>
      <trkpt lat="43.086693" lon="-0.461918"><ele>701.6</ele></trkpt>
      <trkpt lat="43.086291" lon="-0.461704"><ele>706.2</ele></trkpt>
      <trkpt lat="43.085987" lon="-0.461352"><ele>711.2</ele></trkpt>
      <trkpt lat="43.085525" lon="-0.461031"><ele>716.4</ele></trkpt>
      <trkpt lat="43.084902" lon="-0.459506"><ele>732.0</ele></trkpt>
      <trkpt lat="43.084306" lon="-0.458492"><ele>741.4</ele></trkpt>
      <trkpt lat="43.083790" lon="-0.456595"><ele>758.2</ele></trkpt>
      <trkpt lat="43.083564" lon="-0.455124"><ele>770.4</ele></trkpt>
      <trkpt lat="43.083289" lon="-0.454191"><ele>778.2</ele></trkpt>
      <trkpt lat="43.082825" lon="-0.453239"><ele>788.4</ele></trkpt>
      <trkpt lat="43.082466" lon="-0.452810"><ele>795.2</ele></trkpt>
      <trkpt lat="43.082253" lon="-0.452085"><ele>801.8</ele></trkpt>
      <trkpt lat="43.081705" lon="-0.451098"><ele>810.6</ele></trkpt>
      <trkpt lat="43.081416" lon="-0.450804"><ele>814.6</ele></trkpt>
      <trkpt lat="43.080664" lon="-0.449636"><ele>827.6</ele></trkpt>
      <trkpt lat="43.080521" lon="-0.449156"><ele>831.4</ele></trkpt>
      <trkpt lat="43.080339" lon="-0.447510"><ele>845.0</ele></trkpt>
      <trkpt lat="43.080133" lon="-0.446438"><ele>853.2</ele></trkpt>
      <trkpt lat="43.079777" lon="-0.445370"><ele>862.2</ele></trkpt>
      <trkpt lat="43.079575" lon="-0.444168"><ele>871.2</ele></trkpt>
      <trkpt lat="43.079173" lon="-0.443878"><ele>876.6</ele></trkpt>
      <trkpt lat="43.078832" lon="-0.443790"><ele>880.8</ele></trkpt>
      <trkpt lat="43.078552" lon="-0.443495"><ele>885.6</ele></trkpt>
      <trkpt lat="43.078342" lon="-0.442753"><ele>893.4</ele></trkpt>
      <trkpt lat="43.078131" lon="-0.441405"><ele>907.2</ele></trkpt>
      <trkpt lat="43.077877" lon="-0.440710"><ele>914.4</ele></trkpt>
      <trkpt lat="43.077932" lon="-0.439895"><ele>922.2</ele></trkpt>
      <trkpt lat="43.078344" lon="-0.438780"><ele>934.8</ele></trkpt>
      <trkpt lat="43.078292" lon="-0.438669"><ele>936.6</ele></trkpt>
      <trkpt lat="43.077782" lon="-0.439322"><ele>945.4</ele></trkpt>
      <trkpt lat="43.077271" lon="-0.440539"><ele>959.6</ele></trkpt>
      <trkpt lat="43.077176" lon="-0.440973"><ele>964.4</ele></trkpt>
      <trkpt lat="43.077241" lon="-0.441582"><ele>970.4</ele></trkpt>
      <trkpt lat="43.077137" lon="-0.443135"><ele>986.2</ele></trkpt>
      <trkpt lat="43.077217" lon="-0.444356"><ele>999.0</ele></trkpt>
      <trkpt lat="43.077377" lon="-0.445050"><ele>1008.2</ele></trkpt>
      <trkpt lat="43.077900" lon="-0.445822"><ele>1019.6</ele></trkpt>
      <trkpt lat="43.078018" lon="-0.446249"><ele>1023.6</ele></trkpt>
      <trkpt lat="43.077989" lon="-0.447013"><ele>1031.8</ele></trkpt>
      <trkpt lat="43.077747" lon="-0.447767"><ele>1040.8</ele></trkpt>
      <trkpt lat="43.077612" lon="-0.448825"><ele>1054.0</ele></trkpt>
      <trkpt lat="43.077695" lon="-0.450279"><ele>1066.0</ele></trkpt>
      <trkpt lat="43.077633" lon="-0.451049"><ele>1073.8</ele></trkpt>
      <trkpt lat="43.077667" lon="-0.451931"><ele>1082.4</ele></trkpt>
      <trkpt lat="43.078028" lon="-0.453128"><ele>1091.6</ele></trkpt>
      <trkpt lat="43.078752" lon="-0.454341"><ele>1106.6</ele></trkpt>
      <trkpt lat="43.078740" lon="-0.454691"><ele>1109.0</ele></trkpt>
      <trkpt lat="43.078478" lon="-0.455427"><ele>1115.8</ele></trkpt>
      <trkpt lat="43.078364" lon="-0.456082"><ele>1122.0</ele></trkpt>
      <trkpt lat="43.078703" lon="-0.457124"><ele>1130.8</ele></trkpt>
      <trkpt lat="43.078714" lon="-0.457493"><ele>1134.0</ele></trkpt>
      <trkpt lat="43.078905" lon="-0.458452"><ele>1143.6</ele></trkpt>
      <trkpt lat="43.079135" lon="-0.459177"><ele>1152.2</ele></trkpt>
      <trkpt lat="43.079315" lon="-0.460296"><ele>1166.2</ele></trkpt>
      <trkpt lat="43.079571" lon="-0.460725"><ele>1172.8</ele></trkpt>
      <trkpt lat="43.079678" lon="-0.461144"><ele>1176.6</ele></trkpt>
      <trkpt lat="43.079804" lon="-0.462041"><ele>1187.8</ele></trkpt>
      <trkpt lat="43.079781" lon="-0.463756"><ele>1200.8</ele></trkpt>
      <trkpt lat="43.079238" lon="-0.464258"><ele>1205.4</ele></trkpt>
      <trkpt lat="43.079136" lon="-0.464481"><ele>1204.0</ele></trkpt>
      <trkpt lat="43.079085" lon="-0.464905"><ele>1202.4</ele></trkpt>
      <trkpt lat="43.079211" lon="-0.466000"><ele>1221.6</ele></trkpt>
      <trkpt lat="43.079176" lon="-0.466404"><ele>1230.6</ele></trkpt>
      <trkpt lat="43.078902" lon="-0.466327"><ele>1239.4</ele></trkpt>
      <trkpt lat="43.078461" lon="-0.465998"><ele>1248.8</ele></trkpt>
      <trkpt lat="43.077784" lon="-0.465823"><ele>1261.4</ele></trkpt>
      <trkpt lat="43.077471" lon="-0.465635"><ele>1265.2</ele></trkpt>
      <trkpt lat="43.077277" lon="-0.465683"><ele>1258.6</ele></trkpt>
      <trkpt lat="43.077069" lon="-0.465603"><ele>1248.2</ele></trkpt>
      <trkpt lat="43.076920" lon="-0.465724"><ele>1243.6</ele></trkpt>
      <trkpt lat="43.076815" lon="-0.465697"><ele>1239.2</ele></trkpt>
      <trkpt lat="43.076725" lon="-0.465113"><ele>1229.6</ele></trkpt>
      <trkpt lat="43.076562" lon="-0.464848"><ele>1227.2</ele></trkpt>
      <trkpt lat="43.074219" lon="-0.462638"><ele>1203.6</ele></trkpt>
      <trkpt lat="43.074032" lon="-0.462272"><ele>1202.2</ele></trkpt>
      <trkpt lat="43.073860" lon="-0.461396"><ele>1198.4</ele></trkpt>
      <trkpt lat="43.073952" lon="-0.461838"><ele>1200.0</ele></trkpt>
      <trkpt lat="43.073903" lon="-0.462269"><ele>1197.4</ele></trkpt>
      <trkpt lat="43.073765" lon="-0.462569"><ele>1195.8</ele></trkpt>
      <trkpt lat="43.073386" lon="-0.461693"><ele>1170.2</ele></trkpt>
      <trkpt lat="43.072943" lon="-0.461384"><ele>1156.4</ele></trkpt>
      <trkpt lat="43.072582" lon="-0.461260"><ele>1147.2</ele></trkpt>
      <trkpt lat="43.072232" lon="-0.460837"><ele>1135.0</ele></trkpt>
      <trkpt lat="43.072022" lon="-0.460896"><ele>1123.6</ele></trkpt>
      <trkpt lat="43.071931" lon="-0.460789"><ele>1116.4</ele></trkpt>
      <trkpt lat="43.071733" lon="-0.461048"><ele>1104.6</ele></trkpt>
      <trkpt lat="43.071619" lon="-0.460983"><ele>1099.0</ele></trkpt>
      <trkpt lat="43.071533" lon="-0.461104"><ele>1092.2</ele></trkpt>
      <trkpt lat="43.071295" lon="-0.460739"><ele>1076.4</ele></trkpt>
      <trkpt lat="43.071199" lon="-0.460761"><ele>1071.4</ele></trkpt>
      <trkpt lat="43.070804" lon="-0.460248"><ele>1056.4</ele></trkpt>
      <trkpt lat="43.070582" lon="-0.460158"><ele>1044.4</ele></trkpt>
      <trkpt lat="43.070374" lon="-0.459674"><ele>1033.0</ele></trkpt>
      <trkpt lat="43.070337" lon="-0.459777"><ele>1029.6</ele></trkpt>
      <trkpt lat="43.070242" lon="-0.459774"><ele>1026.2</ele></trkpt>
      <trkpt lat="43.070166" lon="-0.459509"><ele>1019.4</ele></trkpt>
      <trkpt lat="43.070035" lon="-0.459375"><ele>1011.6</ele></trkpt>
      <trkpt lat="43.070068" lon="-0.459128"><ele>1003.6</ele></trkpt>
      <trkpt lat="43.069958" lon="-0.458483"><ele>982.4</ele></trkpt>
      <trkpt lat="43.069703" lon="-0.458513"><ele>972.4</ele></trkpt>
      <trkpt lat="43.069234" lon="-0.458830"><ele>955.6</ele></trkpt>
      <trkpt lat="43.068896" lon="-0.458734"><ele>940.8</ele></trkpt>
      <trkpt lat="43.068834" lon="-0.458573"><ele>936.6</ele></trkpt>
      <trkpt lat="43.068918" lon="-0.457893"><ele>926.6</ele></trkpt>
      <trkpt lat="43.068832" lon="-0.457801"><ele>925.2</ele></trkpt>
      <trkpt lat="43.068636" lon="-0.457896"><ele>924.2</ele></trkpt>
      <trkpt lat="43.068489" lon="-0.458276"><ele>925.0</ele></trkpt>
      <trkpt lat="43.068356" lon="-0.458975"><ele>925.6</ele></trkpt>
      <trkpt lat="43.068078" lon="-0.459338"><ele>926.8</ele></trkpt>
      <trkpt lat="43.067935" lon="-0.460234"><ele>928.8</ele></trkpt>
      <trkpt lat="43.067460" lon="-0.461122"><ele>918.4</ele></trkpt>
      <trkpt lat="43.067352" lon="-0.461789"><ele>911.0</ele></trkpt>
      <trkpt lat="43.066711" lon="-0.463757"><ele>898.4</ele></trkpt>
      <trkpt lat="43.066245" lon="-0.464772"><ele>891.8</ele></trkpt>
      <trkpt lat="43.065658" lon="-0.465512"><ele>883.0</ele></trkpt>
      <trkpt lat="43.065335" lon="-0.465569"><ele>881.6</ele></trkpt>
      <trkpt lat="43.065132" lon="-0.464926"><ele>885.4</ele></trkpt>
      <trkpt lat="43.064634" lon="-0.464876"><ele>885.8</ele></trkpt>
      <trkpt lat="43.063339" lon="-0.465364"><ele>885.0</ele></trkpt>
      <trkpt lat="43.062344" lon="-0.465925"><ele>885.2</ele></trkpt>
      <trkpt lat="43.061846" lon="-0.466107"><ele>886.2</ele></trkpt>
      <trkpt lat="43.061516" lon="-0.466116"><ele>887.2</ele></trkpt>
      <trkpt lat="43.060738" lon="-0.465657"><ele>891.6</ele></trkpt>
      <trkpt lat="43.060120" lon="-0.465562"><ele>897.4</ele></trkpt>
      <trkpt lat="43.059645" lon="-0.465226"><ele>896.4</ele></trkpt>
      <trkpt lat="43.059323" lon="-0.464725"><ele>890.6</ele></trkpt>
      <trkpt lat="43.058632" lon="-0.463263"><ele>875.0</ele></trkpt>
      <trkpt lat="43.058643" lon="-0.463142"><ele>872.6</ele></trkpt>
      <trkpt lat="43.058802" lon="-0.462985"><ele>869.2</ele></trkpt>
      <trkpt lat="43.058828" lon="-0.462359"><ele>865.4</ele></trkpt>
      <trkpt lat="43.059358" lon="-0.461891"><ele>861.0</ele></trkpt>
      <trkpt lat="43.059612" lon="-0.461536"><ele>858.4</ele></trkpt>
      <trkpt lat="43.059834" lon="-0.461526"><ele>855.0</ele></trkpt>
      <trkpt lat="43.060038" lon="-0.461390"><ele>853.8</ele></trkpt>
      <trkpt lat="43.060513" lon="-0.461445"><ele>849.0</ele></trkpt>
      <trkpt lat="43.061323" lon="-0.460904"><ele>850.2</ele></trkpt>
      <trkpt lat="43.061475" lon="-0.460551"><ele>848.8</ele></trkpt>
      <trkpt lat="43.061459" lon="-0.460080"><ele>845.2</ele></trkpt>
      <trkpt lat="43.061231" lon="-0.459441"><ele>838.8</ele></trkpt>
      <trkpt lat="43.061063" lon="-0.458546"><ele>835.0</ele></trkpt>
      <trkpt lat="43.061572" lon="-0.457414"><ele>825.0</ele></trkpt>
      <trkpt lat="43.062727" lon="-0.456345"><ele>815.4</ele></trkpt>
      <trkpt lat="43.063262" lon="-0.456104"><ele>823.2</ele></trkpt>
      <trkpt lat="43.063801" lon="-0.455676"><ele>826.8</ele></trkpt>
      <trkpt lat="43.064154" lon="-0.455143"><ele>826.2</ele></trkpt>
      <trkpt lat="43.064419" lon="-0.454522"><ele>824.4</ele></trkpt>
      <trkpt lat="43.064928" lon="-0.454230"><ele>835.0</ele></trkpt>
      <trkpt lat="43.065345" lon="-0.453542"><ele>848.8</ele></trkpt>
      <trkpt lat="43.065451" lon="-0.453223"><ele>852.6</ele></trkpt>
      <trkpt lat="43.065761" lon="-0.452829"><ele>859.2</ele></trkpt>
      <trkpt lat="43.066029" lon="-0.452100"><ele>866.2</ele></trkpt>
      <trkpt lat="43.066849" lon="-0.451648"><ele>869.4</ele></trkpt>
      <trkpt lat="43.066890" lon="-0.451437"><ele>871.4</ele></trkpt>
      <trkpt lat="43.066511" lon="-0.450993"><ele>880.4</ele></trkpt>
      <trkpt lat="43.066424" lon="-0.450599"><ele>885.6</ele></trkpt>
      <trkpt lat="43.066450" lon="-0.449772"><ele>894.2</ele></trkpt>
      <trkpt lat="43.066093" lon="-0.446885"><ele>904.6</ele></trkpt>
      <trkpt lat="43.066423" lon="-0.444324"><ele>901.6</ele></trkpt>
      <trkpt lat="43.066831" lon="-0.443031"><ele>900.4</ele></trkpt>
      <trkpt lat="43.067380" lon="-0.441964"><ele>895.0</ele></trkpt>
      <trkpt lat="43.067909" lon="-0.441211"><ele>892.0</ele></trkpt>
      <trkpt lat="43.068316" lon="-0.441178"><ele>888.2</ele></trkpt>
      <trkpt lat="43.068317" lon="-0.440851"><ele>888.6</ele></trkpt>
      <trkpt lat="43.068520" lon="-0.440376"><ele>891.6</ele></trkpt>
      <trkpt lat="43.068653" lon="-0.439680"><ele>887.0</ele></trkpt>
      <trkpt lat="43.068922" lon="-0.438917"><ele>887.4</ele></trkpt>
      <trkpt lat="43.069695" lon="-0.437793"><ele>887.0</ele></trkpt>
      <trkpt lat="43.070305" lon="-0.437185"><ele>886.0</ele></trkpt>
      <trkpt lat="43.070608" lon="-0.437036"><ele>886.4</ele></trkpt>
      <trkpt lat="43.070690" lon="-0.436735"><ele>887.0</ele></trkpt>
      <trkpt lat="43.071239" lon="-0.435858"><ele>880.6</ele></trkpt>
      <trkpt lat="43.070886" lon="-0.436073"><ele>879.0</ele></trkpt>
      <trkpt lat="43.070445" lon="-0.436713"><ele>876.8</ele></trkpt>
      <trkpt lat="43.070168" lon="-0.436700"><ele>875.2</ele></trkpt>
      <trkpt lat="43.069333" lon="-0.437303"><ele>864.6</ele></trkpt>
      <trkpt lat="43.068231" lon="-0.437477"><ele>838.6</ele></trkpt>
      <trkpt lat="43.068016" lon="-0.437778"><ele>830.6</ele></trkpt>
      <trkpt lat="43.067754" lon="-0.438485"><ele>819.8</ele></trkpt>
      <trkpt lat="43.067180" lon="-0.439012"><ele>809.0</ele></trkpt>
      <trkpt lat="43.067141" lon="-0.439410"><ele>804.6</ele></trkpt>
      <trkpt lat="43.066773" lon="-0.439335"><ele>804.8</ele></trkpt>
      <trkpt lat="43.066609" lon="-0.439065"><ele>799.6</ele></trkpt>
      <trkpt lat="43.066420" lon="-0.438931"><ele>794.0</ele></trkpt>
      <trkpt lat="43.066053" lon="-0.438936"><ele>786.2</ele></trkpt>
      <trkpt lat="43.065242" lon="-0.439358"><ele>765.0</ele></trkpt>
      <trkpt lat="43.064687" lon="-0.439906"><ele>750.0</ele></trkpt>
      <trkpt lat="43.063933" lon="-0.440768"><ele>729.2</ele></trkpt>
      <trkpt lat="43.063200" lon="-0.441987"><ele>701.0</ele></trkpt>
      <trkpt lat="43.062707" lon="-0.443168"><ele>683.0</ele></trkpt>
      <trkpt lat="43.062684" lon="-0.443576"><ele>679.0</ele></trkpt>
      <trkpt lat="43.061981" lon="-0.445417"><ele>664.6</ele></trkpt>
      <trkpt lat="43.061743" lon="-0.446369"><ele>659.0</ele></trkpt>
      <trkpt lat="43.061431" lon="-0.446712"><ele>653.8</ele></trkpt>
      <trkpt lat="43.061329" lon="-0.446698"><ele>652.4</ele></trkpt>
      <trkpt lat="43.061279" lon="-0.446493"><ele>650.6</ele></trkpt>
      <trkpt lat="43.061389" lon="-0.446004"><ele>646.6</ele></trkpt>
      <trkpt lat="43.061173" lon="-0.445468"><ele>642.0</ele></trkpt>
      <trkpt lat="43.061242" lon="-0.444564"><ele>634.4</ele></trkpt>
      <trkpt lat="43.061175" lon="-0.444471"><ele>633.8</ele></trkpt>
      <trkpt lat="43.061077" lon="-0.444494"><ele>632.2</ele></trkpt>
      <trkpt lat="43.060809" lon="-0.444998"><ele>629.2</ele></trkpt>
      <trkpt lat="43.060650" lon="-0.445005"><ele>627.4</ele></trkpt>
      <trkpt lat="43.060684" lon="-0.443557"><ele>613.8</ele></trkpt>
      <trkpt lat="43.060518" lon="-0.442841"><ele>607.8</ele></trkpt>
      <trkpt lat="43.060612" lon="-0.442190"><ele>602.2</ele></trkpt>
      <trkpt lat="43.060630" lon="-0.441252"><ele>595.0</ele></trkpt>
      <trkpt lat="43.060416" lon="-0.440082"><ele>584.0</ele></trkpt>
      <trkpt lat="43.060504" lon="-0.439396"><ele>580.6</ele></trkpt>
      <trkpt lat="43.060662" lon="-0.439117"><ele>579.0</ele></trkpt>
      <trkpt lat="43.061252" lon="-0.438519"><ele>571.6</ele></trkpt>
      <trkpt lat="43.061871" lon="-0.437647"><ele>564.4</ele></trkpt>
      <trkpt lat="43.062140" lon="-0.437394"><ele>564.0</ele></trkpt>
      <trkpt lat="43.062765" lon="-0.436277"><ele>558.6</ele></trkpt>
      <trkpt lat="43.063405" lon="-0.435897"><ele>554.6</ele></trkpt>
      <trkpt lat="43.063416" lon="-0.435722"><ele>554.6</ele></trkpt>
      <trkpt lat="43.063204" lon="-0.435503"><ele>554.2</ele></trkpt>
      <trkpt lat="43.063179" lon="-0.435309"><ele>554.2</ele></trkpt>
      <trkpt lat="43.063435" lon="-0.434543"><ele>553.4</ele></trkpt>
      <trkpt lat="43.063856" lon="-0.433886"><ele>552.8</ele></trkpt>
      <trkpt lat="43.064017" lon="-0.433238"><ele>546.8</ele></trkpt>
      <trkpt lat="43.064081" lon="-0.432478"><ele>542.2</ele></trkpt>
      <trkpt lat="43.064377" lon="-0.432182"><ele>538.0</ele></trkpt>
      <trkpt lat="43.064575" lon="-0.431787"><ele>536.0</ele></trkpt>
      <trkpt lat="43.065541" lon="-0.430727"><ele>531.0</ele></trkpt>
      <trkpt lat="43.065864" lon="-0.430182"><ele>525.4</ele></trkpt>
      <trkpt lat="43.065860" lon="-0.430046"><ele>523.2</ele></trkpt>
      <trkpt lat="43.065773" lon="-0.430030"><ele>522.2</ele></trkpt>
      <trkpt lat="43.065261" lon="-0.430491"><ele>517.6</ele></trkpt>
      <trkpt lat="43.065085" lon="-0.430545"><ele>515.4</ele></trkpt>
      <trkpt lat="43.065028" lon="-0.430462"><ele>514.4</ele></trkpt>
      <trkpt lat="43.065200" lon="-0.430078"><ele>510.8</ele></trkpt>
      <trkpt lat="43.065926" lon="-0.429272"><ele>499.0</ele></trkpt>
      <trkpt lat="43.066045" lon="-0.428320"><ele>490.4</ele></trkpt>
      <trkpt lat="43.066404" lon="-0.427315"><ele>482.0</ele></trkpt>
      <trkpt lat="43.066726" lon="-0.427005"><ele>478.0</ele></trkpt>
      <trkpt lat="43.067011" lon="-0.426522"><ele>475.0</ele></trkpt>
      <trkpt lat="43.067360" lon="-0.426304"><ele>473.2</ele></trkpt>
      <trkpt lat="43.067483" lon="-0.425883"><ele>470.4</ele></trkpt>
      <trkpt lat="43.068020" lon="-0.424926"><ele>463.8</ele></trkpt>
      <trkpt lat="43.068414" lon="-0.424951"><ele>460.4</ele></trkpt>
      <trkpt lat="43.068552" lon="-0.424804"><ele>458.8</ele></trkpt>
      <trkpt lat="43.068596" lon="-0.424592"><ele>457.4</ele></trkpt>
      <trkpt lat="43.068493" lon="-0.424487"><ele>456.2</ele></trkpt>
      <trkpt lat="43.068275" lon="-0.424505"><ele>453.6</ele></trkpt>
      <trkpt lat="43.068267" lon="-0.424287"><ele>451.4</ele></trkpt>
      <trkpt lat="43.068893" lon="-0.423955"><ele>446.6</ele></trkpt>
      <trkpt lat="43.069189" lon="-0.423898"><ele>443.2</ele></trkpt>
      <trkpt lat="43.069358" lon="-0.423729"><ele>442.0</ele></trkpt>
      <trkpt lat="43.070347" lon="-0.423361"><ele>439.4</ele></trkpt>
      <trkpt lat="43.072239" lon="-0.421822"><ele>436.0</ele></trkpt>
      <trkpt lat="43.073002" lon="-0.421374"><ele>435.4</ele></trkpt>
      <trkpt lat="43.073870" lon="-0.421266"><ele>435.6</ele></trkpt>
      <trkpt lat="43.076333" lon="-0.421735"><ele>434.4</ele></trkpt>
      <trkpt lat="43.079625" lon="-0.421421"><ele>430.8</ele></trkpt>
      <trkpt lat="43.079840" lon="-0.421522"><ele>429.4</ele></trkpt>
      <trkpt lat="43.079749" lon="-0.420884"><ele>425.2</ele></trkpt>
      <trkpt lat="43.079846" lon="-0.420731"><ele>422.8</ele></trkpt>
      <trkpt lat="43.081238" lon="-0.420175"><ele>420.6</ele></trkpt>
      <trkpt lat="43.081782" lon="-0.420110"><ele>419.4</ele></trkpt>
      <trkpt lat="43.082639" lon="-0.420456"><ele>418.8</ele></trkpt>
      <trkpt lat="43.084011" lon="-0.421399"><ele>418.8</ele></trkpt>
      <trkpt lat="43.085116" lon="-0.421724"><ele>418.4</ele></trkpt>
      <trkpt lat="43.085687" lon="-0.422075"><ele>417.8</ele></trkpt>
      <trkpt lat="43.085916" lon="-0.421938"><ele>418.0</ele></trkpt>
      <trkpt lat="43.086293" lon="-0.421063"><ele>419.0</ele></trkpt>
      <trkpt lat="43.086270" lon="-0.420988"><ele>418.8</ele></trkpt>
      <trkpt lat="43.085866" lon="-0.421136"><ele>416.4</ele></trkpt>
      <trkpt lat="43.086112" lon="-0.421051"><ele>416.6</ele></trkpt>
      <trkpt lat="43.086290" lon="-0.420802"><ele>417.4</ele></trkpt>
      <trkpt lat="43.086271" lon="-0.419653"><ele>419.0</ele></trkpt>
      <trkpt lat="43.086524" lon="-0.418302"><ele>421.4</ele></trkpt>
      <trkpt lat="43.086506" lon="-0.418022"><ele>422.0</ele></trkpt>
      <trkpt lat="43.085763" lon="-0.418014"><ele>423.0</ele></trkpt>
      <trkpt lat="43.085160" lon="-0.417693"><ele>423.6</ele></trkpt>
      <trkpt lat="43.085112" lon="-0.417061"><ele>424.8</ele></trkpt>
      <trkpt lat="43.084248" lon="-0.416092"><ele>429.4</ele></trkpt>
      <trkpt lat="43.084064" lon="-0.415453"><ele>435.4</ele></trkpt>
      <trkpt lat="43.083823" lon="-0.414941"><ele>442.6</ele></trkpt>
      <trkpt lat="43.083558" lon="-0.414600"><ele>448.0</ele></trkpt>
      <trkpt lat="43.083228" lon="-0.414504"><ele>454.2</ele></trkpt>
      <trkpt lat="43.082733" lon="-0.413942"><ele>467.2</ele></trkpt>
      <trkpt lat="43.082583" lon="-0.413578"><ele>473.6</ele></trkpt>
      <trkpt lat="43.082787" lon="-0.412898"><ele>484.6</ele></trkpt>
      <trkpt lat="43.082860" lon="-0.411974"><ele>501.4</ele></trkpt>
      <trkpt lat="43.082542" lon="-0.411803"><ele>510.6</ele></trkpt>
      <trkpt lat="43.082690" lon="-0.411408"><ele>517.6</ele></trkpt>
      <trkpt lat="43.082573" lon="-0.411192"><ele>520.6</ele></trkpt>
      <trkpt lat="43.082387" lon="-0.411117"><ele>522.6</ele></trkpt>
      <trkpt lat="43.082424" lon="-0.410553"><ele>534.4</ele></trkpt>
      <trkpt lat="43.082278" lon="-0.410080"><ele>546.6</ele></trkpt>
      <trkpt lat="43.082371" lon="-0.409867"><ele>550.8</ele></trkpt>
      <trkpt lat="43.082361" lon="-0.409291"><ele>562.0</ele></trkpt>
      <trkpt lat="43.082102" lon="-0.408987"><ele>571.8</ele></trkpt>
      <trkpt lat="43.082119" lon="-0.408826"><ele>575.4</ele></trkpt>
      <trkpt lat="43.081761" lon="-0.408583"><ele>587.0</ele></trkpt>
      <trkpt lat="43.081897" lon="-0.408256"><ele>593.4</ele></trkpt>
      <trkpt lat="43.081969" lon="-0.407683"><ele>600.6</ele></trkpt>
      <trkpt lat="43.082337" lon="-0.407781"><ele>607.0</ele></trkpt>
      <trkpt lat="43.082057" lon="-0.407324"><ele>616.8</ele></trkpt>
      <trkpt lat="43.081715" lon="-0.406958"><ele>628.4</ele></trkpt>
      <trkpt lat="43.081910" lon="-0.406911"><ele>635.4</ele></trkpt>
      <trkpt lat="43.081591" lon="-0.406517"><ele>645.6</ele></trkpt>
      <trkpt lat="43.081936" lon="-0.406517"><ele>654.4</ele></trkpt>
      <trkpt lat="43.082312" lon="-0.406328"><ele>665.8</ele></trkpt>
      <trkpt lat="43.081746" lon="-0.405836"><ele>680.0</ele></trkpt>
      <trkpt lat="43.082121" lon="-0.405725"><ele>689.6</ele></trkpt>
      <trkpt lat="43.081923" lon="-0.405453"><ele>698.2</ele></trkpt>
      <trkpt lat="43.082161" lon="-0.405366"><ele>705.2</ele></trkpt>
      <trkpt lat="43.082017" lon="-0.405259"><ele>708.4</ele></trkpt>
      <trkpt lat="43.082294" lon="-0.405185"><ele>714.0</ele></trkpt>
      <trkpt lat="43.081897" lon="-0.404914"><ele>723.0</ele></trkpt>
      <trkpt lat="43.082116" lon="-0.404791"><ele>729.0</ele></trkpt>
      <trkpt lat="43.081846" lon="-0.404540"><ele>738.0</ele></trkpt>
      <trkpt lat="43.082171" lon="-0.404443"><ele>744.4</ele></trkpt>
      <trkpt lat="43.081962" lon="-0.404296"><ele>749.8</ele></trkpt>
      <trkpt lat="43.082242" lon="-0.404166"><ele>755.8</ele></trkpt>
      <trkpt lat="43.081833" lon="-0.403880"><ele>767.2</ele></trkpt>
      <trkpt lat="43.081847" lon="-0.403769"><ele>771.8</ele></trkpt>
      <trkpt lat="43.081647" lon="-0.403564"><ele>779.2</ele></trkpt>
      <trkpt lat="43.082346" lon="-0.403146"><ele>795.4</ele></trkpt>
      <trkpt lat="43.082559" lon="-0.402752"><ele>803.0</ele></trkpt>
      <trkpt lat="43.082453" lon="-0.402734"><ele>805.4</ele></trkpt>
      <trkpt lat="43.082530" lon="-0.402407"><ele>809.6</ele></trkpt>
      <trkpt lat="43.082241" lon="-0.402409"><ele>816.4</ele></trkpt>
      <trkpt lat="43.082221" lon="-0.402170"><ele>820.4</ele></trkpt>
      <trkpt lat="43.082090" lon="-0.402141"><ele>823.8</ele></trkpt>
      <trkpt lat="43.081841" lon="-0.401483"><ele>836.0</ele></trkpt>
      <trkpt lat="43.081733" lon="-0.401684"><ele>840.0</ele></trkpt>
      <trkpt lat="43.081688" lon="-0.401263"><ele>845.4</ele></trkpt>
      <trkpt lat="43.081741" lon="-0.399934"><ele>855.8</ele></trkpt>
      <trkpt lat="43.081866" lon="-0.399343"><ele>857.4</ele></trkpt>
      <trkpt lat="43.081872" lon="-0.398540"><ele>864.2</ele></trkpt>
      <trkpt lat="43.081669" lon="-0.396603"><ele>872.8</ele></trkpt>
      <trkpt lat="43.082002" lon="-0.395184"><ele>890.6</ele></trkpt>
      <trkpt lat="43.081774" lon="-0.395374"><ele>898.6</ele></trkpt>
      <trkpt lat="43.082012" lon="-0.394222"><ele>913.2</ele></trkpt>
      <trkpt lat="43.082094" lon="-0.393423"><ele>919.4</ele></trkpt>
      <trkpt lat="43.081786" lon="-0.394022"><ele>927.4</ele></trkpt>
      <trkpt lat="43.081554" lon="-0.394313"><ele>933.0</ele></trkpt>
      <trkpt lat="43.081562" lon="-0.394092"><ele>937.6</ele></trkpt>
      <trkpt lat="43.080853" lon="-0.395043"><ele>960.4</ele></trkpt>
      <trkpt lat="43.080325" lon="-0.396398"><ele>979.6</ele></trkpt>
      <trkpt lat="43.080238" lon="-0.397215"><ele>992.0</ele></trkpt>
      <trkpt lat="43.080195" lon="-0.397134"><ele>994.4</ele></trkpt>
      <trkpt lat="43.080105" lon="-0.397752"><ele>1006.4</ele></trkpt>
      <trkpt lat="43.080075" lon="-0.397664"><ele>1009.4</ele></trkpt>
      <trkpt lat="43.079917" lon="-0.398260"><ele>1021.4</ele></trkpt>
      <trkpt lat="43.079840" lon="-0.398368"><ele>1023.6</ele></trkpt>
      <trkpt lat="43.079795" lon="-0.398280"><ele>1028.0</ele></trkpt>
      <trkpt lat="43.079682" lon="-0.398458"><ele>1030.8</ele></trkpt>
      <trkpt lat="43.079713" lon="-0.398228"><ele>1034.2</ele></trkpt>
      <trkpt lat="43.079600" lon="-0.398289"><ele>1037.6</ele></trkpt>
      <trkpt lat="43.079611" lon="-0.398018"><ele>1042.8</ele></trkpt>
      <trkpt lat="43.079392" lon="-0.398151"><ele>1048.8</ele></trkpt>
      <trkpt lat="43.079454" lon="-0.397682"><ele>1058.4</ele></trkpt>
      <trkpt lat="43.079413" lon="-0.397620"><ele>1060.6</ele></trkpt>
      <trkpt lat="43.079314" lon="-0.397729"><ele>1063.8</ele></trkpt>
      <trkpt lat="43.079314" lon="-0.397452"><ele>1068.8</ele></trkpt>
      <trkpt lat="43.079151" lon="-0.397110"><ele>1075.4</ele></trkpt>
      <trkpt lat="43.079018" lon="-0.397472"><ele>1082.8</ele></trkpt>
      <trkpt lat="43.078683" lon="-0.397855"><ele>1096.2</ele></trkpt>
      <trkpt lat="43.078518" lon="-0.397497"><ele>1109.4</ele></trkpt>
      <trkpt lat="43.078323" lon="-0.397423"><ele>1118.2</ele></trkpt>
      <trkpt lat="43.078366" lon="-0.397226"><ele>1121.6</ele></trkpt>
      <trkpt lat="43.078174" lon="-0.397211"><ele>1129.6</ele></trkpt>
      <trkpt lat="43.078117" lon="-0.396901"><ele>1138.2</ele></trkpt>
      <trkpt lat="43.077876" lon="-0.397101"><ele>1148.6</ele></trkpt>
      <trkpt lat="43.077791" lon="-0.396651"><ele>1159.8</ele></trkpt>
      <trkpt lat="43.077525" lon="-0.395931"><ele>1181.8</ele></trkpt>
      <trkpt lat="43.077343" lon="-0.395786"><ele>1192.8</ele></trkpt>
      <trkpt lat="43.077269" lon="-0.395880"><ele>1197.6</ele></trkpt>
      <trkpt lat="43.077130" lon="-0.395553"><ele>1209.0</ele></trkpt>
      <trkpt lat="43.077065" lon="-0.395640"><ele>1213.2</ele></trkpt>
      <trkpt lat="43.077058" lon="-0.395439"><ele>1215.6</ele></trkpt>
      <trkpt lat="43.076960" lon="-0.395266"><ele>1223.8</ele></trkpt>
      <trkpt lat="43.076799" lon="-0.395352"><ele>1232.0</ele></trkpt>
      <trkpt lat="43.076558" lon="-0.394709"><ele>1254.8</ele></trkpt>
      <trkpt lat="43.076434" lon="-0.394739"><ele>1261.6</ele></trkpt>
      <trkpt lat="43.076314" lon="-0.394590"><ele>1270.6</ele></trkpt>
      <trkpt lat="43.076216" lon="-0.394142"><ele>1281.2</ele></trkpt>
      <trkpt lat="43.075965" lon="-0.394081"><ele>1279.8</ele></trkpt>
      <trkpt lat="43.075776" lon="-0.393868"><ele>1270.4</ele></trkpt>
      <trkpt lat="43.075725" lon="-0.393959"><ele>1266.4</ele></trkpt>
      <trkpt lat="43.075534" lon="-0.393890"><ele>1257.0</ele></trkpt>
      <trkpt lat="43.075407" lon="-0.394227"><ele>1245.8</ele></trkpt>
      <trkpt lat="43.075306" lon="-0.394190"><ele>1241.4</ele></trkpt>
      <trkpt lat="43.075213" lon="-0.394545"><ele>1230.4</ele></trkpt>
      <trkpt lat="43.074991" lon="-0.394273"><ele>1221.2</ele></trkpt>
      <trkpt lat="43.074880" lon="-0.394281"><ele>1215.4</ele></trkpt>
      <trkpt lat="43.074864" lon="-0.394420"><ele>1211.6</ele></trkpt>
      <trkpt lat="43.074782" lon="-0.394450"><ele>1206.8</ele></trkpt>
      <trkpt lat="43.074638" lon="-0.394277"><ele>1200.4</ele></trkpt>
      <trkpt lat="43.074487" lon="-0.394636"><ele>1185.6</ele></trkpt>
      <trkpt lat="43.074399" lon="-0.394639"><ele>1179.8</ele></trkpt>
      <trkpt lat="43.074397" lon="-0.394719"><ele>1177.8</ele></trkpt>
      <trkpt lat="43.074331" lon="-0.394646"><ele>1175.0</ele></trkpt>
      <trkpt lat="43.074128" lon="-0.395230"><ele>1156.2</ele></trkpt>
      <trkpt lat="43.073589" lon="-0.395838"><ele>1119.2</ele></trkpt>
      <trkpt lat="43.073438" lon="-0.395887"><ele>1110.0</ele></trkpt>
      <trkpt lat="43.073206" lon="-0.396335"><ele>1097.2</ele></trkpt>
      <trkpt lat="43.073010" lon="-0.396973"><ele>1082.2</ele></trkpt>
      <trkpt lat="43.072742" lon="-0.397423"><ele>1060.8</ele></trkpt>
      <trkpt lat="43.072756" lon="-0.398010"><ele>1043.0</ele></trkpt>
      <trkpt lat="43.072470" lon="-0.397848"><ele>1026.8</ele></trkpt>
      <trkpt lat="43.072176" lon="-0.397447"><ele>1010.6</ele></trkpt>
      <trkpt lat="43.072059" lon="-0.397826"><ele>995.2</ele></trkpt>
      <trkpt lat="43.071813" lon="-0.397751"><ele>983.2</ele></trkpt>
      <trkpt lat="43.071566" lon="-0.397291"><ele>974.2</ele></trkpt>
      <trkpt lat="43.071368" lon="-0.397089"><ele>966.6</ele></trkpt>
      <trkpt lat="43.070992" lon="-0.397028"><ele>953.8</ele></trkpt>
      <trkpt lat="43.070659" lon="-0.396730"><ele>942.0</ele></trkpt>
      <trkpt lat="43.070494" lon="-0.396168"><ele>928.6</ele></trkpt>
      <trkpt lat="43.070282" lon="-0.395779"><ele>915.4</ele></trkpt>
      <trkpt lat="43.070310" lon="-0.395563"><ele>909.0</ele></trkpt>
      <trkpt lat="43.070470" lon="-0.395536"><ele>902.6</ele></trkpt>
      <trkpt lat="43.070549" lon="-0.395417"><ele>899.8</ele></trkpt>
      <trkpt lat="43.070512" lon="-0.395252"><ele>894.6</ele></trkpt>
      <trkpt lat="43.070584" lon="-0.395176"><ele>892.2</ele></trkpt>
      <trkpt lat="43.070653" lon="-0.394363"><ele>879.0</ele></trkpt>
      <trkpt lat="43.070895" lon="-0.393995"><ele>875.6</ele></trkpt>
      <trkpt lat="43.070869" lon="-0.393366"><ele>873.6</ele></trkpt>
      <trkpt lat="43.070218" lon="-0.391841"><ele>871.2</ele></trkpt>
      <trkpt lat="43.070535" lon="-0.391499"><ele>869.8</ele></trkpt>
      <trkpt lat="43.070723" lon="-0.391086"><ele>868.8</ele></trkpt>
      <trkpt lat="43.070792" lon="-0.390560"><ele>868.4</ele></trkpt>
      <trkpt lat="43.070661" lon="-0.389810"><ele>865.2</ele></trkpt>
      <trkpt lat="43.070310" lon="-0.389463"><ele>858.8</ele></trkpt>
      <trkpt lat="43.069924" lon="-0.388901"><ele>850.0</ele></trkpt>
      <trkpt lat="43.069838" lon="-0.388660"><ele>847.6</ele></trkpt>
      <trkpt lat="43.069821" lon="-0.388094"><ele>842.4</ele></trkpt>
      <trkpt lat="43.069316" lon="-0.387761"><ele>840.4</ele></trkpt>
      <trkpt lat="43.069077" lon="-0.387363"><ele>841.8</ele></trkpt>
      <trkpt lat="43.068812" lon="-0.386348"><ele>849.8</ele></trkpt>
      <trkpt lat="43.068628" lon="-0.385935"><ele>853.4</ele></trkpt>
      <trkpt lat="43.067180" lon="-0.385005"><ele>842.2</ele></trkpt>
      <trkpt lat="43.066756" lon="-0.385053"><ele>840.4</ele></trkpt>
      <trkpt lat="43.065682" lon="-0.384428"><ele>853.4</ele></trkpt>
      <trkpt lat="43.064906" lon="-0.384264"><ele>861.6</ele></trkpt>
      <trkpt lat="43.064646" lon="-0.383497"><ele>864.8</ele></trkpt>
      <trkpt lat="43.063840" lon="-0.381966"><ele>867.8</ele></trkpt>
      <trkpt lat="43.063128" lon="-0.379643"><ele>874.2</ele></trkpt>
      <trkpt lat="43.062783" lon="-0.378069"><ele>885.0</ele></trkpt>
      <trkpt lat="43.062774" lon="-0.377740"><ele>887.0</ele></trkpt>
      <trkpt lat="43.062804" lon="-0.377247"><ele>890.4</ele></trkpt>
      <trkpt lat="43.063102" lon="-0.375735"><ele>902.4</ele></trkpt>
      <trkpt lat="43.063380" lon="-0.375171"><ele>908.2</ele></trkpt>
      <trkpt lat="43.064127" lon="-0.374072"><ele>922.0</ele></trkpt>
      <trkpt lat="43.064856" lon="-0.372580"><ele>939.2</ele></trkpt>
      <trkpt lat="43.065301" lon="-0.371246"><ele>950.8</ele></trkpt>
      <trkpt lat="43.067605" lon="-0.368241"><ele>962.6</ele></trkpt>
      <trkpt lat="43.068854" lon="-0.366956"><ele>972.0</ele></trkpt>
      <trkpt lat="43.068866" lon="-0.366559"><ele>974.4</ele></trkpt>
      <trkpt lat="43.068460" lon="-0.365537"><ele>977.6</ele></trkpt>
      <trkpt lat="43.068404" lon="-0.365024"><ele>980.8</ele></trkpt>
      <trkpt lat="43.068436" lon="-0.365084"><ele>982.0</ele></trkpt>
      <trkpt lat="43.069219" lon="-0.364569"><ele>990.6</ele></trkpt>
      <trkpt lat="43.069622" lon="-0.364488"><ele>994.2</ele></trkpt>
      <trkpt lat="43.069946" lon="-0.364205"><ele>993.4</ele></trkpt>
      <trkpt lat="43.070175" lon="-0.364204"><ele>993.0</ele></trkpt>
      <trkpt lat="43.071251" lon="-0.363744"><ele>998.4</ele></trkpt>
      <trkpt lat="43.072691" lon="-0.362073"><ele>1003.8</ele></trkpt>
      <trkpt lat="43.073171" lon="-0.362415"><ele>1004.8</ele></trkpt>
      <trkpt lat="43.073300" lon="-0.362844"><ele>1004.8</ele></trkpt>
      <trkpt lat="43.073454" lon="-0.363071"><ele>1002.8</ele></trkpt>
      <trkpt lat="43.074172" lon="-0.363248"><ele>1001.6</ele></trkpt>
      <trkpt lat="43.075005" lon="-0.364179"><ele>995.0</ele></trkpt>
      <trkpt lat="43.075589" lon="-0.364233"><ele>988.6</ele></trkpt>
      <trkpt lat="43.075978" lon="-0.364121"><ele>987.0</ele></trkpt>
      <trkpt lat="43.076409" lon="-0.363657"><ele>988.4</ele></trkpt>
      <trkpt lat="43.076744" lon="-0.363143"><ele>990.0</ele></trkpt>
      <trkpt lat="43.077225" lon="-0.363411"><ele>994.4</ele></trkpt>
      <trkpt lat="43.078035" lon="-0.363444"><ele>1014.2</ele></trkpt>
      <trkpt lat="43.078092" lon="-0.363599"><ele>1018.0</ele></trkpt>
      <trkpt lat="43.077976" lon="-0.363927"><ele>1020.8</ele></trkpt>
      <trkpt lat="43.078033" lon="-0.364292"><ele>1029.4</ele></trkpt>
      <trkpt lat="43.078272" lon="-0.364157"><ele>1036.0</ele></trkpt>
      <trkpt lat="43.078298" lon="-0.364301"><ele>1039.0</ele></trkpt>
      <trkpt lat="43.078195" lon="-0.364827"><ele>1043.6</ele></trkpt>
      <trkpt lat="43.078017" lon="-0.365271"><ele>1046.6</ele></trkpt>
      <trkpt lat="43.077971" lon="-0.365762"><ele>1052.2</ele></trkpt>
      <trkpt lat="43.078044" lon="-0.366083"><ele>1057.2</ele></trkpt>
      <trkpt lat="43.077919" lon="-0.366317"><ele>1060.4</ele></trkpt>
      <trkpt lat="43.077953" lon="-0.366496"><ele>1063.8</ele></trkpt>
      <trkpt lat="43.077723" lon="-0.366743"><ele>1069.4</ele></trkpt>
      <trkpt lat="43.077460" lon="-0.368029"><ele>1081.2</ele></trkpt>
      <trkpt lat="43.077813" lon="-0.368367"><ele>1090.6</ele></trkpt>
      <trkpt lat="43.078095" lon="-0.368432"><ele>1094.8</ele></trkpt>
      <trkpt lat="43.078447" lon="-0.368717"><ele>1091.4</ele></trkpt>
      <trkpt lat="43.078916" lon="-0.368580"><ele>1079.8</ele></trkpt>
      <trkpt lat="43.078827" lon="-0.369185"><ele>1068.6</ele></trkpt>
      <trkpt lat="43.078919" lon="-0.369339"><ele>1063.6</ele></trkpt>
      <trkpt lat="43.079514" lon="-0.369366"><ele>1044.2</ele></trkpt>
      <trkpt lat="43.079618" lon="-0.369243"><ele>1041.2</ele></trkpt>
      <trkpt lat="43.080166" lon="-0.369466"><ele>1020.4</ele></trkpt>
      <trkpt lat="43.080488" lon="-0.369337"><ele>1013.0</ele></trkpt>
      <trkpt lat="43.080901" lon="-0.369772"><ele>1002.8</ele></trkpt>
      <trkpt lat="43.080956" lon="-0.369523"><ele>997.6</ele></trkpt>
      <trkpt lat="43.081346" lon="-0.369442"><ele>991.6</ele></trkpt>
      <trkpt lat="43.082045" lon="-0.369775"><ele>982.6</ele></trkpt>
      <trkpt lat="43.082449" lon="-0.369773"><ele>981.2</ele></trkpt>
      <trkpt lat="43.082818" lon="-0.369972"><ele>975.2</ele></trkpt>
      <trkpt lat="43.082813" lon="-0.371733"><ele>961.8</ele></trkpt>
      <trkpt lat="43.083131" lon="-0.373957"><ele>941.4</ele></trkpt>
      <trkpt lat="43.082904" lon="-0.376122"><ele>922.8</ele></trkpt>
      <trkpt lat="43.083187" lon="-0.375491"><ele>916.2</ele></trkpt>
      <trkpt lat="43.083395" lon="-0.374744"><ele>908.8</ele></trkpt>
      <trkpt lat="43.083772" lon="-0.374000"><ele>897.6</ele></trkpt>
      <trkpt lat="43.083813" lon="-0.373489"><ele>889.4</ele></trkpt>
      <trkpt lat="43.084122" lon="-0.374177"><ele>874.0</ele></trkpt>
      <trkpt lat="43.084170" lon="-0.375149"><ele>858.2</ele></trkpt>
      <trkpt lat="43.083960" lon="-0.376048"><ele>842.8</ele></trkpt>
      <trkpt lat="43.083937" lon="-0.376588"><ele>833.0</ele></trkpt>
      <trkpt lat="43.084129" lon="-0.377602"><ele>819.2</ele></trkpt>
      <trkpt lat="43.084312" lon="-0.379477"><ele>788.6</ele></trkpt>
      <trkpt lat="43.084540" lon="-0.380853"><ele>763.6</ele></trkpt>
      <trkpt lat="43.084447" lon="-0.380928"><ele>764.0</ele></trkpt>
      <trkpt lat="43.084323" lon="-0.381427"><ele>769.0</ele></trkpt>
      <trkpt lat="43.084040" lon="-0.382932"><ele>785.0</ele></trkpt>
      <trkpt lat="43.083037" lon="-0.385245"><ele>814.0</ele></trkpt>
      <trkpt lat="43.082639" lon="-0.386602"><ele>828.6</ele></trkpt>
      <trkpt lat="43.082708" lon="-0.387596"><ele>839.0</ele></trkpt>
      <trkpt lat="43.082522" lon="-0.388547"><ele>850.2</ele></trkpt>
      <trkpt lat="43.082600" lon="-0.389916"><ele>860.4</ele></trkpt>
      <trkpt lat="43.082522" lon="-0.391951"><ele>884.6</ele></trkpt>
      <trkpt lat="43.082720" lon="-0.392942"><ele>893.2</ele></trkpt>
      <trkpt lat="43.081625" lon="-0.396617"><ele>880.2</ele></trkpt>
      <trkpt lat="43.081733" lon="-0.397024"><ele>876.4</ele></trkpt>
      <trkpt lat="43.081711" lon="-0.397463"><ele>878.8</ele></trkpt>
      <trkpt lat="43.081868" lon="-0.398870"><ele>872.0</ele></trkpt>
      <trkpt lat="43.081678" lon="-0.400659"><ele>863.0</ele></trkpt>
      <trkpt lat="43.081727" lon="-0.401671"><ele>853.0</ele></trkpt>
      <trkpt lat="43.081784" lon="-0.401677"><ele>852.2</ele></trkpt>
      <trkpt lat="43.081832" lon="-0.401477"><ele>849.6</ele></trkpt>
      <trkpt lat="43.082073" lon="-0.402150"><ele>836.2</ele></trkpt>
      <trkpt lat="43.082210" lon="-0.402206"><ele>831.8</ele></trkpt>
      <trkpt lat="43.082219" lon="-0.402422"><ele>828.4</ele></trkpt>
      <trkpt lat="43.082512" lon="-0.402422"><ele>820.0</ele></trkpt>
      <trkpt lat="43.082443" lon="-0.402707"><ele>815.6</ele></trkpt>
      <trkpt lat="43.082525" lon="-0.402771"><ele>812.6</ele></trkpt>
      <trkpt lat="43.082308" lon="-0.403165"><ele>804.0</ele></trkpt>
      <trkpt lat="43.081637" lon="-0.403576"><ele>787.8</ele></trkpt>
      <trkpt lat="43.081861" lon="-0.403777"><ele>779.8</ele></trkpt>
      <trkpt lat="43.081791" lon="-0.403847"><ele>776.2</ele></trkpt>
      <trkpt lat="43.082220" lon="-0.404147"><ele>764.4</ele></trkpt>
      <trkpt lat="43.081949" lon="-0.404285"><ele>757.8</ele></trkpt>
      <trkpt lat="43.082148" lon="-0.404457"><ele>751.8</ele></trkpt>
      <trkpt lat="43.081827" lon="-0.404548"><ele>746.0</ele></trkpt>
      <trkpt lat="43.082113" lon="-0.404788"><ele>736.2</ele></trkpt>
      <trkpt lat="43.081880" lon="-0.404909"><ele>730.4</ele></trkpt>
      <trkpt lat="43.082276" lon="-0.405169"><ele>720.8</ele></trkpt>
      <trkpt lat="43.082024" lon="-0.405237"><ele>715.4</ele></trkpt>
      <trkpt lat="43.082146" lon="-0.405338"><ele>711.6</ele></trkpt>
      <trkpt lat="43.081893" lon="-0.405456"><ele>705.0</ele></trkpt>
      <trkpt lat="43.082131" lon="-0.405726"><ele>696.0</ele></trkpt>
      <trkpt lat="43.081727" lon="-0.405843"><ele>685.8</ele></trkpt>
      <trkpt lat="43.082304" lon="-0.406320"><ele>672.4</ele></trkpt>
      <trkpt lat="43.081786" lon="-0.406546"><ele>656.2</ele></trkpt>
      <trkpt lat="43.081568" lon="-0.406527"><ele>651.6</ele></trkpt>
      <trkpt lat="43.081903" lon="-0.406897"><ele>642.0</ele></trkpt>
      <trkpt lat="43.081694" lon="-0.406975"><ele>635.4</ele></trkpt>
      <trkpt lat="43.082330" lon="-0.407751"><ele>615.8</ele></trkpt>
      <trkpt lat="43.081963" lon="-0.407675"><ele>608.0</ele></trkpt>
      <trkpt lat="43.081877" lon="-0.407877"><ele>605.0</ele></trkpt>
      <trkpt lat="43.081875" lon="-0.408262"><ele>601.8</ele></trkpt>
      <trkpt lat="43.081734" lon="-0.408580"><ele>596.4</ele></trkpt>
      <trkpt lat="43.081940" lon="-0.408703"><ele>589.8</ele></trkpt>
      <trkpt lat="43.082172" lon="-0.409149"><ele>577.4</ele></trkpt>
      <trkpt lat="43.082338" lon="-0.409301"><ele>571.0</ele></trkpt>
      <trkpt lat="43.082342" lon="-0.409865"><ele>559.8</ele></trkpt>
      <trkpt lat="43.082263" lon="-0.410108"><ele>554.4</ele></trkpt>
      <trkpt lat="43.082407" lon="-0.410558"><ele>543.0</ele></trkpt>
      <trkpt lat="43.082339" lon="-0.411168"><ele>529.8</ele></trkpt>
      <trkpt lat="43.082522" lon="-0.411199"><ele>527.2</ele></trkpt>
      <trkpt lat="43.082653" lon="-0.411386"><ele>525.6</ele></trkpt>
      <trkpt lat="43.082501" lon="-0.411769"><ele>519.0</ele></trkpt>
      <trkpt lat="43.082562" lon="-0.411871"><ele>517.2</ele></trkpt>
      <trkpt lat="43.082821" lon="-0.411939"><ele>510.8</ele></trkpt>
      <trkpt lat="43.082771" lon="-0.412694"><ele>496.2</ele></trkpt>
      <trkpt lat="43.083112" lon="-0.413645"><ele>482.4</ele></trkpt>
      <trkpt lat="43.083566" lon="-0.414183"><ele>475.6</ele></trkpt>
      <trkpt lat="43.083999" lon="-0.414205"><ele>474.8</ele></trkpt>
      <trkpt lat="43.084352" lon="-0.414398"><ele>474.0</ele></trkpt>
      <trkpt lat="43.084840" lon="-0.414231"><ele>470.6</ele></trkpt>
      <trkpt lat="43.085185" lon="-0.413981"><ele>466.2</ele></trkpt>
      <trkpt lat="43.085381" lon="-0.414003"><ele>464.6</ele></trkpt>
      <trkpt lat="43.086034" lon="-0.414362"><ele>457.8</ele></trkpt>
      <trkpt lat="43.086501" lon="-0.415124"><ele>448.2</ele></trkpt>
      <trkpt lat="43.086535" lon="-0.415324"><ele>445.6</ele></trkpt>
      <trkpt lat="43.086424" lon="-0.416209"><ele>440.2</ele></trkpt>
      <trkpt lat="43.086453" lon="-0.416904"><ele>434.2</ele></trkpt>
      <trkpt lat="43.086568" lon="-0.417251"><ele>432.4</ele></trkpt>
      <trkpt lat="43.086603" lon="-0.418307"><ele>428.6</ele></trkpt>
      <trkpt lat="43.086307" lon="-0.419436"><ele>426.4</ele></trkpt>
    </trkseg>
  </trk>
</gpx>
