<?xml version="1.0" encoding="UTF-8"?>
<gpx version="1.1" creator="gpx-processor" xmlns="http://www.topografix.com/GPX/1/1">
  <metadata><name>Lap 2: A l'Assaut du Coudray Salbart</name></metadata>
  <trk>
    <name>Lap 2: A l'Assaut du Coudray Salbart</name>
    <trkseg>
      <trkpt lat="46.317180" lon="-0.369161"><ele>43.6</ele></trkpt>
      <trkpt lat="46.317813" lon="-0.369223"><ele>43.0</ele></trkpt>
      <trkpt lat="46.318220" lon="-0.369476"><ele>43.8</ele></trkpt>
      <trkpt lat="46.319044" lon="-0.369725"><ele>44.6</ele></trkpt>
      <trkpt lat="46.320140" lon="-0.370252"><ele>52.8</ele></trkpt>
      <trkpt lat="46.320797" lon="-0.370385"><ele>58.4</ele></trkpt>
      <trkpt lat="46.320969" lon="-0.370288"><ele>60.4</ele></trkpt>
      <trkpt lat="46.322908" lon="-0.371064"><ele>69.2</ele></trkpt>
      <trkpt lat="46.323307" lon="-0.371114"><ele>70.0</ele></trkpt>
      <trkpt lat="46.323639" lon="-0.370879"><ele>69.4</ele></trkpt>
      <trkpt lat="46.323664" lon="-0.371001"><ele>69.4</ele></trkpt>
      <trkpt lat="46.323493" lon="-0.371154"><ele>69.6</ele></trkpt>
      <trkpt lat="46.323592" lon="-0.371285"><ele>69.2</ele></trkpt>
      <trkpt lat="46.325504" lon="-0.371516"><ele>62.4</ele></trkpt>
      <trkpt lat="46.328501" lon="-0.372382"><ele>63.0</ele></trkpt>
      <trkpt lat="46.331478" lon="-0.372966"><ele>65.0</ele></trkpt>
      <trkpt lat="46.332300" lon="-0.373271"><ele>64.6</ele></trkpt>
      <trkpt lat="46.335582" lon="-0.375048"><ele>70.4</ele></trkpt>
      <trkpt lat="46.337565" lon="-0.375739"><ele>72.6</ele></trkpt>
      <trkpt lat="46.338338" lon="-0.375890"><ele>74.6</ele></trkpt>
      <trkpt lat="46.340946" lon="-0.376108"><ele>79.2</ele></trkpt>
      <trkpt lat="46.341510" lon="-0.376084"><ele>80.4</ele></trkpt>
      <trkpt lat="46.341762" lon="-0.375946"><ele>80.8</ele></trkpt>
      <trkpt lat="46.342304" lon="-0.376175"><ele>81.8</ele></trkpt>
      <trkpt lat="46.343854" lon="-0.376073"><ele>84.4</ele></trkpt>
      <trkpt lat="46.344274" lon="-0.376268"><ele>82.6</ele></trkpt>
      <trkpt lat="46.344669" lon="-0.376259"><ele>81.6</ele></trkpt>
      <trkpt lat="46.344930" lon="-0.376098"><ele>80.4</ele></trkpt>
      <trkpt lat="46.346206" lon="-0.375787"><ele>77.8</ele></trkpt>
      <trkpt lat="46.347251" lon="-0.375691"><ele>73.6</ele></trkpt>
      <trkpt lat="46.348433" lon="-0.375960"><ele>70.2</ele></trkpt>
      <trkpt lat="46.348715" lon="-0.376206"><ele>70.8</ele></trkpt>
      <trkpt lat="46.349050" lon="-0.376217"><ele>70.6</ele></trkpt>
      <trkpt lat="46.349935" lon="-0.376957"><ele>70.6</ele></trkpt>
      <trkpt lat="46.350996" lon="-0.377592"><ele>70.6</ele></trkpt>
      <trkpt lat="46.352792" lon="-0.378071"><ele>72.0</ele></trkpt>
      <trkpt lat="46.354191" lon="-0.377944"><ele>74.2</ele></trkpt>
      <trkpt lat="46.355529" lon="-0.378010"><ele>76.8</ele></trkpt>
      <trkpt lat="46.358513" lon="-0.377130"><ele>81.2</ele></trkpt>
      <trkpt lat="46.358750" lon="-0.377256"><ele>81.0</ele></trkpt>
      <trkpt lat="46.360267" lon="-0.376491"><ele>82.4</ele></trkpt>
      <trkpt lat="46.362463" lon="-0.375990"><ele>72.2</ele></trkpt>
      <trkpt lat="46.362600" lon="-0.375333"><ele>70.0</ele></trkpt>
      <trkpt lat="46.363445" lon="-0.375057"><ele>64.0</ele></trkpt>
      <trkpt lat="46.363629" lon="-0.375139"><ele>63.2</ele></trkpt>
      <trkpt lat="46.363734" lon="-0.375594"><ele>62.2</ele></trkpt>
      <trkpt lat="46.363800" lon="-0.375630"><ele>62.0</ele></trkpt>
      <trkpt lat="46.364870" lon="-0.374566"><ele>51.6</ele></trkpt>
      <trkpt lat="46.365438" lon="-0.373605"><ele>45.8</ele></trkpt>
      <trkpt lat="46.366048" lon="-0.372304"><ele>36.8</ele></trkpt>
      <trkpt lat="46.366687" lon="-0.371630"><ele>32.4</ele></trkpt>
      <trkpt lat="46.366932" lon="-0.371557"><ele>32.2</ele></trkpt>
      <trkpt lat="46.366708" lon="-0.371902"><ele>32.4</ele></trkpt>
      <trkpt lat="46.366774" lon="-0.372227"><ele>32.2</ele></trkpt>
      <trkpt lat="46.367697" lon="-0.374112"><ele>31.6</ele></trkpt>
      <trkpt lat="46.367771" lon="-0.374138"><ele>31.6</ele></trkpt>
      <trkpt lat="46.368026" lon="-0.373894"><ele>31.2</ele></trkpt>
      <trkpt lat="46.368562" lon="-0.374081"><ele>31.2</ele></trkpt>
      <trkpt lat="46.369225" lon="-0.373982"><ele>31.2</ele></trkpt>
      <trkpt lat="46.369715" lon="-0.374092"><ele>31.0</ele></trkpt>
      <trkpt lat="46.369830" lon="-0.374283"><ele>31.0</ele></trkpt>
      <trkpt lat="46.369848" lon="-0.374729"><ele>31.4</ele></trkpt>
      <trkpt lat="46.370014" lon="-0.375343"><ele>31.4</ele></trkpt>
      <trkpt lat="46.370397" lon="-0.375722"><ele>31.2</ele></trkpt>
      <trkpt lat="46.370892" lon="-0.375717"><ele>31.4</ele></trkpt>
      <trkpt lat="46.371423" lon="-0.376441"><ele>32.0</ele></trkpt>
      <trkpt lat="46.371839" lon="-0.376527"><ele>31.8</ele></trkpt>
      <trkpt lat="46.372263" lon="-0.376391"><ele>31.8</ele></trkpt>
      <trkpt lat="46.372528" lon="-0.376590"><ele>33.4</ele></trkpt>
      <trkpt lat="46.373430" lon="-0.376667"><ele>33.0</ele></trkpt>
      <trkpt lat="46.374585" lon="-0.377015"><ele>34.0</ele></trkpt>
      <trkpt lat="46.375074" lon="-0.377363"><ele>33.6</ele></trkpt>
      <trkpt lat="46.375458" lon="-0.377474"><ele>37.4</ele></trkpt>
      <trkpt lat="46.376612" lon="-0.378513"><ele>40.2</ele></trkpt>
      <trkpt lat="46.377578" lon="-0.379074"><ele>37.6</ele></trkpt>
      <trkpt lat="46.378071" lon="-0.379834"><ele>37.4</ele></trkpt>
      <trkpt lat="46.378542" lon="-0.381264"><ele>39.2</ele></trkpt>
      <trkpt lat="46.379347" lon="-0.382972"><ele>37.8</ele></trkpt>
      <trkpt lat="46.379536" lon="-0.383791"><ele>37.0</ele></trkpt>
      <trkpt lat="46.379984" lon="-0.384462"><ele>39.4</ele></trkpt>
      <trkpt lat="46.380227" lon="-0.385129"><ele>43.0</ele></trkpt>
      <trkpt lat="46.381268" lon="-0.386422"><ele>44.2</ele></trkpt>
      <trkpt lat="46.381883" lon="-0.386811"><ele>37.4</ele></trkpt>
      <trkpt lat="46.382272" lon="-0.386628"><ele>32.6</ele></trkpt>
      <trkpt lat="46.382889" lon="-0.387482"><ele>31.6</ele></trkpt>
      <trkpt lat="46.383535" lon="-0.388640"><ele>32.6</ele></trkpt>
      <trkpt lat="46.384143" lon="-0.389501"><ele>33.6</ele></trkpt>
      <trkpt lat="46.384411" lon="-0.390226"><ele>37.0</ele></trkpt>
      <trkpt lat="46.384791" lon="-0.390942"><ele>40.4</ele></trkpt>
      <trkpt lat="46.384883" lon="-0.391347"><ele>41.4</ele></trkpt>
      <trkpt lat="46.386835" lon="-0.394928"><ele>53.8</ele></trkpt>
      <trkpt lat="46.388214" lon="-0.397117"><ele>53.8</ele></trkpt>
      <trkpt lat="46.388556" lon="-0.398700"><ele>57.0</ele></trkpt>
      <trkpt lat="46.388738" lon="-0.400662"><ele>58.2</ele></trkpt>
      <trkpt lat="46.388987" lon="-0.402209"><ele>55.2</ele></trkpt>
      <trkpt lat="46.389412" lon="-0.403022"><ele>54.8</ele></trkpt>
      <trkpt lat="46.389230" lon="-0.403440"><ele>52.6</ele></trkpt>
      <trkpt lat="46.389251" lon="-0.403700"><ele>51.2</ele></trkpt>
      <trkpt lat="46.389804" lon="-0.405255"><ele>41.8</ele></trkpt>
      <trkpt lat="46.390711" lon="-0.406086"><ele>34.4</ele></trkpt>
      <trkpt lat="46.390904" lon="-0.406478"><ele>34.6</ele></trkpt>
      <trkpt lat="46.390982" lon="-0.406862"><ele>36.8</ele></trkpt>
      <trkpt lat="46.390988" lon="-0.407911"><ele>38.8</ele></trkpt>
      <trkpt lat="46.391393" lon="-0.409756"><ele>42.0</ele></trkpt>
      <trkpt lat="46.391666" lon="-0.411575"><ele>37.8</ele></trkpt>
      <trkpt lat="46.390876" lon="-0.412710"><ele>34.2</ele></trkpt>
      <trkpt lat="46.390260" lon="-0.413158"><ele>33.8</ele></trkpt>
      <trkpt lat="46.390120" lon="-0.413596"><ele>33.8</ele></trkpt>
      <trkpt lat="46.389513" lon="-0.413419"><ele>34.2</ele></trkpt>
      <trkpt lat="46.389439" lon="-0.413505"><ele>34.2</ele></trkpt>
      <trkpt lat="46.389404" lon="-0.414162"><ele>34.0</ele></trkpt>
      <trkpt lat="46.389507" lon="-0.415515"><ele>31.6</ele></trkpt>
      <trkpt lat="46.389468" lon="-0.416453"><ele>31.4</ele></trkpt>
      <trkpt lat="46.389074" lon="-0.416706"><ele>31.2</ele></trkpt>
      <trkpt lat="46.388458" lon="-0.416754"><ele>31.8</ele></trkpt>
      <trkpt lat="46.388362" lon="-0.416877"><ele>31.4</ele></trkpt>
      <trkpt lat="46.388375" lon="-0.417472"><ele>30.4</ele></trkpt>
      <trkpt lat="46.388559" lon="-0.418681"><ele>29.2</ele></trkpt>
      <trkpt lat="46.388420" lon="-0.419296"><ele>29.6</ele></trkpt>
      <trkpt lat="46.388585" lon="-0.420769"><ele>27.8</ele></trkpt>
      <trkpt lat="46.388619" lon="-0.418969"><ele>28.2</ele></trkpt>
      <trkpt lat="46.388339" lon="-0.417283"><ele>29.4</ele></trkpt>
      <trkpt lat="46.388342" lon="-0.416731"><ele>30.6</ele></trkpt>
      <trkpt lat="46.388410" lon="-0.416565"><ele>30.6</ele></trkpt>
      <trkpt lat="46.390946" lon="-0.416542"><ele>29.2</ele></trkpt>
      <trkpt lat="46.391477" lon="-0.416717"><ele>29.2</ele></trkpt>
      <trkpt lat="46.391589" lon="-0.417258"><ele>29.4</ele></trkpt>
      <trkpt lat="46.391997" lon="-0.417305"><ele>28.4</ele></trkpt>
      <trkpt lat="46.392146" lon="-0.417789"><ele>27.8</ele></trkpt>
      <trkpt lat="46.392401" lon="-0.417856"><ele>27.2</ele></trkpt>
      <trkpt lat="46.393913" lon="-0.417707"><ele>26.0</ele></trkpt>
      <trkpt lat="46.393979" lon="-0.417799"><ele>26.0</ele></trkpt>
      <trkpt lat="46.394045" lon="-0.418453"><ele>25.8</ele></trkpt>
      <trkpt lat="46.394007" lon="-0.419302"><ele>26.0</ele></trkpt>
      <trkpt lat="46.393857" lon="-0.420132"><ele>26.0</ele></trkpt>
      <trkpt lat="46.393633" lon="-0.420353"><ele>26.0</ele></trkpt>
      <trkpt lat="46.393602" lon="-0.420494"><ele>26.0</ele></trkpt>
      <trkpt lat="46.393824" lon="-0.421205"><ele>26.2</ele></trkpt>
      <trkpt lat="46.393863" lon="-0.422731"><ele>26.0</ele></trkpt>
      <trkpt lat="46.393718" lon="-0.423452"><ele>26.0</ele></trkpt>
      <trkpt lat="46.393958" lon="-0.424385"><ele>25.8</ele></trkpt>
      <trkpt lat="46.394280" lon="-0.424796"><ele>25.6</ele></trkpt>
      <trkpt lat="46.394359" lon="-0.425055"><ele>26.6</ele></trkpt>
      <trkpt lat="46.395208" lon="-0.425846"><ele>31.2</ele></trkpt>
      <trkpt lat="46.395786" lon="-0.426201"><ele>33.8</ele></trkpt>
      <trkpt lat="46.396458" lon="-0.426426"><ele>32.4</ele></trkpt>
      <trkpt lat="46.396739" lon="-0.427027"><ele>33.0</ele></trkpt>
      <trkpt lat="46.397361" lon="-0.426817"><ele>37.8</ele></trkpt>
      <trkpt lat="46.396552" lon="-0.427507"><ele>40.8</ele></trkpt>
      <trkpt lat="46.395498" lon="-0.428119"><ele>42.4</ele></trkpt>
      <trkpt lat="46.394964" lon="-0.428240"><ele>43.2</ele></trkpt>
      <trkpt lat="46.394838" lon="-0.427873"><ele>35.6</ele></trkpt>
      <trkpt lat="46.393433" lon="-0.427789"><ele>38.6</ele></trkpt>
      <trkpt lat="46.393272" lon="-0.427888"><ele>39.4</ele></trkpt>
      <trkpt lat="46.392887" lon="-0.428438"><ele>45.6</ele></trkpt>
      <trkpt lat="46.393648" lon="-0.435195"><ele>45.4</ele></trkpt>
      <trkpt lat="46.391925" lon="-0.437178"><ele>47.6</ele></trkpt>
      <trkpt lat="46.391899" lon="-0.437255"><ele>47.6</ele></trkpt>
      <trkpt lat="46.391984" lon="-0.437321"><ele>47.4</ele></trkpt>
      <trkpt lat="46.393087" lon="-0.437334"><ele>38.6</ele></trkpt>
      <trkpt lat="46.393312" lon="-0.437552"><ele>30.0</ele></trkpt>
      <trkpt lat="46.393738" lon="-0.436874"><ele>32.8</ele></trkpt>
      <trkpt lat="46.394064" lon="-0.436145"><ele>37.2</ele></trkpt>
      <trkpt lat="46.394420" lon="-0.436552"><ele>23.2</ele></trkpt>
      <trkpt lat="46.395695" lon="-0.434805"><ele>23.2</ele></trkpt>
      <trkpt lat="46.396617" lon="-0.433794"><ele>23.6</ele></trkpt>
      <trkpt lat="46.399838" lon="-0.431723"><ele>22.6</ele></trkpt>
      <trkpt lat="46.401692" lon="-0.430865"><ele>23.6</ele></trkpt>
      <trkpt lat="46.402754" lon="-0.430218"><ele>23.4</ele></trkpt>
      <trkpt lat="46.404258" lon="-0.428758"><ele>23.8</ele></trkpt>
      <trkpt lat="46.405180" lon="-0.426128"><ele>24.0</ele></trkpt>
      <trkpt lat="46.406568" lon="-0.426423"><ele>26.0</ele></trkpt>
      <trkpt lat="46.406622" lon="-0.427505"><ele>28.2</ele></trkpt>
      <trkpt lat="46.406899" lon="-0.427949"><ele>28.4</ele></trkpt>
      <trkpt lat="46.406489" lon="-0.428760"><ele>23.8</ele></trkpt>
      <trkpt lat="46.406598" lon="-0.429032"><ele>22.6</ele></trkpt>
      <trkpt lat="46.406771" lon="-0.428970"><ele>24.4</ele></trkpt>
      <trkpt lat="46.407063" lon="-0.428661"><ele>25.2</ele></trkpt>
      <trkpt lat="46.407360" lon="-0.428133"><ele>27.6</ele></trkpt>
      <trkpt lat="46.407144" lon="-0.427786"><ele>27.8</ele></trkpt>
      <trkpt lat="46.406831" lon="-0.427710"><ele>28.6</ele></trkpt>
      <trkpt lat="46.406747" lon="-0.427497"><ele>30.2</ele></trkpt>
      <trkpt lat="46.406786" lon="-0.427273"><ele>33.0</ele></trkpt>
      <trkpt lat="46.407014" lon="-0.427232"><ele>38.6</ele></trkpt>
      <trkpt lat="46.407170" lon="-0.426738"><ele>42.4</ele></trkpt>
      <trkpt lat="46.407129" lon="-0.426420"><ele>45.2</ele></trkpt>
      <trkpt lat="46.407389" lon="-0.426465"><ele>46.8</ele></trkpt>
      <trkpt lat="46.407078" lon="-0.426066"><ele>47.0</ele></trkpt>
      <trkpt lat="46.407129" lon="-0.426741"><ele>45.4</ele></trkpt>
      <trkpt lat="46.406980" lon="-0.427221"><ele>41.0</ele></trkpt>
      <trkpt lat="46.406813" lon="-0.427259"><ele>38.4</ele></trkpt>
      <trkpt lat="46.406715" lon="-0.427114"><ele>34.2</ele></trkpt>
      <trkpt lat="46.406800" lon="-0.425709"><ele>36.4</ele></trkpt>
      <trkpt lat="46.406959" lon="-0.425559"><ele>44.4</ele></trkpt>
      <trkpt lat="46.407413" lon="-0.425452"><ele>50.2</ele></trkpt>
      <trkpt lat="46.407481" lon="-0.425297"><ele>48.6</ele></trkpt>
      <trkpt lat="46.407381" lon="-0.425145"><ele>45.6</ele></trkpt>
      <trkpt lat="46.406984" lon="-0.425130"><ele>45.2</ele></trkpt>
      <trkpt lat="46.406915" lon="-0.424997"><ele>45.2</ele></trkpt>
      <trkpt lat="46.406931" lon="-0.424528"><ele>49.8</ele></trkpt>
      <trkpt lat="46.407186" lon="-0.424304"><ele>55.8</ele></trkpt>
      <trkpt lat="46.407040" lon="-0.423414"><ele>58.0</ele></trkpt>
      <trkpt lat="46.407036" lon="-0.422922"><ele>58.6</ele></trkpt>
      <trkpt lat="46.408157" lon="-0.422944"><ele>57.2</ele></trkpt>
      <trkpt lat="46.409051" lon="-0.421893"><ele>44.2</ele></trkpt>
      <trkpt lat="46.409557" lon="-0.421604"><ele>41.2</ele></trkpt>
      <trkpt lat="46.409854" lon="-0.421537"><ele>38.0</ele></trkpt>
      <trkpt lat="46.410037" lon="-0.421796"><ele>37.8</ele></trkpt>
      <trkpt lat="46.410229" lon="-0.421867"><ele>37.4</ele></trkpt>
      <trkpt lat="46.410623" lon="-0.421697"><ele>38.4</ele></trkpt>
      <trkpt lat="46.410852" lon="-0.420905"><ele>40.8</ele></trkpt>
      <trkpt lat="46.411548" lon="-0.420504"><ele>44.4</ele></trkpt>
      <trkpt lat="46.411448" lon="-0.419232"><ele>60.4</ele></trkpt>
      <trkpt lat="46.412904" lon="-0.418213"><ele>65.4</ele></trkpt>
      <trkpt lat="46.414125" lon="-0.417846"><ele>66.8</ele></trkpt>
      <trkpt lat="46.414950" lon="-0.416714"><ele>69.8</ele></trkpt>
      <trkpt lat="46.415825" lon="-0.415281"><ele>73.0</ele></trkpt>
      <trkpt lat="46.416564" lon="-0.416724"><ele>68.4</ele></trkpt>
      <trkpt lat="46.417221" lon="-0.416353"><ele>59.2</ele></trkpt>
      <trkpt lat="46.417615" lon="-0.415992"><ele>56.8</ele></trkpt>
      <trkpt lat="46.417788" lon="-0.416595"><ele>55.4</ele></trkpt>
      <trkpt lat="46.418046" lon="-0.416537"><ele>55.8</ele></trkpt>
      <trkpt lat="46.418350" lon="-0.416836"><ele>57.4</ele></trkpt>
      <trkpt lat="46.418835" lon="-0.416957"><ele>59.2</ele></trkpt>
      <trkpt lat="46.419125" lon="-0.416782"><ele>60.6</ele></trkpt>
      <trkpt lat="46.419732" lon="-0.416099"><ele>59.8</ele></trkpt>
      <trkpt lat="46.419831" lon="-0.415857"><ele>57.8</ele></trkpt>
      <trkpt lat="46.419952" lon="-0.415944"><ele>58.4</ele></trkpt>
      <trkpt lat="46.420548" lon="-0.415847"><ele>59.6</ele></trkpt>
      <trkpt lat="46.420629" lon="-0.415483"><ele>59.6</ele></trkpt>
      <trkpt lat="46.421038" lon="-0.414785"><ele>63.4</ele></trkpt>
      <trkpt lat="46.421318" lon="-0.414448"><ele>68.6</ele></trkpt>
      <trkpt lat="46.421653" lon="-0.414440"><ele>69.6</ele></trkpt>
      <trkpt lat="46.422447" lon="-0.414713"><ele>65.4</ele></trkpt>
      <trkpt lat="46.423602" lon="-0.416662"><ele>73.2</ele></trkpt>
      <trkpt lat="46.423774" lon="-0.416692"><ele>74.8</ele></trkpt>
      <trkpt lat="46.424244" lon="-0.416491"><ele>77.8</ele></trkpt>
      <trkpt lat="46.424392" lon="-0.416533"><ele>78.8</ele></trkpt>
      <trkpt lat="46.425299" lon="-0.417324"><ele>79.8</ele></trkpt>
      <trkpt lat="46.425723" lon="-0.417884"><ele>81.0</ele></trkpt>
      <trkpt lat="46.426308" lon="-0.418422"><ele>79.8</ele></trkpt>
      <trkpt lat="46.426222" lon="-0.418531"><ele>79.0</ele></trkpt>
      <trkpt lat="46.425446" lon="-0.418521"><ele>76.0</ele></trkpt>
      <trkpt lat="46.424868" lon="-0.418957"><ele>75.2</ele></trkpt>
      <trkpt lat="46.424624" lon="-0.418815"><ele>75.0</ele></trkpt>
      <trkpt lat="46.423998" lon="-0.418129"><ele>74.2</ele></trkpt>
      <trkpt lat="46.422321" lon="-0.417640"><ele>77.0</ele></trkpt>
      <trkpt lat="46.421947" lon="-0.417723"><ele>77.8</ele></trkpt>
      <trkpt lat="46.420694" lon="-0.418310"><ele>80.8</ele></trkpt>
      <trkpt lat="46.419063" lon="-0.419188"><ele>76.6</ele></trkpt>
      <trkpt lat="46.417985" lon="-0.416852"><ele>66.4</ele></trkpt>
      <trkpt lat="46.417810" lon="-0.416773"><ele>63.2</ele></trkpt>
      <trkpt lat="46.417666" lon="-0.416944"><ele>63.2</ele></trkpt>
      <trkpt lat="46.417599" lon="-0.417609"><ele>65.0</ele></trkpt>
      <trkpt lat="46.417324" lon="-0.418010"><ele>62.4</ele></trkpt>
      <trkpt lat="46.416763" lon="-0.417972"><ele>53.4</ele></trkpt>
      <trkpt lat="46.416644" lon="-0.417695"><ele>52.6</ele></trkpt>
      <trkpt lat="46.416558" lon="-0.417693"><ele>52.6</ele></trkpt>
      <trkpt lat="46.416260" lon="-0.417936"><ele>52.8</ele></trkpt>
      <trkpt lat="46.415341" lon="-0.419178"><ele>51.2</ele></trkpt>
      <trkpt lat="46.414997" lon="-0.419389"><ele>49.8</ele></trkpt>
      <trkpt lat="46.414137" lon="-0.419479"><ele>47.8</ele></trkpt>
      <trkpt lat="46.413801" lon="-0.419892"><ele>47.2</ele></trkpt>
      <trkpt lat="46.413406" lon="-0.420091"><ele>46.6</ele></trkpt>
      <trkpt lat="46.413327" lon="-0.420387"><ele>46.4</ele></trkpt>
      <trkpt lat="46.412922" lon="-0.420525"><ele>51.6</ele></trkpt>
      <trkpt lat="46.412879" lon="-0.420686"><ele>54.6</ele></trkpt>
      <trkpt lat="46.413058" lon="-0.420888"><ele>61.2</ele></trkpt>
      <trkpt lat="46.413305" lon="-0.421727"><ele>70.8</ele></trkpt>
      <trkpt lat="46.413358" lon="-0.422046"><ele>71.8</ele></trkpt>
      <trkpt lat="46.413304" lon="-0.422123"><ele>71.8</ele></trkpt>
      <trkpt lat="46.412194" lon="-0.422736"><ele>69.8</ele></trkpt>
      <trkpt lat="46.411629" lon="-0.421891"><ele>63.6</ele></trkpt>
      <trkpt lat="46.411147" lon="-0.421634"><ele>53.0</ele></trkpt>
      <trkpt lat="46.410781" lon="-0.421828"><ele>44.2</ele></trkpt>
      <trkpt lat="46.410647" lon="-0.421781"><ele>42.0</ele></trkpt>
      <trkpt lat="46.410269" lon="-0.421932"><ele>39.2</ele></trkpt>
      <trkpt lat="46.410216" lon="-0.422299"><ele>39.0</ele></trkpt>
      <trkpt lat="46.409443" lon="-0.422595"><ele>41.6</ele></trkpt>
      <trkpt lat="46.409316" lon="-0.422791"><ele>42.6</ele></trkpt>
      <trkpt lat="46.409263" lon="-0.423086"><ele>44.4</ele></trkpt>
      <trkpt lat="46.409460" lon="-0.423557"><ele>47.8</ele></trkpt>
      <trkpt lat="46.409110" lon="-0.424034"><ele>36.8</ele></trkpt>
      <trkpt lat="46.409321" lon="-0.424586"><ele>34.0</ele></trkpt>
      <trkpt lat="46.409304" lon="-0.425059"><ele>33.6</ele></trkpt>
      <trkpt lat="46.409174" lon="-0.425237"><ele>33.2</ele></trkpt>
      <trkpt lat="46.408749" lon="-0.425458"><ele>32.2</ele></trkpt>
      <trkpt lat="46.408490" lon="-0.425873"><ele>36.0</ele></trkpt>
      <trkpt lat="46.408402" lon="-0.426267"><ele>41.2</ele></trkpt>
      <trkpt lat="46.408445" lon="-0.427043"><ele>46.2</ele></trkpt>
      <trkpt lat="46.408330" lon="-0.427401"><ele>40.6</ele></trkpt>
      <trkpt lat="46.408149" lon="-0.427307"><ele>34.8</ele></trkpt>
      <trkpt lat="46.408031" lon="-0.427045"><ele>32.4</ele></trkpt>
      <trkpt lat="46.407775" lon="-0.427023"><ele>29.6</ele></trkpt>
      <trkpt lat="46.407474" lon="-0.427562"><ele>29.4</ele></trkpt>
      <trkpt lat="46.407451" lon="-0.427454"><ele>29.6</ele></trkpt>
      <trkpt lat="46.407739" lon="-0.426879"><ele>30.2</ele></trkpt>
      <trkpt lat="46.407816" lon="-0.426561"><ele>30.6</ele></trkpt>
      <trkpt lat="46.407712" lon="-0.425776"><ele>33.8</ele></trkpt>
      <trkpt lat="46.407456" lon="-0.425208"><ele>46.2</ele></trkpt>
      <trkpt lat="46.407171" lon="-0.425078"><ele>47.4</ele></trkpt>
      <trkpt lat="46.406932" lon="-0.425124"><ele>46.2</ele></trkpt>
      <trkpt lat="46.406724" lon="-0.425641"><ele>39.4</ele></trkpt>
      <trkpt lat="46.406657" lon="-0.426169"><ele>31.6</ele></trkpt>
      <trkpt lat="46.406532" lon="-0.426299"><ele>28.8</ele></trkpt>
      <trkpt lat="46.405213" lon="-0.426090"><ele>26.4</ele></trkpt>
      <trkpt lat="46.405171" lon="-0.425885"><ele>26.0</ele></trkpt>
      <trkpt lat="46.405334" lon="-0.424867"><ele>25.6</ele></trkpt>
      <trkpt lat="46.405053" lon="-0.423847"><ele>25.6</ele></trkpt>
      <trkpt lat="46.404763" lon="-0.423295"><ele>24.8</ele></trkpt>
      <trkpt lat="46.403738" lon="-0.421814"><ele>25.6</ele></trkpt>
      <trkpt lat="46.403203" lon="-0.422337"><ele>25.6</ele></trkpt>
      <trkpt lat="46.403047" lon="-0.422326"><ele>25.8</ele></trkpt>
      <trkpt lat="46.402790" lon="-0.422858"><ele>26.2</ele></trkpt>
      <trkpt lat="46.402799" lon="-0.423110"><ele>26.2</ele></trkpt>
      <trkpt lat="46.403246" lon="-0.424441"><ele>29.4</ele></trkpt>
      <trkpt lat="46.403215" lon="-0.424669"><ele>29.4</ele></trkpt>
      <trkpt lat="46.402175" lon="-0.425617"><ele>28.4</ele></trkpt>
      <trkpt lat="46.400678" lon="-0.425969"><ele>30.6</ele></trkpt>
      <trkpt lat="46.399412" lon="-0.426075"><ele>32.2</ele></trkpt>
      <trkpt lat="46.396764" lon="-0.427027"><ele>35.6</ele></trkpt>
      <trkpt lat="46.396439" lon="-0.426419"><ele>33.0</ele></trkpt>
      <trkpt lat="46.395768" lon="-0.426210"><ele>34.8</ele></trkpt>
      <trkpt lat="46.394795" lon="-0.425514"><ele>31.0</ele></trkpt>
      <trkpt lat="46.394337" lon="-0.425066"><ele>28.4</ele></trkpt>
      <trkpt lat="46.394303" lon="-0.424840"><ele>28.0</ele></trkpt>
      <trkpt lat="46.393960" lon="-0.424392"><ele>27.2</ele></trkpt>
      <trkpt lat="46.393738" lon="-0.423483"><ele>27.4</ele></trkpt>
      <trkpt lat="46.393892" lon="-0.422665"><ele>27.4</ele></trkpt>
      <trkpt lat="46.393853" lon="-0.421791"><ele>27.8</ele></trkpt>
      <trkpt lat="46.393755" lon="-0.421491"><ele>28.0</ele></trkpt>
      <trkpt lat="46.392858" lon="-0.421969"><ele>28.4</ele></trkpt>
      <trkpt lat="46.392413" lon="-0.420997"><ele>28.6</ele></trkpt>
      <trkpt lat="46.391764" lon="-0.421116"><ele>29.0</ele></trkpt>
      <trkpt lat="46.391600" lon="-0.420496"><ele>29.0</ele></trkpt>
      <trkpt lat="46.390210" lon="-0.420590"><ele>30.2</ele></trkpt>
      <trkpt lat="46.390057" lon="-0.420239"><ele>30.4</ele></trkpt>
      <trkpt lat="46.389656" lon="-0.420108"><ele>30.0</ele></trkpt>
      <trkpt lat="46.389592" lon="-0.419550"><ele>30.0</ele></trkpt>
      <trkpt lat="46.388747" lon="-0.419476"><ele>30.0</ele></trkpt>
      <trkpt lat="46.388609" lon="-0.419647"><ele>30.8</ele></trkpt>
      <trkpt lat="46.388582" lon="-0.421068"><ele>30.6</ele></trkpt>
      <trkpt lat="46.388498" lon="-0.421181"><ele>30.4</ele></trkpt>
      <trkpt lat="46.388254" lon="-0.421159"><ele>31.0</ele></trkpt>
    </trkseg>
  </trk>
</gpx>
