<?xml version="1.0" encoding="UTF-8"?>
<gpx version="1.1" creator="gpx-processor" xmlns="http://www.topografix.com/GPX/1/1">
  <metadata><name>Wildstrubel (by UTMB) 100M</name></metadata>
  <trk>
    <name>Wildstrubel (by UTMB) 100M</name>
    <trkseg>
      <trkpt lat="46.311779" lon="7.480268"><ele>1503.4</ele></trkpt>
      <trkpt lat="46.311529" lon="7.480558"><ele>1503.6</ele></trkpt>
      <trkpt lat="46.311488" lon="7.480767"><ele>1504.2</ele></trkpt>
      <trkpt lat="46.311973" lon="7.480445"><ele>1506.0</ele></trkpt>
      <trkpt lat="46.312596" lon="7.480212"><ele>1509.0</ele></trkpt>
      <trkpt lat="46.312843" lon="7.480603"><ele>1512.0</ele></trkpt>
      <trkpt lat="46.312860" lon="7.481235"><ele>1514.0</ele></trkpt>
      <trkpt lat="46.314173" lon="7.484914"><ele>1525.0</ele></trkpt>
      <trkpt lat="46.314792" lon="7.487649"><ele>1515.6</ele></trkpt>
      <trkpt lat="46.315177" lon="7.489917"><ele>1498.4</ele></trkpt>
      <trkpt lat="46.315829" lon="7.491190"><ele>1505.0</ele></trkpt>
      <trkpt lat="46.316072" lon="7.491438"><ele>1507.4</ele></trkpt>
      <trkpt lat="46.316230" lon="7.491800"><ele>1508.2</ele></trkpt>
      <trkpt lat="46.316575" lon="7.491956"><ele>1514.6</ele></trkpt>
      <trkpt lat="46.317357" lon="7.492560"><ele>1541.0</ele></trkpt>
      <trkpt lat="46.317612" lon="7.493141"><ele>1560.2</ele></trkpt>
      <trkpt lat="46.317813" lon="7.493383"><ele>1566.0</ele></trkpt>
      <trkpt lat="46.318150" lon="7.494255"><ele>1579.6</ele></trkpt>
      <trkpt lat="46.318456" lon="7.494717"><ele>1595.0</ele></trkpt>
      <trkpt lat="46.319073" lon="7.494750"><ele>1609.2</ele></trkpt>
      <trkpt lat="46.319628" lon="7.494581"><ele>1613.4</ele></trkpt>
      <trkpt lat="46.319922" lon="7.494605"><ele>1615.4</ele></trkpt>
      <trkpt lat="46.320477" lon="7.493934"><ele>1633.8</ele></trkpt>
      <trkpt lat="46.320505" lon="7.493603"><ele>1644.4</ele></trkpt>
      <trkpt lat="46.320300" lon="7.493299"><ele>1654.8</ele></trkpt>
      <trkpt lat="46.320494" lon="7.493282"><ele>1660.6</ele></trkpt>
      <trkpt lat="46.320384" lon="7.493116"><ele>1665.4</ele></trkpt>
      <trkpt lat="46.320444" lon="7.493016"><ele>1666.2</ele></trkpt>
      <trkpt lat="46.320736" lon="7.492973"><ele>1668.8</ele></trkpt>
      <trkpt lat="46.321223" lon="7.493164"><ele>1676.6</ele></trkpt>
      <trkpt lat="46.322043" lon="7.493152"><ele>1668.2</ele></trkpt>
      <trkpt lat="46.322316" lon="7.493250"><ele>1665.4</ele></trkpt>
      <trkpt lat="46.322507" lon="7.493500"><ele>1662.2</ele></trkpt>
      <trkpt lat="46.322901" lon="7.494354"><ele>1653.4</ele></trkpt>
      <trkpt lat="46.323136" lon="7.494655"><ele>1651.0</ele></trkpt>
      <trkpt lat="46.325200" lon="7.495944"><ele>1656.4</ele></trkpt>
      <trkpt lat="46.325272" lon="7.496432"><ele>1658.4</ele></trkpt>
      <trkpt lat="46.325479" lon="7.497001"><ele>1663.2</ele></trkpt>
      <trkpt lat="46.325551" lon="7.497878"><ele>1661.0</ele></trkpt>
      <trkpt lat="46.325512" lon="7.498120"><ele>1656.4</ele></trkpt>
      <trkpt lat="46.325802" lon="7.498222"><ele>1648.8</ele></trkpt>
      <trkpt lat="46.325775" lon="7.498510"><ele>1646.6</ele></trkpt>
      <trkpt lat="46.326121" lon="7.498951"><ele>1652.2</ele></trkpt>
      <trkpt lat="46.326333" lon="7.499039"><ele>1656.2</ele></trkpt>
      <trkpt lat="46.326330" lon="7.499527"><ele>1661.8</ele></trkpt>
      <trkpt lat="46.326570" lon="7.501000"><ele>1663.6</ele></trkpt>
      <trkpt lat="46.326860" lon="7.501290"><ele>1664.6</ele></trkpt>
      <trkpt lat="46.327225" lon="7.502039"><ele>1662.2</ele></trkpt>
      <trkpt lat="46.327423" lon="7.502527"><ele>1660.6</ele></trkpt>
      <trkpt lat="46.327482" lon="7.502981"><ele>1664.2</ele></trkpt>
      <trkpt lat="46.327716" lon="7.503477"><ele>1670.0</ele></trkpt>
      <trkpt lat="46.328069" lon="7.503820"><ele>1675.6</ele></trkpt>
      <trkpt lat="46.328369" lon="7.504373"><ele>1683.8</ele></trkpt>
      <trkpt lat="46.328597" lon="7.504570"><ele>1687.0</ele></trkpt>
      <trkpt lat="46.329207" lon="7.505443"><ele>1706.0</ele></trkpt>
      <trkpt lat="46.329384" lon="7.505415"><ele>1709.8</ele></trkpt>
      <trkpt lat="46.329730" lon="7.505764"><ele>1717.8</ele></trkpt>
      <trkpt lat="46.329835" lon="7.506164"><ele>1721.2</ele></trkpt>
      <trkpt lat="46.329780" lon="7.506627"><ele>1717.8</ele></trkpt>
      <trkpt lat="46.329949" lon="7.507218"><ele>1712.6</ele></trkpt>
      <trkpt lat="46.330170" lon="7.507358"><ele>1711.0</ele></trkpt>
      <trkpt lat="46.330875" lon="7.507520"><ele>1708.6</ele></trkpt>
      <trkpt lat="46.331730" lon="7.508503"><ele>1698.2</ele></trkpt>
      <trkpt lat="46.331811" lon="7.508707"><ele>1696.2</ele></trkpt>
      <trkpt lat="46.331982" lon="7.508796"><ele>1696.2</ele></trkpt>
      <trkpt lat="46.332313" lon="7.508651"><ele>1699.4</ele></trkpt>
      <trkpt lat="46.332560" lon="7.508812"><ele>1702.0</ele></trkpt>
      <trkpt lat="46.332854" lon="7.508538"><ele>1706.2</ele></trkpt>
      <trkpt lat="46.333212" lon="7.508527"><ele>1710.2</ele></trkpt>
      <trkpt lat="46.333473" lon="7.508023"><ele>1722.2</ele></trkpt>
      <trkpt lat="46.333777" lon="7.507812"><ele>1730.8</ele></trkpt>
      <trkpt lat="46.334301" lon="7.507845"><ele>1736.2</ele></trkpt>
      <trkpt lat="46.334999" lon="7.508114"><ele>1740.6</ele></trkpt>
      <trkpt lat="46.335337" lon="7.507956"><ele>1752.2</ele></trkpt>
      <trkpt lat="46.336070" lon="7.507976"><ele>1767.2</ele></trkpt>
      <trkpt lat="46.336048" lon="7.507878"><ele>1770.4</ele></trkpt>
      <trkpt lat="46.336314" lon="7.508141"><ele>1778.2</ele></trkpt>
      <trkpt lat="46.336367" lon="7.508466"><ele>1776.4</ele></trkpt>
      <trkpt lat="46.336211" lon="7.508640"><ele>1779.2</ele></trkpt>
      <trkpt lat="46.335884" lon="7.509505"><ele>1783.0</ele></trkpt>
      <trkpt lat="46.335918" lon="7.509883"><ele>1787.4</ele></trkpt>
      <trkpt lat="46.336160" lon="7.510140"><ele>1805.8</ele></trkpt>
      <trkpt lat="46.336270" lon="7.510533"><ele>1814.2</ele></trkpt>
      <trkpt lat="46.336117" lon="7.510971"><ele>1816.8</ele></trkpt>
      <trkpt lat="46.335978" lon="7.512025"><ele>1825.2</ele></trkpt>
      <trkpt lat="46.335769" lon="7.512491"><ele>1826.2</ele></trkpt>
      <trkpt lat="46.335236" lon="7.512807"><ele>1829.6</ele></trkpt>
      <trkpt lat="46.335195" lon="7.513163"><ele>1830.2</ele></trkpt>
      <trkpt lat="46.335400" lon="7.514474"><ele>1830.6</ele></trkpt>
      <trkpt lat="46.335820" lon="7.515446"><ele>1831.6</ele></trkpt>
      <trkpt lat="46.335757" lon="7.515985"><ele>1831.4</ele></trkpt>
      <trkpt lat="46.335845" lon="7.516385"><ele>1832.0</ele></trkpt>
      <trkpt lat="46.335922" lon="7.516542"><ele>1832.0</ele></trkpt>
      <trkpt lat="46.336303" lon="7.516805"><ele>1833.0</ele></trkpt>
      <trkpt lat="46.336395" lon="7.517070"><ele>1834.0</ele></trkpt>
      <trkpt lat="46.336650" lon="7.517345"><ele>1835.4</ele></trkpt>
      <trkpt lat="46.336661" lon="7.517524"><ele>1836.2</ele></trkpt>
      <trkpt lat="46.336368" lon="7.517727"><ele>1836.4</ele></trkpt>
      <trkpt lat="46.336302" lon="7.517885"><ele>1837.2</ele></trkpt>
      <trkpt lat="46.337200" lon="7.519301"><ele>1841.0</ele></trkpt>
      <trkpt lat="46.337551" lon="7.519434"><ele>1845.2</ele></trkpt>
      <trkpt lat="46.337894" lon="7.519705"><ele>1848.6</ele></trkpt>
      <trkpt lat="46.338387" lon="7.519866"><ele>1853.0</ele></trkpt>
      <trkpt lat="46.338565" lon="7.520093"><ele>1852.0</ele></trkpt>
      <trkpt lat="46.338892" lon="7.520228"><ele>1856.6</ele></trkpt>
      <trkpt lat="46.339382" lon="7.520732"><ele>1858.0</ele></trkpt>
      <trkpt lat="46.339707" lon="7.521453"><ele>1859.4</ele></trkpt>
      <trkpt lat="46.339992" lon="7.521787"><ele>1859.8</ele></trkpt>
      <trkpt lat="46.340335" lon="7.521951"><ele>1860.4</ele></trkpt>
      <trkpt lat="46.340207" lon="7.522598"><ele>1860.8</ele></trkpt>
      <trkpt lat="46.340220" lon="7.522871"><ele>1861.0</ele></trkpt>
      <trkpt lat="46.340273" lon="7.523004"><ele>1861.0</ele></trkpt>
      <trkpt lat="46.340690" lon="7.523169"><ele>1861.6</ele></trkpt>
      <trkpt lat="46.340785" lon="7.523275"><ele>1862.0</ele></trkpt>
      <trkpt lat="46.340802" lon="7.523458"><ele>1862.8</ele></trkpt>
      <trkpt lat="46.340538" lon="7.524001"><ele>1864.2</ele></trkpt>
      <trkpt lat="46.340676" lon="7.524329"><ele>1864.8</ele></trkpt>
      <trkpt lat="46.340656" lon="7.524492"><ele>1865.8</ele></trkpt>
      <trkpt lat="46.340245" lon="7.525437"><ele>1866.6</ele></trkpt>
      <trkpt lat="46.340301" lon="7.526088"><ele>1868.0</ele></trkpt>
      <trkpt lat="46.340472" lon="7.526570"><ele>1869.2</ele></trkpt>
      <trkpt lat="46.340525" lon="7.527163"><ele>1870.2</ele></trkpt>
      <trkpt lat="46.340362" lon="7.528047"><ele>1875.8</ele></trkpt>
      <trkpt lat="46.340451" lon="7.528576"><ele>1878.4</ele></trkpt>
      <trkpt lat="46.340403" lon="7.529622"><ele>1879.6</ele></trkpt>
      <trkpt lat="46.340300" lon="7.529983"><ele>1879.8</ele></trkpt>
      <trkpt lat="46.340345" lon="7.530192"><ele>1879.6</ele></trkpt>
      <trkpt lat="46.341302" lon="7.532351"><ele>1883.4</ele></trkpt>
      <trkpt lat="46.341576" lon="7.532712"><ele>1884.8</ele></trkpt>
      <trkpt lat="46.341733" lon="7.533229"><ele>1884.6</ele></trkpt>
      <trkpt lat="46.342159" lon="7.534093"><ele>1886.2</ele></trkpt>
      <trkpt lat="46.343406" lon="7.535622"><ele>1888.0</ele></trkpt>
      <trkpt lat="46.344061" lon="7.536089"><ele>1888.2</ele></trkpt>
      <trkpt lat="46.344215" lon="7.536402"><ele>1887.8</ele></trkpt>
      <trkpt lat="46.344837" lon="7.536650"><ele>1888.6</ele></trkpt>
      <trkpt lat="46.344826" lon="7.537203"><ele>1885.0</ele></trkpt>
      <trkpt lat="46.345775" lon="7.537743"><ele>1879.0</ele></trkpt>
      <trkpt lat="46.345995" lon="7.538082"><ele>1879.8</ele></trkpt>
      <trkpt lat="46.346132" lon="7.538559"><ele>1881.2</ele></trkpt>
      <trkpt lat="46.346121" lon="7.538702"><ele>1881.2</ele></trkpt>
      <trkpt lat="46.345995" lon="7.538704"><ele>1880.2</ele></trkpt>
      <trkpt lat="46.345472" lon="7.538426"><ele>1873.6</ele></trkpt>
      <trkpt lat="46.344629" lon="7.538649"><ele>1855.4</ele></trkpt>
      <trkpt lat="46.344236" lon="7.539054"><ele>1840.0</ele></trkpt>
      <trkpt lat="46.343989" lon="7.539540"><ele>1831.0</ele></trkpt>
      <trkpt lat="46.343486" lon="7.540108"><ele>1811.2</ele></trkpt>
      <trkpt lat="46.343345" lon="7.539983"><ele>1804.2</ele></trkpt>
      <trkpt lat="46.342881" lon="7.540081"><ele>1785.0</ele></trkpt>
      <trkpt lat="46.342595" lon="7.540257"><ele>1778.6</ele></trkpt>
      <trkpt lat="46.342456" lon="7.540215"><ele>1776.0</ele></trkpt>
      <trkpt lat="46.342434" lon="7.540463"><ele>1772.0</ele></trkpt>
      <trkpt lat="46.342213" lon="7.540649"><ele>1765.8</ele></trkpt>
      <trkpt lat="46.341089" lon="7.540696"><ele>1737.6</ele></trkpt>
      <trkpt lat="46.340921" lon="7.540485"><ele>1731.0</ele></trkpt>
      <trkpt lat="46.340794" lon="7.540464"><ele>1728.0</ele></trkpt>
      <trkpt lat="46.340295" lon="7.540679"><ele>1714.0</ele></trkpt>
      <trkpt lat="46.340326" lon="7.540968"><ele>1708.0</ele></trkpt>
      <trkpt lat="46.339968" lon="7.540916"><ele>1701.6</ele></trkpt>
      <trkpt lat="46.339395" lon="7.541352"><ele>1689.6</ele></trkpt>
      <trkpt lat="46.339306" lon="7.541573"><ele>1686.4</ele></trkpt>
      <trkpt lat="46.339597" lon="7.541907"><ele>1684.6</ele></trkpt>
      <trkpt lat="46.339944" lon="7.541790"><ele>1681.0</ele></trkpt>
      <trkpt lat="46.340255" lon="7.541850"><ele>1676.2</ele></trkpt>
      <trkpt lat="46.340433" lon="7.542174"><ele>1675.2</ele></trkpt>
      <trkpt lat="46.340852" lon="7.542169"><ele>1666.2</ele></trkpt>
      <trkpt lat="46.341087" lon="7.542628"><ele>1661.6</ele></trkpt>
      <trkpt lat="46.341285" lon="7.542750"><ele>1660.2</ele></trkpt>
      <trkpt lat="46.341583" lon="7.542802"><ele>1654.4</ele></trkpt>
      <trkpt lat="46.342008" lon="7.542645"><ele>1656.6</ele></trkpt>
      <trkpt lat="46.342154" lon="7.542683"><ele>1657.6</ele></trkpt>
      <trkpt lat="46.342178" lon="7.542790"><ele>1659.6</ele></trkpt>
      <trkpt lat="46.342852" lon="7.542964"><ele>1664.6</ele></trkpt>
      <trkpt lat="46.343197" lon="7.542719"><ele>1657.8</ele></trkpt>
      <trkpt lat="46.343613" lon="7.543528"><ele>1643.4</ele></trkpt>
      <trkpt lat="46.343451" lon="7.543370"><ele>1636.8</ele></trkpt>
      <trkpt lat="46.343483" lon="7.543668"><ele>1627.6</ele></trkpt>
      <trkpt lat="46.343394" lon="7.543777"><ele>1616.4</ele></trkpt>
      <trkpt lat="46.343529" lon="7.544047"><ele>1606.0</ele></trkpt>
      <trkpt lat="46.343397" lon="7.544062"><ele>1599.8</ele></trkpt>
      <trkpt lat="46.343605" lon="7.544420"><ele>1590.2</ele></trkpt>
      <trkpt lat="46.343421" lon="7.544395"><ele>1583.4</ele></trkpt>
      <trkpt lat="46.343611" lon="7.544742"><ele>1573.0</ele></trkpt>
      <trkpt lat="46.343046" lon="7.544661"><ele>1556.8</ele></trkpt>
      <trkpt lat="46.343202" lon="7.545053"><ele>1544.4</ele></trkpt>
      <trkpt lat="46.343530" lon="7.544969"><ele>1542.0</ele></trkpt>
      <trkpt lat="46.343586" lon="7.545283"><ele>1547.2</ele></trkpt>
      <trkpt lat="46.343202" lon="7.545787"><ele>1533.0</ele></trkpt>
      <trkpt lat="46.342808" lon="7.545751"><ele>1514.0</ele></trkpt>
      <trkpt lat="46.341475" lon="7.546197"><ele>1470.0</ele></trkpt>
      <trkpt lat="46.340985" lon="7.546164"><ele>1463.2</ele></trkpt>
      <trkpt lat="46.340274" lon="7.546629"><ele>1451.8</ele></trkpt>
      <trkpt lat="46.339251" lon="7.546502"><ele>1413.0</ele></trkpt>
      <trkpt lat="46.338377" lon="7.546094"><ele>1373.6</ele></trkpt>
      <trkpt lat="46.337781" lon="7.546223"><ele>1348.4</ele></trkpt>
      <trkpt lat="46.337105" lon="7.546115"><ele>1327.0</ele></trkpt>
      <trkpt lat="46.336928" lon="7.546185"><ele>1320.6</ele></trkpt>
      <trkpt lat="46.336960" lon="7.546080"><ele>1316.4</ele></trkpt>
      <trkpt lat="46.336021" lon="7.546981"><ele>1300.4</ele></trkpt>
      <trkpt lat="46.335247" lon="7.547925"><ele>1291.8</ele></trkpt>
      <trkpt lat="46.335112" lon="7.548461"><ele>1286.8</ele></trkpt>
      <trkpt lat="46.334758" lon="7.548832"><ele>1282.2</ele></trkpt>
      <trkpt lat="46.334335" lon="7.549098"><ele>1275.6</ele></trkpt>
      <trkpt lat="46.333869" lon="7.550914"><ele>1262.8</ele></trkpt>
      <trkpt lat="46.334051" lon="7.551248"><ele>1259.2</ele></trkpt>
      <trkpt lat="46.334058" lon="7.551609"><ele>1259.4</ele></trkpt>
      <trkpt lat="46.333706" lon="7.552547"><ele>1263.8</ele></trkpt>
      <trkpt lat="46.333612" lon="7.553138"><ele>1265.8</ele></trkpt>
      <trkpt lat="46.333628" lon="7.553668"><ele>1269.4</ele></trkpt>
      <trkpt lat="46.333310" lon="7.554212"><ele>1274.6</ele></trkpt>
      <trkpt lat="46.333037" lon="7.555539"><ele>1283.8</ele></trkpt>
      <trkpt lat="46.332681" lon="7.556237"><ele>1287.6</ele></trkpt>
      <trkpt lat="46.332432" lon="7.557209"><ele>1293.0</ele></trkpt>
      <trkpt lat="46.331471" lon="7.558720"><ele>1304.6</ele></trkpt>
      <trkpt lat="46.331100" lon="7.558966"><ele>1308.6</ele></trkpt>
      <trkpt lat="46.330898" lon="7.559279"><ele>1311.0</ele></trkpt>
      <trkpt lat="46.331127" lon="7.559554"><ele>1320.4</ele></trkpt>
      <trkpt lat="46.331053" lon="7.559975"><ele>1329.8</ele></trkpt>
      <trkpt lat="46.331184" lon="7.560551"><ele>1345.4</ele></trkpt>
      <trkpt lat="46.331038" lon="7.560995"><ele>1354.4</ele></trkpt>
      <trkpt lat="46.331109" lon="7.561733"><ele>1366.0</ele></trkpt>
      <trkpt lat="46.330994" lon="7.562182"><ele>1373.4</ele></trkpt>
      <trkpt lat="46.330898" lon="7.563468"><ele>1395.2</ele></trkpt>
      <trkpt lat="46.330740" lon="7.564365"><ele>1401.8</ele></trkpt>
      <trkpt lat="46.331022" lon="7.564955"><ele>1408.8</ele></trkpt>
      <trkpt lat="46.331127" lon="7.565475"><ele>1417.6</ele></trkpt>
      <trkpt lat="46.331106" lon="7.566344"><ele>1421.8</ele></trkpt>
      <trkpt lat="46.331226" lon="7.567489"><ele>1430.4</ele></trkpt>
      <trkpt lat="46.331357" lon="7.568098"><ele>1433.4</ele></trkpt>
      <trkpt lat="46.331752" lon="7.568813"><ele>1449.8</ele></trkpt>
      <trkpt lat="46.332019" lon="7.569681"><ele>1459.6</ele></trkpt>
      <trkpt lat="46.332374" lon="7.570131"><ele>1471.8</ele></trkpt>
      <trkpt lat="46.332711" lon="7.571120"><ele>1484.8</ele></trkpt>
      <trkpt lat="46.332712" lon="7.571321"><ele>1486.2</ele></trkpt>
      <trkpt lat="46.333108" lon="7.572041"><ele>1500.4</ele></trkpt>
      <trkpt lat="46.333207" lon="7.572559"><ele>1510.4</ele></trkpt>
      <trkpt lat="46.333681" lon="7.573289"><ele>1528.2</ele></trkpt>
      <trkpt lat="46.333519" lon="7.573650"><ele>1523.4</ele></trkpt>
      <trkpt lat="46.333006" lon="7.575557"><ele>1487.0</ele></trkpt>
      <trkpt lat="46.332708" lon="7.576299"><ele>1471.2</ele></trkpt>
      <trkpt lat="46.332620" lon="7.577018"><ele>1459.0</ele></trkpt>
      <trkpt lat="46.332253" lon="7.578209"><ele>1437.4</ele></trkpt>
      <trkpt lat="46.331984" lon="7.579443"><ele>1415.0</ele></trkpt>
      <trkpt lat="46.331435" lon="7.583624"><ele>1340.8</ele></trkpt>
      <trkpt lat="46.331271" lon="7.585794"><ele>1305.2</ele></trkpt>
      <trkpt lat="46.331193" lon="7.586090"><ele>1299.0</ele></trkpt>
      <trkpt lat="46.331363" lon="7.586235"><ele>1295.2</ele></trkpt>
      <trkpt lat="46.331360" lon="7.586450"><ele>1292.6</ele></trkpt>
      <trkpt lat="46.331137" lon="7.587822"><ele>1274.6</ele></trkpt>
      <trkpt lat="46.330930" lon="7.588489"><ele>1265.2</ele></trkpt>
      <trkpt lat="46.330806" lon="7.589866"><ele>1246.2</ele></trkpt>
      <trkpt lat="46.330471" lon="7.590668"><ele>1242.0</ele></trkpt>
      <trkpt lat="46.330476" lon="7.591138"><ele>1238.8</ele></trkpt>
      <trkpt lat="46.330360" lon="7.591505"><ele>1236.4</ele></trkpt>
      <trkpt lat="46.329821" lon="7.592050"><ele>1230.2</ele></trkpt>
      <trkpt lat="46.327740" lon="7.593494"><ele>1195.2</ele></trkpt>
      <trkpt lat="46.327246" lon="7.594173"><ele>1191.8</ele></trkpt>
      <trkpt lat="46.326849" lon="7.594587"><ele>1187.0</ele></trkpt>
      <trkpt lat="46.326632" lon="7.594652"><ele>1182.2</ele></trkpt>
      <trkpt lat="46.326441" lon="7.594911"><ele>1173.6</ele></trkpt>
      <trkpt lat="46.326215" lon="7.594651"><ele>1163.6</ele></trkpt>
      <trkpt lat="46.326198" lon="7.594328"><ele>1156.4</ele></trkpt>
      <trkpt lat="46.325460" lon="7.594974"><ele>1129.0</ele></trkpt>
      <trkpt lat="46.325207" lon="7.594923"><ele>1119.6</ele></trkpt>
      <trkpt lat="46.324627" lon="7.595681"><ele>1102.8</ele></trkpt>
      <trkpt lat="46.324534" lon="7.596537"><ele>1086.2</ele></trkpt>
      <trkpt lat="46.324251" lon="7.597374"><ele>1071.8</ele></trkpt>
      <trkpt lat="46.324059" lon="7.597689"><ele>1066.0</ele></trkpt>
      <trkpt lat="46.323787" lon="7.597893"><ele>1062.2</ele></trkpt>
      <trkpt lat="46.323120" lon="7.598948"><ele>1045.6</ele></trkpt>
      <trkpt lat="46.322914" lon="7.599032"><ele>1040.8</ele></trkpt>
      <trkpt lat="46.322862" lon="7.599226"><ele>1037.6</ele></trkpt>
      <trkpt lat="46.322953" lon="7.600303"><ele>1016.6</ele></trkpt>
      <trkpt lat="46.323093" lon="7.600763"><ele>1007.2</ele></trkpt>
      <trkpt lat="46.323070" lon="7.601011"><ele>1002.4</ele></trkpt>
      <trkpt lat="46.322912" lon="7.601264"><ele>994.2</ele></trkpt>
      <trkpt lat="46.323220" lon="7.603053"><ele>969.6</ele></trkpt>
      <trkpt lat="46.323099" lon="7.603697"><ele>962.2</ele></trkpt>
      <trkpt lat="46.323258" lon="7.604240"><ele>963.4</ele></trkpt>
      <trkpt lat="46.323154" lon="7.605006"><ele>968.6</ele></trkpt>
      <trkpt lat="46.323220" lon="7.605201"><ele>971.2</ele></trkpt>
      <trkpt lat="46.323370" lon="7.605258"><ele>972.6</ele></trkpt>
      <trkpt lat="46.323507" lon="7.605507"><ele>975.8</ele></trkpt>
      <trkpt lat="46.323717" lon="7.606251"><ele>984.4</ele></trkpt>
      <trkpt lat="46.323718" lon="7.606588"><ele>987.8</ele></trkpt>
      <trkpt lat="46.323578" lon="7.606809"><ele>991.0</ele></trkpt>
      <trkpt lat="46.323691" lon="7.607482"><ele>997.8</ele></trkpt>
      <trkpt lat="46.323689" lon="7.607933"><ele>1002.8</ele></trkpt>
      <trkpt lat="46.323914" lon="7.608365"><ele>1008.2</ele></trkpt>
      <trkpt lat="46.324564" lon="7.610819"><ele>1037.8</ele></trkpt>
      <trkpt lat="46.324888" lon="7.611337"><ele>1045.6</ele></trkpt>
      <trkpt lat="46.325339" lon="7.611840"><ele>1054.2</ele></trkpt>
      <trkpt lat="46.325447" lon="7.612350"><ele>1061.0</ele></trkpt>
      <trkpt lat="46.325309" lon="7.612629"><ele>1064.6</ele></trkpt>
      <trkpt lat="46.325831" lon="7.613394"><ele>1077.6</ele></trkpt>
      <trkpt lat="46.326298" lon="7.613856"><ele>1085.6</ele></trkpt>
      <trkpt lat="46.326262" lon="7.614228"><ele>1089.0</ele></trkpt>
      <trkpt lat="46.326337" lon="7.614690"><ele>1094.0</ele></trkpt>
      <trkpt lat="46.326754" lon="7.615770"><ele>1108.0</ele></trkpt>
      <trkpt lat="46.326860" lon="7.616340"><ele>1114.0</ele></trkpt>
      <trkpt lat="46.327682" lon="7.617410"><ele>1132.6</ele></trkpt>
      <trkpt lat="46.328468" lon="7.618695"><ele>1149.0</ele></trkpt>
      <trkpt lat="46.328507" lon="7.618985"><ele>1147.0</ele></trkpt>
      <trkpt lat="46.328451" lon="7.619074"><ele>1146.6</ele></trkpt>
      <trkpt lat="46.328287" lon="7.619038"><ele>1142.2</ele></trkpt>
      <trkpt lat="46.328496" lon="7.619527"><ele>1131.2</ele></trkpt>
      <trkpt lat="46.328353" lon="7.619563"><ele>1124.0</ele></trkpt>
      <trkpt lat="46.328593" lon="7.620454"><ele>1096.2</ele></trkpt>
      <trkpt lat="46.328107" lon="7.620417"><ele>1078.0</ele></trkpt>
      <trkpt lat="46.328416" lon="7.620889"><ele>1069.0</ele></trkpt>
      <trkpt lat="46.328429" lon="7.621408"><ele>1055.8</ele></trkpt>
      <trkpt lat="46.328643" lon="7.621180"><ele>1048.4</ele></trkpt>
      <trkpt lat="46.328734" lon="7.620835"><ele>1042.6</ele></trkpt>
      <trkpt lat="46.328724" lon="7.620966"><ele>1037.2</ele></trkpt>
      <trkpt lat="46.329022" lon="7.620414"><ele>1019.0</ele></trkpt>
      <trkpt lat="46.329480" lon="7.619243"><ele>998.0</ele></trkpt>
      <trkpt lat="46.329787" lon="7.618978"><ele>990.8</ele></trkpt>
      <trkpt lat="46.330121" lon="7.618918"><ele>988.8</ele></trkpt>
      <trkpt lat="46.330512" lon="7.618595"><ele>994.8</ele></trkpt>
      <trkpt lat="46.331274" lon="7.618484"><ele>1007.6</ele></trkpt>
      <trkpt lat="46.331732" lon="7.618530"><ele>1014.0</ele></trkpt>
      <trkpt lat="46.331993" lon="7.618377"><ele>1021.0</ele></trkpt>
      <trkpt lat="46.332355" lon="7.618652"><ele>1022.4</ele></trkpt>
      <trkpt lat="46.332635" lon="7.618550"><ele>1027.8</ele></trkpt>
      <trkpt lat="46.332767" lon="7.618687"><ele>1032.4</ele></trkpt>
      <trkpt lat="46.332798" lon="7.618282"><ele>1042.0</ele></trkpt>
      <trkpt lat="46.333050" lon="7.618636"><ele>1052.8</ele></trkpt>
      <trkpt lat="46.333398" lon="7.618376"><ele>1064.4</ele></trkpt>
      <trkpt lat="46.333340" lon="7.618145"><ele>1067.8</ele></trkpt>
      <trkpt lat="46.333135" lon="7.617864"><ele>1076.0</ele></trkpt>
      <trkpt lat="46.333355" lon="7.617759"><ele>1083.8</ele></trkpt>
      <trkpt lat="46.333904" lon="7.618155"><ele>1094.4</ele></trkpt>
      <trkpt lat="46.334161" lon="7.618687"><ele>1103.2</ele></trkpt>
      <trkpt lat="46.334741" lon="7.618377"><ele>1102.4</ele></trkpt>
      <trkpt lat="46.335284" lon="7.618233"><ele>1105.4</ele></trkpt>
      <trkpt lat="46.335798" lon="7.617787"><ele>1113.6</ele></trkpt>
      <trkpt lat="46.336021" lon="7.617470"><ele>1115.2</ele></trkpt>
      <trkpt lat="46.336660" lon="7.616994"><ele>1117.6</ele></trkpt>
      <trkpt lat="46.336909" lon="7.616869"><ele>1119.0</ele></trkpt>
      <trkpt lat="46.337343" lon="7.617010"><ele>1122.4</ele></trkpt>
      <trkpt lat="46.337154" lon="7.616745"><ele>1125.6</ele></trkpt>
      <trkpt lat="46.336973" lon="7.616670"><ele>1127.4</ele></trkpt>
      <trkpt lat="46.336443" lon="7.616744"><ele>1133.4</ele></trkpt>
      <trkpt lat="46.335592" lon="7.616618"><ele>1140.8</ele></trkpt>
      <trkpt lat="46.335316" lon="7.616719"><ele>1144.2</ele></trkpt>
      <trkpt lat="46.334942" lon="7.617270"><ele>1150.8</ele></trkpt>
      <trkpt lat="46.334921" lon="7.617113"><ele>1153.0</ele></trkpt>
      <trkpt lat="46.335197" lon="7.616539"><ele>1159.6</ele></trkpt>
      <trkpt lat="46.335643" lon="7.616101"><ele>1167.2</ele></trkpt>
      <trkpt lat="46.336667" lon="7.615364"><ele>1181.4</ele></trkpt>
      <trkpt lat="46.337015" lon="7.615590"><ele>1187.0</ele></trkpt>
      <trkpt lat="46.337318" lon="7.615633"><ele>1190.8</ele></trkpt>
      <trkpt lat="46.337754" lon="7.615467"><ele>1195.2</ele></trkpt>
      <trkpt lat="46.338193" lon="7.615564"><ele>1198.6</ele></trkpt>
      <trkpt lat="46.338912" lon="7.615079"><ele>1203.8</ele></trkpt>
      <trkpt lat="46.338956" lon="7.614970"><ele>1204.2</ele></trkpt>
      <trkpt lat="46.338812" lon="7.614893"><ele>1206.6</ele></trkpt>
      <trkpt lat="46.338265" lon="7.615074"><ele>1212.0</ele></trkpt>
      <trkpt lat="46.337367" lon="7.614632"><ele>1222.8</ele></trkpt>
      <trkpt lat="46.336964" lon="7.614285"><ele>1229.0</ele></trkpt>
      <trkpt lat="46.337376" lon="7.614340"><ele>1233.8</ele></trkpt>
      <trkpt lat="46.338018" lon="7.614077"><ele>1241.0</ele></trkpt>
      <trkpt lat="46.338410" lon="7.614142"><ele>1244.2</ele></trkpt>
      <trkpt lat="46.339042" lon="7.613624"><ele>1251.8</ele></trkpt>
      <trkpt lat="46.339406" lon="7.613947"><ele>1256.8</ele></trkpt>
      <trkpt lat="46.339601" lon="7.613989"><ele>1258.4</ele></trkpt>
      <trkpt lat="46.340212" lon="7.613390"><ele>1263.0</ele></trkpt>
      <trkpt lat="46.340730" lon="7.613552"><ele>1265.0</ele></trkpt>
      <trkpt lat="46.341558" lon="7.613256"><ele>1270.2</ele></trkpt>
      <trkpt lat="46.341927" lon="7.613018"><ele>1275.0</ele></trkpt>
      <trkpt lat="46.342107" lon="7.613118"><ele>1274.2</ele></trkpt>
      <trkpt lat="46.342258" lon="7.613498"><ele>1265.8</ele></trkpt>
      <trkpt lat="46.342611" lon="7.613596"><ele>1265.2</ele></trkpt>
      <trkpt lat="46.342901" lon="7.613888"><ele>1265.6</ele></trkpt>
      <trkpt lat="46.343260" lon="7.613605"><ele>1265.4</ele></trkpt>
      <trkpt lat="46.343409" lon="7.613639"><ele>1265.4</ele></trkpt>
      <trkpt lat="46.343709" lon="7.613439"><ele>1265.8</ele></trkpt>
      <trkpt lat="46.344278" lon="7.613355"><ele>1262.2</ele></trkpt>
      <trkpt lat="46.345196" lon="7.612701"><ele>1265.6</ele></trkpt>
      <trkpt lat="46.345609" lon="7.612640"><ele>1264.8</ele></trkpt>
      <trkpt lat="46.346363" lon="7.611787"><ele>1265.4</ele></trkpt>
      <trkpt lat="46.346890" lon="7.611695"><ele>1262.6</ele></trkpt>
      <trkpt lat="46.347277" lon="7.611765"><ele>1267.4</ele></trkpt>
      <trkpt lat="46.347811" lon="7.611356"><ele>1272.6</ele></trkpt>
      <trkpt lat="46.348315" lon="7.611241"><ele>1279.4</ele></trkpt>
      <trkpt lat="46.348602" lon="7.610712"><ele>1283.4</ele></trkpt>
      <trkpt lat="46.348965" lon="7.610479"><ele>1286.8</ele></trkpt>
      <trkpt lat="46.349391" lon="7.610511"><ele>1291.4</ele></trkpt>
      <trkpt lat="46.349679" lon="7.610371"><ele>1293.6</ele></trkpt>
      <trkpt lat="46.350294" lon="7.610292"><ele>1294.2</ele></trkpt>
      <trkpt lat="46.350434" lon="7.610475"><ele>1294.8</ele></trkpt>
      <trkpt lat="46.350542" lon="7.610427"><ele>1299.2</ele></trkpt>
      <trkpt lat="46.350542" lon="7.610747"><ele>1305.4</ele></trkpt>
      <trkpt lat="46.350652" lon="7.610892"><ele>1306.8</ele></trkpt>
      <trkpt lat="46.350826" lon="7.610797"><ele>1304.2</ele></trkpt>
      <trkpt lat="46.351290" lon="7.610871"><ele>1300.4</ele></trkpt>
      <trkpt lat="46.351754" lon="7.611552"><ele>1307.8</ele></trkpt>
      <trkpt lat="46.352048" lon="7.611554"><ele>1304.4</ele></trkpt>
      <trkpt lat="46.352910" lon="7.612053"><ele>1302.0</ele></trkpt>
      <trkpt lat="46.353263" lon="7.612537"><ele>1307.2</ele></trkpt>
      <trkpt lat="46.353338" lon="7.612903"><ele>1303.8</ele></trkpt>
      <trkpt lat="46.353600" lon="7.613036"><ele>1305.6</ele></trkpt>
      <trkpt lat="46.354577" lon="7.612958"><ele>1299.4</ele></trkpt>
      <trkpt lat="46.355219" lon="7.612525"><ele>1293.2</ele></trkpt>
      <trkpt lat="46.355507" lon="7.612042"><ele>1289.8</ele></trkpt>
      <trkpt lat="46.355610" lon="7.611188"><ele>1293.4</ele></trkpt>
      <trkpt lat="46.355760" lon="7.611180"><ele>1295.6</ele></trkpt>
      <trkpt lat="46.355984" lon="7.611714"><ele>1295.8</ele></trkpt>
      <trkpt lat="46.356248" lon="7.612049"><ele>1295.8</ele></trkpt>
      <trkpt lat="46.356533" lon="7.612005"><ele>1298.0</ele></trkpt>
      <trkpt lat="46.356827" lon="7.612371"><ele>1304.0</ele></trkpt>
      <trkpt lat="46.357348" lon="7.612618"><ele>1308.4</ele></trkpt>
      <trkpt lat="46.357812" lon="7.612981"><ele>1312.6</ele></trkpt>
      <trkpt lat="46.358336" lon="7.613167"><ele>1318.2</ele></trkpt>
      <trkpt lat="46.358842" lon="7.613611"><ele>1324.0</ele></trkpt>
      <trkpt lat="46.359208" lon="7.613745"><ele>1332.0</ele></trkpt>
      <trkpt lat="46.359700" lon="7.614246"><ele>1341.2</ele></trkpt>
      <trkpt lat="46.360631" lon="7.615458"><ele>1364.4</ele></trkpt>
      <trkpt lat="46.361086" lon="7.615780"><ele>1371.2</ele></trkpt>
      <trkpt lat="46.361766" lon="7.617007"><ele>1381.0</ele></trkpt>
      <trkpt lat="46.362194" lon="7.616873"><ele>1380.2</ele></trkpt>
      <trkpt lat="46.362916" lon="7.616842"><ele>1375.0</ele></trkpt>
      <trkpt lat="46.363253" lon="7.616088"><ele>1365.0</ele></trkpt>
      <trkpt lat="46.363388" lon="7.615226"><ele>1353.0</ele></trkpt>
      <trkpt lat="46.363471" lon="7.615074"><ele>1352.2</ele></trkpt>
      <trkpt lat="46.363595" lon="7.615097"><ele>1352.0</ele></trkpt>
      <trkpt lat="46.363877" lon="7.615769"><ele>1353.4</ele></trkpt>
      <trkpt lat="46.364145" lon="7.616031"><ele>1360.8</ele></trkpt>
      <trkpt lat="46.364418" lon="7.616603"><ele>1368.8</ele></trkpt>
      <trkpt lat="46.364999" lon="7.617152"><ele>1373.2</ele></trkpt>
      <trkpt lat="46.365404" lon="7.617240"><ele>1371.2</ele></trkpt>
      <trkpt lat="46.365694" lon="7.616898"><ele>1366.4</ele></trkpt>
      <trkpt lat="46.366453" lon="7.617600"><ele>1364.4</ele></trkpt>
      <trkpt lat="46.368212" lon="7.618288"><ele>1369.0</ele></trkpt>
      <trkpt lat="46.369898" lon="7.620134"><ele>1345.6</ele></trkpt>
      <trkpt lat="46.370745" lon="7.620366"><ele>1342.4</ele></trkpt>
      <trkpt lat="46.371038" lon="7.620759"><ele>1344.2</ele></trkpt>
      <trkpt lat="46.371440" lon="7.621045"><ele>1349.0</ele></trkpt>
      <trkpt lat="46.371991" lon="7.621110"><ele>1352.2</ele></trkpt>
      <trkpt lat="46.372278" lon="7.620979"><ele>1354.4</ele></trkpt>
      <trkpt lat="46.373211" lon="7.621826"><ele>1360.4</ele></trkpt>
      <trkpt lat="46.373618" lon="7.622036"><ele>1359.8</ele></trkpt>
      <trkpt lat="46.374131" lon="7.622066"><ele>1357.6</ele></trkpt>
      <trkpt lat="46.374388" lon="7.622188"><ele>1357.6</ele></trkpt>
      <trkpt lat="46.375091" lon="7.621986"><ele>1366.0</ele></trkpt>
      <trkpt lat="46.375586" lon="7.622021"><ele>1369.8</ele></trkpt>
      <trkpt lat="46.376019" lon="7.622433"><ele>1373.6</ele></trkpt>
      <trkpt lat="46.376804" lon="7.622276"><ele>1383.2</ele></trkpt>
      <trkpt lat="46.377474" lon="7.622406"><ele>1380.4</ele></trkpt>
      <trkpt lat="46.378526" lon="7.623063"><ele>1385.2</ele></trkpt>
      <trkpt lat="46.379162" lon="7.623152"><ele>1388.8</ele></trkpt>
      <trkpt lat="46.379565" lon="7.623659"><ele>1385.4</ele></trkpt>
      <trkpt lat="46.380568" lon="7.623558"><ele>1386.0</ele></trkpt>
      <trkpt lat="46.380654" lon="7.623680"><ele>1385.6</ele></trkpt>
      <trkpt lat="46.380555" lon="7.623697"><ele>1383.6</ele></trkpt>
      <trkpt lat="46.380564" lon="7.624016"><ele>1381.4</ele></trkpt>
      <trkpt lat="46.380389" lon="7.624040"><ele>1378.0</ele></trkpt>
      <trkpt lat="46.380498" lon="7.624079"><ele>1378.4</ele></trkpt>
      <trkpt lat="46.380434" lon="7.624026"><ele>1378.8</ele></trkpt>
      <trkpt lat="46.380487" lon="7.623948"><ele>1379.0</ele></trkpt>
      <trkpt lat="46.380542" lon="7.624089"><ele>1380.4</ele></trkpt>
      <trkpt lat="46.380502" lon="7.623829"><ele>1379.6</ele></trkpt>
      <trkpt lat="46.380660" lon="7.623644"><ele>1382.8</ele></trkpt>
      <trkpt lat="46.380571" lon="7.623523"><ele>1383.4</ele></trkpt>
      <trkpt lat="46.380261" lon="7.623626"><ele>1383.4</ele></trkpt>
      <trkpt lat="46.379551" lon="7.623611"><ele>1384.4</ele></trkpt>
      <trkpt lat="46.379208" lon="7.623164"><ele>1388.6</ele></trkpt>
      <trkpt lat="46.378853" lon="7.623151"><ele>1385.6</ele></trkpt>
      <trkpt lat="46.378227" lon="7.622893"><ele>1383.2</ele></trkpt>
      <trkpt lat="46.377493" lon="7.622385"><ele>1378.8</ele></trkpt>
      <trkpt lat="46.376810" lon="7.622287"><ele>1384.4</ele></trkpt>
      <trkpt lat="46.376056" lon="7.622458"><ele>1375.2</ele></trkpt>
      <trkpt lat="46.375612" lon="7.622072"><ele>1372.4</ele></trkpt>
      <trkpt lat="46.375125" lon="7.621991"><ele>1367.8</ele></trkpt>
      <trkpt lat="46.374333" lon="7.622176"><ele>1358.0</ele></trkpt>
      <trkpt lat="46.373280" lon="7.621890"><ele>1359.0</ele></trkpt>
      <trkpt lat="46.372280" lon="7.620982"><ele>1352.0</ele></trkpt>
      <trkpt lat="46.372057" lon="7.621081"><ele>1350.0</ele></trkpt>
      <trkpt lat="46.371469" lon="7.621079"><ele>1346.6</ele></trkpt>
      <trkpt lat="46.371037" lon="7.620776"><ele>1342.2</ele></trkpt>
      <trkpt lat="46.370636" lon="7.620306"><ele>1339.4</ele></trkpt>
      <trkpt lat="46.369925" lon="7.620161"><ele>1341.4</ele></trkpt>
      <trkpt lat="46.369258" lon="7.619318"><ele>1345.2</ele></trkpt>
      <trkpt lat="46.368595" lon="7.618735"><ele>1358.8</ele></trkpt>
      <trkpt lat="46.368348" lon="7.618351"><ele>1360.8</ele></trkpt>
      <trkpt lat="46.366335" lon="7.617544"><ele>1357.0</ele></trkpt>
      <trkpt lat="46.365725" lon="7.616941"><ele>1356.8</ele></trkpt>
      <trkpt lat="46.365592" lon="7.616925"><ele>1357.2</ele></trkpt>
      <trkpt lat="46.365400" lon="7.617202"><ele>1359.0</ele></trkpt>
      <trkpt lat="46.365070" lon="7.617183"><ele>1365.0</ele></trkpt>
      <trkpt lat="46.364382" lon="7.616578"><ele>1361.2</ele></trkpt>
      <trkpt lat="46.364191" lon="7.616162"><ele>1357.0</ele></trkpt>
      <trkpt lat="46.363747" lon="7.615580"><ele>1344.8</ele></trkpt>
      <trkpt lat="46.363567" lon="7.615121"><ele>1343.2</ele></trkpt>
      <trkpt lat="46.363473" lon="7.615065"><ele>1343.4</ele></trkpt>
      <trkpt lat="46.363259" lon="7.615654"><ele>1348.0</ele></trkpt>
      <trkpt lat="46.363176" lon="7.616291"><ele>1358.0</ele></trkpt>
      <trkpt lat="46.362956" lon="7.616858"><ele>1365.4</ele></trkpt>
      <trkpt lat="46.362283" lon="7.616891"><ele>1371.4</ele></trkpt>
      <trkpt lat="46.361768" lon="7.617038"><ele>1373.6</ele></trkpt>
      <trkpt lat="46.361085" lon="7.615800"><ele>1365.2</ele></trkpt>
      <trkpt lat="46.360643" lon="7.615493"><ele>1359.2</ele></trkpt>
      <trkpt lat="46.360361" lon="7.615016"><ele>1349.4</ele></trkpt>
      <trkpt lat="46.359289" lon="7.613838"><ele>1326.0</ele></trkpt>
      <trkpt lat="46.358854" lon="7.613635"><ele>1317.8</ele></trkpt>
      <trkpt lat="46.358278" lon="7.613165"><ele>1311.0</ele></trkpt>
      <trkpt lat="46.357881" lon="7.613019"><ele>1306.4</ele></trkpt>
      <trkpt lat="46.356840" lon="7.612379"><ele>1297.8</ele></trkpt>
      <trkpt lat="46.356557" lon="7.612028"><ele>1293.0</ele></trkpt>
      <trkpt lat="46.356120" lon="7.611949"><ele>1287.8</ele></trkpt>
      <trkpt lat="46.355802" lon="7.611395"><ele>1283.4</ele></trkpt>
      <trkpt lat="46.355760" lon="7.611142"><ele>1285.4</ele></trkpt>
      <trkpt lat="46.355652" lon="7.611156"><ele>1285.6</ele></trkpt>
      <trkpt lat="46.355568" lon="7.611337"><ele>1285.2</ele></trkpt>
      <trkpt lat="46.355452" lon="7.612212"><ele>1282.2</ele></trkpt>
      <trkpt lat="46.355275" lon="7.612462"><ele>1282.2</ele></trkpt>
      <trkpt lat="46.354601" lon="7.612914"><ele>1287.2</ele></trkpt>
      <trkpt lat="46.353580" lon="7.613023"><ele>1295.4</ele></trkpt>
      <trkpt lat="46.353333" lon="7.612903"><ele>1291.8</ele></trkpt>
      <trkpt lat="46.353328" lon="7.612616"><ele>1295.0</ele></trkpt>
      <trkpt lat="46.352883" lon="7.612041"><ele>1291.2</ele></trkpt>
      <trkpt lat="46.352134" lon="7.611617"><ele>1293.2</ele></trkpt>
      <trkpt lat="46.351817" lon="7.611626"><ele>1294.2</ele></trkpt>
      <trkpt lat="46.351268" lon="7.610828"><ele>1287.0</ele></trkpt>
      <trkpt lat="46.351066" lon="7.610891"><ele>1285.6</ele></trkpt>
      <trkpt lat="46.350891" lon="7.610777"><ele>1286.8</ele></trkpt>
      <trkpt lat="46.350682" lon="7.610896"><ele>1289.6</ele></trkpt>
      <trkpt lat="46.350536" lon="7.610736"><ele>1292.8</ele></trkpt>
      <trkpt lat="46.350551" lon="7.610385"><ele>1285.8</ele></trkpt>
      <trkpt lat="46.350465" lon="7.610471"><ele>1280.8</ele></trkpt>
      <trkpt lat="46.350267" lon="7.610272"><ele>1278.4</ele></trkpt>
      <trkpt lat="46.349692" lon="7.610378"><ele>1279.6</ele></trkpt>
      <trkpt lat="46.349431" lon="7.610560"><ele>1277.0</ele></trkpt>
      <trkpt lat="46.348991" lon="7.610485"><ele>1272.4</ele></trkpt>
      <trkpt lat="46.348571" lon="7.610797"><ele>1268.0</ele></trkpt>
      <trkpt lat="46.348264" lon="7.611279"><ele>1262.4</ele></trkpt>
      <trkpt lat="46.347887" lon="7.611299"><ele>1256.6</ele></trkpt>
      <trkpt lat="46.347280" lon="7.611742"><ele>1249.8</ele></trkpt>
      <trkpt lat="46.346714" lon="7.611713"><ele>1242.6</ele></trkpt>
      <trkpt lat="46.346336" lon="7.611803"><ele>1245.6</ele></trkpt>
      <trkpt lat="46.345582" lon="7.612657"><ele>1247.4</ele></trkpt>
      <trkpt lat="46.345216" lon="7.612711"><ele>1249.0</ele></trkpt>
      <trkpt lat="46.344460" lon="7.613257"><ele>1246.6</ele></trkpt>
      <trkpt lat="46.343224" lon="7.613628"><ele>1251.8</ele></trkpt>
      <trkpt lat="46.342909" lon="7.613900"><ele>1251.6</ele></trkpt>
      <trkpt lat="46.342569" lon="7.613557"><ele>1251.0</ele></trkpt>
      <trkpt lat="46.342270" lon="7.613530"><ele>1251.2</ele></trkpt>
      <trkpt lat="46.342039" lon="7.613023"><ele>1260.4</ele></trkpt>
      <trkpt lat="46.340774" lon="7.613524"><ele>1251.4</ele></trkpt>
      <trkpt lat="46.340215" lon="7.613364"><ele>1249.8</ele></trkpt>
      <trkpt lat="46.339781" lon="7.613885"><ele>1247.0</ele></trkpt>
      <trkpt lat="46.339555" lon="7.614010"><ele>1244.6</ele></trkpt>
      <trkpt lat="46.339345" lon="7.613935"><ele>1242.2</ele></trkpt>
      <trkpt lat="46.339075" lon="7.613624"><ele>1238.2</ele></trkpt>
      <trkpt lat="46.338949" lon="7.613672"><ele>1237.2</ele></trkpt>
      <trkpt lat="46.338675" lon="7.614054"><ele>1234.0</ele></trkpt>
      <trkpt lat="46.338489" lon="7.614131"><ele>1232.0</ele></trkpt>
      <trkpt lat="46.338029" lon="7.614118"><ele>1228.0</ele></trkpt>
      <trkpt lat="46.337385" lon="7.614345"><ele>1221.0</ele></trkpt>
      <trkpt lat="46.336995" lon="7.614184"><ele>1215.8</ele></trkpt>
      <trkpt lat="46.336964" lon="7.614387"><ele>1214.6</ele></trkpt>
      <trkpt lat="46.338275" lon="7.615029"><ele>1200.0</ele></trkpt>
      <trkpt lat="46.338889" lon="7.614896"><ele>1194.4</ele></trkpt>
      <trkpt lat="46.338950" lon="7.615077"><ele>1192.2</ele></trkpt>
      <trkpt lat="46.338234" lon="7.615539"><ele>1186.8</ele></trkpt>
      <trkpt lat="46.337833" lon="7.615453"><ele>1183.6</ele></trkpt>
      <trkpt lat="46.337412" lon="7.615591"><ele>1180.2</ele></trkpt>
      <trkpt lat="46.337006" lon="7.615565"><ele>1175.2</ele></trkpt>
      <trkpt lat="46.336662" lon="7.615378"><ele>1170.6</ele></trkpt>
      <trkpt lat="46.335680" lon="7.616036"><ele>1160.0</ele></trkpt>
      <trkpt lat="46.335159" lon="7.616601"><ele>1154.2</ele></trkpt>
      <trkpt lat="46.334918" lon="7.617277"><ele>1148.0</ele></trkpt>
      <trkpt lat="46.335317" lon="7.616802"><ele>1142.0</ele></trkpt>
      <trkpt lat="46.335705" lon="7.616677"><ele>1137.6</ele></trkpt>
      <trkpt lat="46.336351" lon="7.616730"><ele>1130.2</ele></trkpt>
      <trkpt lat="46.337025" lon="7.616641"><ele>1123.6</ele></trkpt>
      <trkpt lat="46.337358" lon="7.617023"><ele>1119.8</ele></trkpt>
      <trkpt lat="46.336984" lon="7.616853"><ele>1114.8</ele></trkpt>
      <trkpt lat="46.336782" lon="7.616924"><ele>1114.2</ele></trkpt>
      <trkpt lat="46.336036" lon="7.617412"><ele>1111.8</ele></trkpt>
      <trkpt lat="46.335373" lon="7.618218"><ele>1105.2</ele></trkpt>
      <trkpt lat="46.334107" lon="7.618648"><ele>1100.2</ele></trkpt>
      <trkpt lat="46.333870" lon="7.618185"><ele>1091.0</ele></trkpt>
      <trkpt lat="46.333353" lon="7.617821"><ele>1083.0</ele></trkpt>
      <trkpt lat="46.333118" lon="7.617937"><ele>1076.2</ele></trkpt>
      <trkpt lat="46.333396" lon="7.618358"><ele>1067.4</ele></trkpt>
      <trkpt lat="46.333385" lon="7.618469"><ele>1066.2</ele></trkpt>
      <trkpt lat="46.333069" lon="7.618687"><ele>1057.2</ele></trkpt>
      <trkpt lat="46.332759" lon="7.618368"><ele>1047.8</ele></trkpt>
      <trkpt lat="46.332774" lon="7.618730"><ele>1042.8</ele></trkpt>
      <trkpt lat="46.332671" lon="7.618585"><ele>1039.2</ele></trkpt>
      <trkpt lat="46.332368" lon="7.618682"><ele>1032.6</ele></trkpt>
      <trkpt lat="46.331963" lon="7.618434"><ele>1032.8</ele></trkpt>
      <trkpt lat="46.331695" lon="7.618575"><ele>1026.2</ele></trkpt>
      <trkpt lat="46.331268" lon="7.618476"><ele>1018.2</ele></trkpt>
      <trkpt lat="46.330515" lon="7.618551"><ele>1005.4</ele></trkpt>
      <trkpt lat="46.329703" lon="7.618822"><ele>1000.6</ele></trkpt>
      <trkpt lat="46.329469" lon="7.619030"><ele>1003.4</ele></trkpt>
      <trkpt lat="46.329338" lon="7.619365"><ele>1009.2</ele></trkpt>
      <trkpt lat="46.329310" lon="7.619697"><ele>1014.8</ele></trkpt>
      <trkpt lat="46.329153" lon="7.619827"><ele>1018.0</ele></trkpt>
      <trkpt lat="46.328978" lon="7.620253"><ele>1025.8</ele></trkpt>
      <trkpt lat="46.328846" lon="7.620367"><ele>1031.2</ele></trkpt>
      <trkpt lat="46.328696" lon="7.620924"><ele>1040.4</ele></trkpt>
      <trkpt lat="46.328675" lon="7.620754"><ele>1043.6</ele></trkpt>
      <trkpt lat="46.328578" lon="7.621256"><ele>1050.6</ele></trkpt>
      <trkpt lat="46.328395" lon="7.621395"><ele>1055.2</ele></trkpt>
      <trkpt lat="46.328431" lon="7.620968"><ele>1065.0</ele></trkpt>
      <trkpt lat="46.328116" lon="7.620410"><ele>1072.8</ele></trkpt>
      <trkpt lat="46.328614" lon="7.620453"><ele>1086.8</ele></trkpt>
      <trkpt lat="46.328483" lon="7.620154"><ele>1095.8</ele></trkpt>
      <trkpt lat="46.328359" lon="7.619507"><ele>1111.2</ele></trkpt>
      <trkpt lat="46.328504" lon="7.619574"><ele>1117.0</ele></trkpt>
      <trkpt lat="46.328302" lon="7.619045"><ele>1128.2</ele></trkpt>
      <trkpt lat="46.328492" lon="7.619034"><ele>1135.0</ele></trkpt>
      <trkpt lat="46.328483" lon="7.618804"><ele>1136.0</ele></trkpt>
      <trkpt lat="46.327730" lon="7.617529"><ele>1129.2</ele></trkpt>
      <trkpt lat="46.326856" lon="7.616386"><ele>1113.2</ele></trkpt>
      <trkpt lat="46.326783" lon="7.615926"><ele>1107.0</ele></trkpt>
      <trkpt lat="46.326318" lon="7.614641"><ele>1091.4</ele></trkpt>
      <trkpt lat="46.326257" lon="7.614303"><ele>1087.8</ele></trkpt>
      <trkpt lat="46.326293" lon="7.613889"><ele>1083.6</ele></trkpt>
      <trkpt lat="46.325858" lon="7.613467"><ele>1076.8</ele></trkpt>
      <trkpt lat="46.325303" lon="7.612693"><ele>1063.8</ele></trkpt>
      <trkpt lat="46.325283" lon="7.612576"><ele>1062.8</ele></trkpt>
      <trkpt lat="46.325444" lon="7.612295"><ele>1059.6</ele></trkpt>
      <trkpt lat="46.325329" lon="7.611881"><ele>1054.6</ele></trkpt>
      <trkpt lat="46.324916" lon="7.611454"><ele>1048.2</ele></trkpt>
      <trkpt lat="46.324578" lon="7.610877"><ele>1039.6</ele></trkpt>
      <trkpt lat="46.323875" lon="7.608324"><ele>1011.2</ele></trkpt>
      <trkpt lat="46.323676" lon="7.607950"><ele>1005.8</ele></trkpt>
      <trkpt lat="46.323567" lon="7.606833"><ele>994.2</ele></trkpt>
      <trkpt lat="46.323707" lon="7.606503"><ele>990.8</ele></trkpt>
      <trkpt lat="46.323660" lon="7.606126"><ele>986.8</ele></trkpt>
      <trkpt lat="46.323454" lon="7.605518"><ele>979.8</ele></trkpt>
      <trkpt lat="46.323137" lon="7.604968"><ele>973.0</ele></trkpt>
      <trkpt lat="46.323153" lon="7.604487"><ele>968.2</ele></trkpt>
      <trkpt lat="46.323246" lon="7.604208"><ele>967.2</ele></trkpt>
      <trkpt lat="46.323065" lon="7.603649"><ele>964.2</ele></trkpt>
      <trkpt lat="46.323169" lon="7.603431"><ele>967.4</ele></trkpt>
      <trkpt lat="46.323199" lon="7.602903"><ele>973.0</ele></trkpt>
      <trkpt lat="46.322909" lon="7.601264"><ele>997.2</ele></trkpt>
      <trkpt lat="46.323027" lon="7.601009"><ele>1005.2</ele></trkpt>
      <trkpt lat="46.323035" lon="7.600642"><ele>1014.2</ele></trkpt>
      <trkpt lat="46.322915" lon="7.600327"><ele>1022.4</ele></trkpt>
      <trkpt lat="46.322873" lon="7.599208"><ele>1043.2</ele></trkpt>
      <trkpt lat="46.322915" lon="7.599074"><ele>1046.0</ele></trkpt>
      <trkpt lat="46.323101" lon="7.598963"><ele>1051.6</ele></trkpt>
      <trkpt lat="46.323747" lon="7.597882"><ele>1071.4</ele></trkpt>
      <trkpt lat="46.324074" lon="7.597655"><ele>1075.2</ele></trkpt>
      <trkpt lat="46.324226" lon="7.597393"><ele>1082.0</ele></trkpt>
      <trkpt lat="46.324494" lon="7.596583"><ele>1095.4</ele></trkpt>
      <trkpt lat="46.324667" lon="7.595561"><ele>1113.6</ele></trkpt>
      <trkpt lat="46.325185" lon="7.594894"><ele>1129.8</ele></trkpt>
      <trkpt lat="46.325394" lon="7.594975"><ele>1135.8</ele></trkpt>
      <trkpt lat="46.326082" lon="7.594344"><ele>1162.4</ele></trkpt>
      <trkpt lat="46.326224" lon="7.594344"><ele>1167.0</ele></trkpt>
      <trkpt lat="46.326215" lon="7.594644"><ele>1173.0</ele></trkpt>
      <trkpt lat="46.326370" lon="7.594861"><ele>1181.0</ele></trkpt>
      <trkpt lat="46.326459" lon="7.594754"><ele>1185.8</ele></trkpt>
      <trkpt lat="46.326541" lon="7.594795"><ele>1188.0</ele></trkpt>
      <trkpt lat="46.326610" lon="7.594601"><ele>1190.2</ele></trkpt>
      <trkpt lat="46.327048" lon="7.594320"><ele>1199.2</ele></trkpt>
      <trkpt lat="46.327755" lon="7.593415"><ele>1204.8</ele></trkpt>
      <trkpt lat="46.329743" lon="7.592048"><ele>1238.8</ele></trkpt>
      <trkpt lat="46.330387" lon="7.591351"><ele>1247.6</ele></trkpt>
      <trkpt lat="46.330454" lon="7.591143"><ele>1248.4</ele></trkpt>
      <trkpt lat="46.330422" lon="7.590773"><ele>1251.8</ele></trkpt>
      <trkpt lat="46.330753" lon="7.589827"><ele>1259.0</ele></trkpt>
      <trkpt lat="46.330946" lon="7.588336"><ele>1277.0</ele></trkpt>
      <trkpt lat="46.331182" lon="7.587500"><ele>1288.0</ele></trkpt>
      <trkpt lat="46.331341" lon="7.586404"><ele>1305.8</ele></trkpt>
      <trkpt lat="46.331337" lon="7.586268"><ele>1306.8</ele></trkpt>
      <trkpt lat="46.331198" lon="7.586221"><ele>1309.8</ele></trkpt>
      <trkpt lat="46.331169" lon="7.586045"><ele>1311.4</ele></trkpt>
      <trkpt lat="46.331240" lon="7.585895"><ele>1316.0</ele></trkpt>
      <trkpt lat="46.331460" lon="7.583036"><ele>1363.4</ele></trkpt>
      <trkpt lat="46.331587" lon="7.582595"><ele>1370.6</ele></trkpt>
      <trkpt lat="46.331647" lon="7.581647"><ele>1385.0</ele></trkpt>
      <trkpt lat="46.332008" lon="7.579208"><ele>1422.2</ele></trkpt>
      <trkpt lat="46.332628" lon="7.576999"><ele>1458.4</ele></trkpt>
      <trkpt lat="46.332721" lon="7.576555"><ele>1464.2</ele></trkpt>
      <trkpt lat="46.332701" lon="7.576303"><ele>1468.4</ele></trkpt>
      <trkpt lat="46.333373" lon="7.574297"><ele>1502.2</ele></trkpt>
      <trkpt lat="46.333460" lon="7.573923"><ele>1509.4</ele></trkpt>
      <trkpt lat="46.333415" lon="7.573540"><ele>1515.0</ele></trkpt>
      <trkpt lat="46.333568" lon="7.573333"><ele>1519.0</ele></trkpt>
      <trkpt lat="46.333595" lon="7.573468"><ele>1521.6</ele></trkpt>
      <trkpt lat="46.333689" lon="7.573288"><ele>1526.0</ele></trkpt>
      <trkpt lat="46.333218" lon="7.572649"><ele>1512.8</ele></trkpt>
      <trkpt lat="46.333073" lon="7.572031"><ele>1500.8</ele></trkpt>
      <trkpt lat="46.332719" lon="7.571399"><ele>1487.6</ele></trkpt>
      <trkpt lat="46.332365" lon="7.570187"><ele>1473.4</ele></trkpt>
      <trkpt lat="46.331946" lon="7.569574"><ele>1456.8</ele></trkpt>
      <trkpt lat="46.331739" lon="7.568890"><ele>1449.4</ele></trkpt>
      <trkpt lat="46.331346" lon="7.568151"><ele>1432.2</ele></trkpt>
      <trkpt lat="46.331222" lon="7.567561"><ele>1428.4</ele></trkpt>
      <trkpt lat="46.331113" lon="7.566811"><ele>1422.2</ele></trkpt>
      <trkpt lat="46.331109" lon="7.565503"><ele>1416.4</ele></trkpt>
      <trkpt lat="46.330994" lon="7.564985"><ele>1407.2</ele></trkpt>
      <trkpt lat="46.330724" lon="7.564392"><ele>1398.2</ele></trkpt>
      <trkpt lat="46.330758" lon="7.563839"><ele>1392.6</ele></trkpt>
      <trkpt lat="46.330905" lon="7.563299"><ele>1388.8</ele></trkpt>
      <trkpt lat="46.330981" lon="7.562112"><ele>1368.0</ele></trkpt>
      <trkpt lat="46.331096" lon="7.561740"><ele>1362.2</ele></trkpt>
      <trkpt lat="46.331017" lon="7.561493"><ele>1358.0</ele></trkpt>
      <trkpt lat="46.331017" lon="7.560970"><ele>1349.8</ele></trkpt>
      <trkpt lat="46.331160" lon="7.560485"><ele>1340.0</ele></trkpt>
      <trkpt lat="46.331037" lon="7.559901"><ele>1324.4</ele></trkpt>
      <trkpt lat="46.331108" lon="7.559546"><ele>1317.2</ele></trkpt>
      <trkpt lat="46.330874" lon="7.559187"><ele>1305.4</ele></trkpt>
      <trkpt lat="46.331538" lon="7.558544"><ele>1297.6</ele></trkpt>
      <trkpt lat="46.332431" lon="7.557091"><ele>1286.2</ele></trkpt>
      <trkpt lat="46.332616" lon="7.556278"><ele>1281.0</ele></trkpt>
      <trkpt lat="46.333039" lon="7.555449"><ele>1276.6</ele></trkpt>
      <trkpt lat="46.333164" lon="7.554992"><ele>1273.0</ele></trkpt>
      <trkpt lat="46.333205" lon="7.554387"><ele>1269.4</ele></trkpt>
      <trkpt lat="46.333563" lon="7.553673"><ele>1263.0</ele></trkpt>
      <trkpt lat="46.333577" lon="7.552900"><ele>1259.2</ele></trkpt>
      <trkpt lat="46.333762" lon="7.552075"><ele>1257.6</ele></trkpt>
      <trkpt lat="46.334038" lon="7.551423"><ele>1255.6</ele></trkpt>
      <trkpt lat="46.333784" lon="7.550976"><ele>1257.2</ele></trkpt>
      <trkpt lat="46.334119" lon="7.549852"><ele>1265.0</ele></trkpt>
      <trkpt lat="46.334267" lon="7.549169"><ele>1270.6</ele></trkpt>
      <trkpt lat="46.334211" lon="7.549172"><ele>1270.2</ele></trkpt>
      <trkpt lat="46.334300" lon="7.549209"><ele>1270.2</ele></trkpt>
      <trkpt lat="46.334261" lon="7.549135"><ele>1271.2</ele></trkpt>
      <trkpt lat="46.334720" lon="7.548827"><ele>1276.2</ele></trkpt>
      <trkpt lat="46.334999" lon="7.548455"><ele>1280.4</ele></trkpt>
      <trkpt lat="46.335180" lon="7.547816"><ele>1286.8</ele></trkpt>
      <trkpt lat="46.336786" lon="7.546000"><ele>1315.6</ele></trkpt>
      <trkpt lat="46.336843" lon="7.546017"><ele>1317.4</ele></trkpt>
      <trkpt lat="46.336801" lon="7.546111"><ele>1320.0</ele></trkpt>
      <trkpt lat="46.337091" lon="7.546040"><ele>1331.0</ele></trkpt>
      <trkpt lat="46.337307" lon="7.546131"><ele>1338.6</ele></trkpt>
      <trkpt lat="46.338252" lon="7.546050"><ele>1377.4</ele></trkpt>
      <trkpt lat="46.338984" lon="7.546390"><ele>1414.4</ele></trkpt>
      <trkpt lat="46.339962" lon="7.546579"><ele>1455.6</ele></trkpt>
      <trkpt lat="46.340405" lon="7.546538"><ele>1465.4</ele></trkpt>
      <trkpt lat="46.340674" lon="7.546253"><ele>1470.4</ele></trkpt>
      <trkpt lat="46.341396" lon="7.546158"><ele>1482.4</ele></trkpt>
      <trkpt lat="46.342554" lon="7.545707"><ele>1519.8</ele></trkpt>
      <trkpt lat="46.343128" lon="7.545743"><ele>1546.4</ele></trkpt>
      <trkpt lat="46.343513" lon="7.545148"><ele>1560.6</ele></trkpt>
      <trkpt lat="46.343194" lon="7.545214"><ele>1558.6</ele></trkpt>
      <trkpt lat="46.343019" lon="7.544770"><ele>1571.2</ele></trkpt>
      <trkpt lat="46.343566" lon="7.544821"><ele>1588.4</ele></trkpt>
      <trkpt lat="46.343395" lon="7.544507"><ele>1597.6</ele></trkpt>
      <trkpt lat="46.343599" lon="7.544492"><ele>1604.2</ele></trkpt>
      <trkpt lat="46.343358" lon="7.544230"><ele>1613.8</ele></trkpt>
      <trkpt lat="46.343503" lon="7.544182"><ele>1620.6</ele></trkpt>
      <trkpt lat="46.343401" lon="7.544059"><ele>1625.2</ele></trkpt>
      <trkpt lat="46.343376" lon="7.543814"><ele>1636.2</ele></trkpt>
      <trkpt lat="46.343455" lon="7.543791"><ele>1640.8</ele></trkpt>
      <trkpt lat="46.343375" lon="7.543436"><ele>1650.6</ele></trkpt>
      <trkpt lat="46.343589" lon="7.543631"><ele>1657.4</ele></trkpt>
      <trkpt lat="46.343245" lon="7.542913"><ele>1674.6</ele></trkpt>
      <trkpt lat="46.343140" lon="7.542883"><ele>1681.4</ele></trkpt>
      <trkpt lat="46.343189" lon="7.542934"><ele>1683.6</ele></trkpt>
      <trkpt lat="46.343054" lon="7.543033"><ele>1685.2</ele></trkpt>
      <trkpt lat="46.342768" lon="7.543097"><ele>1687.4</ele></trkpt>
      <trkpt lat="46.342231" lon="7.542978"><ele>1688.0</ele></trkpt>
      <trkpt lat="46.342104" lon="7.542815"><ele>1686.0</ele></trkpt>
      <trkpt lat="46.341718" lon="7.542864"><ele>1688.4</ele></trkpt>
      <trkpt lat="46.341596" lon="7.542972"><ele>1685.4</ele></trkpt>
      <trkpt lat="46.341235" lon="7.542915"><ele>1690.0</ele></trkpt>
      <trkpt lat="46.341058" lon="7.542764"><ele>1692.0</ele></trkpt>
      <trkpt lat="46.340871" lon="7.542336"><ele>1695.8</ele></trkpt>
      <trkpt lat="46.340390" lon="7.542300"><ele>1705.2</ele></trkpt>
      <trkpt lat="46.340190" lon="7.541906"><ele>1707.0</ele></trkpt>
      <trkpt lat="46.339624" lon="7.541790"><ele>1713.2</ele></trkpt>
      <trkpt lat="46.339507" lon="7.541869"><ele>1713.8</ele></trkpt>
      <trkpt lat="46.339316" lon="7.541615"><ele>1713.8</ele></trkpt>
      <trkpt lat="46.339340" lon="7.541368"><ele>1715.2</ele></trkpt>
      <trkpt lat="46.339540" lon="7.541068"><ele>1719.0</ele></trkpt>
      <trkpt lat="46.339913" lon="7.540884"><ele>1724.6</ele></trkpt>
      <trkpt lat="46.340286" lon="7.540961"><ele>1730.2</ele></trkpt>
      <trkpt lat="46.340265" lon="7.540642"><ele>1736.6</ele></trkpt>
      <trkpt lat="46.340717" lon="7.540466"><ele>1748.6</ele></trkpt>
      <trkpt lat="46.341145" lon="7.540704"><ele>1759.4</ele></trkpt>
      <trkpt lat="46.341808" lon="7.540569"><ele>1773.0</ele></trkpt>
      <trkpt lat="46.342138" lon="7.540607"><ele>1780.4</ele></trkpt>
      <trkpt lat="46.342432" lon="7.540359"><ele>1788.0</ele></trkpt>
      <trkpt lat="46.342457" lon="7.540196"><ele>1792.0</ele></trkpt>
      <trkpt lat="46.342580" lon="7.540209"><ele>1792.8</ele></trkpt>
      <trkpt lat="46.342906" lon="7.539974"><ele>1800.6</ele></trkpt>
      <trkpt lat="46.343307" lon="7.539927"><ele>1815.6</ele></trkpt>
      <trkpt lat="46.343460" lon="7.540069"><ele>1821.6</ele></trkpt>
      <trkpt lat="46.344530" lon="7.538575"><ele>1859.2</ele></trkpt>
      <trkpt lat="46.344851" lon="7.538590"><ele>1867.0</ele></trkpt>
      <trkpt lat="46.345410" lon="7.538404"><ele>1876.2</ele></trkpt>
      <trkpt lat="46.346058" lon="7.538659"><ele>1884.0</ele></trkpt>
      <trkpt lat="46.346123" lon="7.538573"><ele>1885.0</ele></trkpt>
      <trkpt lat="46.345943" lon="7.537980"><ele>1884.0</ele></trkpt>
      <trkpt lat="46.345711" lon="7.537653"><ele>1883.6</ele></trkpt>
      <trkpt lat="46.344811" lon="7.537184"><ele>1886.8</ele></trkpt>
      <trkpt lat="46.344802" lon="7.536580"><ele>1890.6</ele></trkpt>
      <trkpt lat="46.344205" lon="7.536357"><ele>1891.4</ele></trkpt>
      <trkpt lat="46.343977" lon="7.535947"><ele>1890.8</ele></trkpt>
      <trkpt lat="46.343227" lon="7.535443"><ele>1889.6</ele></trkpt>
      <trkpt lat="46.342063" lon="7.533989"><ele>1886.4</ele></trkpt>
      <trkpt lat="46.341897" lon="7.533694"><ele>1886.4</ele></trkpt>
      <trkpt lat="46.341577" lon="7.532706"><ele>1885.8</ele></trkpt>
      <trkpt lat="46.341235" lon="7.532235"><ele>1884.6</ele></trkpt>
      <trkpt lat="46.340328" lon="7.530241"><ele>1881.0</ele></trkpt>
      <trkpt lat="46.340264" lon="7.530034"><ele>1880.6</ele></trkpt>
      <trkpt lat="46.340388" lon="7.529397"><ele>1880.6</ele></trkpt>
      <trkpt lat="46.340440" lon="7.528422"><ele>1880.6</ele></trkpt>
      <trkpt lat="46.340355" lon="7.527982"><ele>1878.6</ele></trkpt>
      <trkpt lat="46.340517" lon="7.526940"><ele>1872.6</ele></trkpt>
      <trkpt lat="46.340447" lon="7.526530"><ele>1871.4</ele></trkpt>
      <trkpt lat="46.340291" lon="7.526218"><ele>1871.2</ele></trkpt>
      <trkpt lat="46.340209" lon="7.525388"><ele>1869.0</ele></trkpt>
      <trkpt lat="46.340659" lon="7.524340"><ele>1867.4</ele></trkpt>
      <trkpt lat="46.340516" lon="7.524084"><ele>1866.4</ele></trkpt>
      <trkpt lat="46.340555" lon="7.523845"><ele>1865.6</ele></trkpt>
      <trkpt lat="46.340762" lon="7.523438"><ele>1864.6</ele></trkpt>
      <trkpt lat="46.340773" lon="7.523228"><ele>1864.0</ele></trkpt>
      <trkpt lat="46.340236" lon="7.522879"><ele>1861.8</ele></trkpt>
      <trkpt lat="46.340205" lon="7.522425"><ele>1861.2</ele></trkpt>
      <trkpt lat="46.340319" lon="7.521918"><ele>1860.4</ele></trkpt>
      <trkpt lat="46.340066" lon="7.521786"><ele>1859.8</ele></trkpt>
      <trkpt lat="46.339697" lon="7.521371"><ele>1859.0</ele></trkpt>
      <trkpt lat="46.339408" lon="7.520737"><ele>1857.2</ele></trkpt>
      <trkpt lat="46.338900" lon="7.520217"><ele>1854.2</ele></trkpt>
      <trkpt lat="46.338399" lon="7.519860"><ele>1849.4</ele></trkpt>
      <trkpt lat="46.337170" lon="7.519262"><ele>1837.2</ele></trkpt>
      <trkpt lat="46.336538" lon="7.518341"><ele>1832.2</ele></trkpt>
      <trkpt lat="46.336317" lon="7.517829"><ele>1831.4</ele></trkpt>
      <trkpt lat="46.336370" lon="7.517668"><ele>1831.2</ele></trkpt>
      <trkpt lat="46.336651" lon="7.517454"><ele>1830.6</ele></trkpt>
      <trkpt lat="46.336646" lon="7.517331"><ele>1830.6</ele></trkpt>
      <trkpt lat="46.336263" lon="7.516727"><ele>1828.0</ele></trkpt>
      <trkpt lat="46.335977" lon="7.516537"><ele>1827.0</ele></trkpt>
      <trkpt lat="46.335824" lon="7.516224"><ele>1826.8</ele></trkpt>
      <trkpt lat="46.335755" lon="7.515761"><ele>1826.0</ele></trkpt>
      <trkpt lat="46.335812" lon="7.515289"><ele>1825.4</ele></trkpt>
      <trkpt lat="46.335453" lon="7.514511"><ele>1825.6</ele></trkpt>
      <trkpt lat="46.335207" lon="7.513194"><ele>1824.4</ele></trkpt>
      <trkpt lat="46.335257" lon="7.512766"><ele>1824.4</ele></trkpt>
      <trkpt lat="46.335484" lon="7.512693"><ele>1823.6</ele></trkpt>
      <trkpt lat="46.335880" lon="7.512312"><ele>1820.2</ele></trkpt>
      <trkpt lat="46.336114" lon="7.511270"><ele>1814.4</ele></trkpt>
      <trkpt lat="46.336116" lon="7.510973"><ele>1813.0</ele></trkpt>
      <trkpt lat="46.336275" lon="7.510675"><ele>1812.4</ele></trkpt>
      <trkpt lat="46.336133" lon="7.510102"><ele>1802.2</ele></trkpt>
      <trkpt lat="46.335935" lon="7.509899"><ele>1786.6</ele></trkpt>
      <trkpt lat="46.335878" lon="7.509632"><ele>1780.8</ele></trkpt>
      <trkpt lat="46.335906" lon="7.509369"><ele>1778.4</ele></trkpt>
      <trkpt lat="46.336411" lon="7.508347"><ele>1772.6</ele></trkpt>
      <trkpt lat="46.336227" lon="7.507853"><ele>1772.0</ele></trkpt>
      <trkpt lat="46.336088" lon="7.507786"><ele>1766.8</ele></trkpt>
      <trkpt lat="46.336112" lon="7.507906"><ele>1763.0</ele></trkpt>
      <trkpt lat="46.335953" lon="7.507924"><ele>1757.0</ele></trkpt>
      <trkpt lat="46.335376" lon="7.507858"><ele>1746.8</ele></trkpt>
      <trkpt lat="46.335075" lon="7.508021"><ele>1734.0</ele></trkpt>
      <trkpt lat="46.334338" lon="7.507783"><ele>1728.8</ele></trkpt>
      <trkpt lat="46.333785" lon="7.507782"><ele>1723.8</ele></trkpt>
      <trkpt lat="46.333493" lon="7.508003"><ele>1715.8</ele></trkpt>
      <trkpt lat="46.333274" lon="7.508456"><ele>1704.6</ele></trkpt>
      <trkpt lat="46.332870" lon="7.508475"><ele>1699.0</ele></trkpt>
      <trkpt lat="46.332653" lon="7.508699"><ele>1694.2</ele></trkpt>
      <trkpt lat="46.332397" lon="7.508608"><ele>1692.4</ele></trkpt>
      <trkpt lat="46.332017" lon="7.508738"><ele>1688.0</ele></trkpt>
      <trkpt lat="46.331851" lon="7.508675"><ele>1686.6</ele></trkpt>
      <trkpt lat="46.331789" lon="7.508475"><ele>1687.2</ele></trkpt>
      <trkpt lat="46.330941" lon="7.507480"><ele>1697.2</ele></trkpt>
      <trkpt lat="46.329939" lon="7.507151"><ele>1704.0</ele></trkpt>
      <trkpt lat="46.329816" lon="7.506599"><ele>1706.8</ele></trkpt>
      <trkpt lat="46.329844" lon="7.506135"><ele>1712.0</ele></trkpt>
      <trkpt lat="46.329754" lon="7.505731"><ele>1712.4</ele></trkpt>
      <trkpt lat="46.329428" lon="7.505439"><ele>1705.2</ele></trkpt>
      <trkpt lat="46.329227" lon="7.505439"><ele>1701.6</ele></trkpt>
      <trkpt lat="46.328373" lon="7.504281"><ele>1678.0</ele></trkpt>
      <trkpt lat="46.328187" lon="7.503883"><ele>1673.8</ele></trkpt>
      <trkpt lat="46.327739" lon="7.503485"><ele>1664.6</ele></trkpt>
      <trkpt lat="46.327537" lon="7.503049"><ele>1661.0</ele></trkpt>
      <trkpt lat="46.327451" lon="7.502479"><ele>1653.6</ele></trkpt>
      <trkpt lat="46.327298" lon="7.502123"><ele>1655.0</ele></trkpt>
      <trkpt lat="46.326873" lon="7.501248"><ele>1660.6</ele></trkpt>
      <trkpt lat="46.326557" lon="7.500877"><ele>1658.0</ele></trkpt>
      <trkpt lat="46.326352" lon="7.499464"><ele>1657.0</ele></trkpt>
      <trkpt lat="46.326394" lon="7.499076"><ele>1653.6</ele></trkpt>
      <trkpt lat="46.326054" lon="7.498821"><ele>1647.8</ele></trkpt>
      <trkpt lat="46.325762" lon="7.498414"><ele>1639.8</ele></trkpt>
      <trkpt lat="46.325779" lon="7.498169"><ele>1642.2</ele></trkpt>
      <trkpt lat="46.325504" lon="7.498076"><ele>1649.4</ele></trkpt>
      <trkpt lat="46.325545" lon="7.497882"><ele>1653.2</ele></trkpt>
      <trkpt lat="46.325478" lon="7.496834"><ele>1657.2</ele></trkpt>
      <trkpt lat="46.325266" lon="7.496374"><ele>1652.8</ele></trkpt>
      <trkpt lat="46.325141" lon="7.495813"><ele>1649.4</ele></trkpt>
      <trkpt lat="46.323261" lon="7.494703"><ele>1643.6</ele></trkpt>
      <trkpt lat="46.322932" lon="7.494274"><ele>1646.0</ele></trkpt>
      <trkpt lat="46.322418" lon="7.493255"><ele>1655.2</ele></trkpt>
      <trkpt lat="46.322266" lon="7.493116"><ele>1657.4</ele></trkpt>
      <trkpt lat="46.321676" lon="7.493022"><ele>1664.0</ele></trkpt>
      <trkpt lat="46.321187" lon="7.493072"><ele>1669.8</ele></trkpt>
      <trkpt lat="46.320928" lon="7.492965"><ele>1667.2</ele></trkpt>
      <trkpt lat="46.320434" lon="7.493004"><ele>1660.6</ele></trkpt>
      <trkpt lat="46.320398" lon="7.493059"><ele>1660.0</ele></trkpt>
      <trkpt lat="46.320541" lon="7.493209"><ele>1657.0</ele></trkpt>
      <trkpt lat="46.320324" lon="7.493239"><ele>1650.0</ele></trkpt>
      <trkpt lat="46.320561" lon="7.493538"><ele>1637.2</ele></trkpt>
      <trkpt lat="46.320542" lon="7.493732"><ele>1629.2</ele></trkpt>
      <trkpt lat="46.319989" lon="7.494529"><ele>1605.0</ele></trkpt>
      <trkpt lat="46.319095" lon="7.494756"><ele>1600.0</ele></trkpt>
      <trkpt lat="46.318497" lon="7.494713"><ele>1586.6</ele></trkpt>
      <trkpt lat="46.318166" lon="7.494242"><ele>1569.4</ele></trkpt>
      <trkpt lat="46.317803" lon="7.493283"><ele>1552.4</ele></trkpt>
      <trkpt lat="46.317639" lon="7.493114"><ele>1547.2</ele></trkpt>
      <trkpt lat="46.317423" lon="7.492577"><ele>1532.4</ele></trkpt>
      <trkpt lat="46.317226" lon="7.492342"><ele>1523.0</ele></trkpt>
      <trkpt lat="46.316600" lon="7.491916"><ele>1505.6</ele></trkpt>
      <trkpt lat="46.316303" lon="7.491817"><ele>1498.0</ele></trkpt>
      <trkpt lat="46.315800" lon="7.491105"><ele>1495.6</ele></trkpt>
      <trkpt lat="46.315721" lon="7.490806"><ele>1496.6</ele></trkpt>
      <trkpt lat="46.315258" lon="7.490061"><ele>1492.0</ele></trkpt>
      <trkpt lat="46.315106" lon="7.489591"><ele>1491.2</ele></trkpt>
      <trkpt lat="46.315054" lon="7.488896"><ele>1497.6</ele></trkpt>
      <trkpt lat="46.314888" lon="7.488392"><ele>1502.2</ele></trkpt>
      <trkpt lat="46.314617" lon="7.486839"><ele>1515.2</ele></trkpt>
      <trkpt lat="46.314226" lon="7.485242"><ele>1523.6</ele></trkpt>
      <trkpt lat="46.313713" lon="7.483889"><ele>1523.4</ele></trkpt>
      <trkpt lat="46.312814" lon="7.481066"><ele>1512.4</ele></trkpt>
      <trkpt lat="46.312575" lon="7.481054"><ele>1509.8</ele></trkpt>
      <trkpt lat="46.312493" lon="7.480538"><ele>1508.0</ele></trkpt>
      <trkpt lat="46.312310" lon="7.480324"><ele>1506.8</ele></trkpt>
      <trkpt lat="46.311495" lon="7.480776"><ele>1503.4</ele></trkpt>
      <trkpt lat="46.311569" lon="7.480328"><ele>1503.0</ele></trkpt>
      <trkpt lat="46.311525" lon="7.480149"><ele>1502.4</ele></trkpt>
      <trkpt lat="46.311582" lon="7.480120"><ele>1501.4</ele></trkpt>
      <trkpt lat="46.311499" lon="7.479911"><ele>1500.8</ele></trkpt>
      <trkpt lat="46.311426" lon="7.479933"><ele>1499.0</ele></trkpt>
      <trkpt lat="46.311507" lon="7.479919"><ele>1499.8</ele></trkpt>
      <trkpt lat="46.311571" lon="7.480105"><ele>1499.4</ele></trkpt>
      <trkpt lat="46.311518" lon="7.479942"><ele>1499.8</ele></trkpt>
      <trkpt lat="46.311476" lon="7.480087"><ele>1500.4</ele></trkpt>
      <trkpt lat="46.311544" lon="7.480164"><ele>1501.0</ele></trkpt>
      <trkpt lat="46.311296" lon="7.479539"><ele>1502.6</ele></trkpt>
      <trkpt lat="46.310896" lon="7.479348"><ele>1503.2</ele></trkpt>
      <trkpt lat="46.310309" lon="7.477628"><ele>1505.6</ele></trkpt>
      <trkpt lat="46.310173" lon="7.477505"><ele>1505.6</ele></trkpt>
      <trkpt lat="46.309600" lon="7.477390"><ele>1505.2</ele></trkpt>
      <trkpt lat="46.309368" lon="7.477045"><ele>1505.2</ele></trkpt>
      <trkpt lat="46.309127" lon="7.474610"><ele>1505.2</ele></trkpt>
      <trkpt lat="46.309189" lon="7.474198"><ele>1505.2</ele></trkpt>
      <trkpt lat="46.309329" lon="7.473976"><ele>1505.8</ele></trkpt>
      <trkpt lat="46.309941" lon="7.473812"><ele>1504.4</ele></trkpt>
      <trkpt lat="46.309832" lon="7.473237"><ele>1509.6</ele></trkpt>
      <trkpt lat="46.310023" lon="7.473224"><ele>1513.0</ele></trkpt>
      <trkpt lat="46.310013" lon="7.473028"><ele>1515.6</ele></trkpt>
      <trkpt lat="46.310126" lon="7.473017"><ele>1519.0</ele></trkpt>
      <trkpt lat="46.310166" lon="7.472878"><ele>1520.4</ele></trkpt>
      <trkpt lat="46.310146" lon="7.472414"><ele>1524.4</ele></trkpt>
      <trkpt lat="46.310042" lon="7.472135"><ele>1524.4</ele></trkpt>
      <trkpt lat="46.309987" lon="7.470839"><ele>1531.2</ele></trkpt>
      <trkpt lat="46.310027" lon="7.470278"><ele>1535.4</ele></trkpt>
      <trkpt lat="46.310248" lon="7.469904"><ele>1541.0</ele></trkpt>
      <trkpt lat="46.310210" lon="7.469154"><ele>1547.4</ele></trkpt>
      <trkpt lat="46.310271" lon="7.467736"><ele>1553.8</ele></trkpt>
      <trkpt lat="46.310400" lon="7.467350"><ele>1555.4</ele></trkpt>
      <trkpt lat="46.310359" lon="7.466611"><ele>1560.0</ele></trkpt>
      <trkpt lat="46.310650" lon="7.465828"><ele>1568.0</ele></trkpt>
      <trkpt lat="46.311498" lon="7.464841"><ele>1564.2</ele></trkpt>
      <trkpt lat="46.311651" lon="7.464541"><ele>1567.8</ele></trkpt>
      <trkpt lat="46.311339" lon="7.463788"><ele>1569.8</ele></trkpt>
      <trkpt lat="46.311327" lon="7.463252"><ele>1570.2</ele></trkpt>
      <trkpt lat="46.310874" lon="7.462782"><ele>1571.8</ele></trkpt>
      <trkpt lat="46.310577" lon="7.461865"><ele>1571.8</ele></trkpt>
      <trkpt lat="46.310600" lon="7.461677"><ele>1572.0</ele></trkpt>
      <trkpt lat="46.310819" lon="7.461761"><ele>1572.4</ele></trkpt>
      <trkpt lat="46.310885" lon="7.461671"><ele>1572.6</ele></trkpt>
      <trkpt lat="46.310946" lon="7.461188"><ele>1573.4</ele></trkpt>
      <trkpt lat="46.311038" lon="7.460997"><ele>1573.8</ele></trkpt>
      <trkpt lat="46.311032" lon="7.460403"><ele>1573.6</ele></trkpt>
      <trkpt lat="46.310778" lon="7.459991"><ele>1570.6</ele></trkpt>
      <trkpt lat="46.310748" lon="7.459781"><ele>1571.8</ele></trkpt>
      <trkpt lat="46.310763" lon="7.459605"><ele>1572.4</ele></trkpt>
      <trkpt lat="46.310891" lon="7.459531"><ele>1573.0</ele></trkpt>
      <trkpt lat="46.310800" lon="7.459145"><ele>1575.6</ele></trkpt>
      <trkpt lat="46.310796" lon="7.458546"><ele>1576.2</ele></trkpt>
      <trkpt lat="46.310933" lon="7.457405"><ele>1577.2</ele></trkpt>
      <trkpt lat="46.310985" lon="7.457293"><ele>1577.0</ele></trkpt>
      <trkpt lat="46.311214" lon="7.457372"><ele>1577.6</ele></trkpt>
      <trkpt lat="46.311349" lon="7.457309"><ele>1577.6</ele></trkpt>
      <trkpt lat="46.311529" lon="7.457439"><ele>1577.8</ele></trkpt>
      <trkpt lat="46.311204" lon="7.456991"><ele>1571.8</ele></trkpt>
      <trkpt lat="46.311254" lon="7.456456"><ele>1563.2</ele></trkpt>
      <trkpt lat="46.311177" lon="7.456038"><ele>1555.0</ele></trkpt>
      <trkpt lat="46.311203" lon="7.455770"><ele>1547.8</ele></trkpt>
      <trkpt lat="46.310949" lon="7.455526"><ele>1537.2</ele></trkpt>
      <trkpt lat="46.311206" lon="7.455196"><ele>1530.2</ele></trkpt>
      <trkpt lat="46.311330" lon="7.455413"><ele>1524.4</ele></trkpt>
      <trkpt lat="46.311317" lon="7.455327"><ele>1519.6</ele></trkpt>
      <trkpt lat="46.311548" lon="7.455385"><ele>1509.8</ele></trkpt>
      <trkpt lat="46.311567" lon="7.455273"><ele>1504.6</ele></trkpt>
      <trkpt lat="46.312025" lon="7.455399"><ele>1486.2</ele></trkpt>
      <trkpt lat="46.312478" lon="7.455584"><ele>1472.2</ele></trkpt>
      <trkpt lat="46.313302" lon="7.456175"><ele>1457.0</ele></trkpt>
      <trkpt lat="46.313854" lon="7.456391"><ele>1461.4</ele></trkpt>
      <trkpt lat="46.314380" lon="7.455938"><ele>1447.4</ele></trkpt>
      <trkpt lat="46.314605" lon="7.455865"><ele>1442.0</ele></trkpt>
      <trkpt lat="46.314822" lon="7.456071"><ele>1440.0</ele></trkpt>
      <trkpt lat="46.315051" lon="7.455464"><ele>1437.6</ele></trkpt>
      <trkpt lat="46.315850" lon="7.454532"><ele>1420.0</ele></trkpt>
      <trkpt lat="46.315850" lon="7.453917"><ele>1411.4</ele></trkpt>
      <trkpt lat="46.315986" lon="7.453530"><ele>1405.4</ele></trkpt>
      <trkpt lat="46.315981" lon="7.453201"><ele>1404.0</ele></trkpt>
      <trkpt lat="46.315907" lon="7.453071"><ele>1400.6</ele></trkpt>
      <trkpt lat="46.316017" lon="7.452554"><ele>1398.4</ele></trkpt>
      <trkpt lat="46.315873" lon="7.452574"><ele>1395.0</ele></trkpt>
      <trkpt lat="46.315845" lon="7.452316"><ele>1389.0</ele></trkpt>
      <trkpt lat="46.315991" lon="7.451973"><ele>1383.8</ele></trkpt>
      <trkpt lat="46.316317" lon="7.451924"><ele>1383.6</ele></trkpt>
      <trkpt lat="46.316818" lon="7.452328"><ele>1403.8</ele></trkpt>
      <trkpt lat="46.317016" lon="7.452351"><ele>1414.2</ele></trkpt>
      <trkpt lat="46.317199" lon="7.452626"><ele>1423.8</ele></trkpt>
      <trkpt lat="46.317775" lon="7.453002"><ele>1439.4</ele></trkpt>
      <trkpt lat="46.318032" lon="7.453011"><ele>1446.6</ele></trkpt>
      <trkpt lat="46.318424" lon="7.452653"><ele>1458.6</ele></trkpt>
      <trkpt lat="46.318598" lon="7.452673"><ele>1463.4</ele></trkpt>
      <trkpt lat="46.318915" lon="7.452987"><ele>1469.8</ele></trkpt>
      <trkpt lat="46.318786" lon="7.453528"><ele>1475.8</ele></trkpt>
      <trkpt lat="46.319083" lon="7.454049"><ele>1484.8</ele></trkpt>
      <trkpt lat="46.319207" lon="7.454095"><ele>1489.6</ele></trkpt>
      <trkpt lat="46.319195" lon="7.454218"><ele>1492.8</ele></trkpt>
      <trkpt lat="46.319441" lon="7.453966"><ele>1496.4</ele></trkpt>
      <trkpt lat="46.319801" lon="7.453973"><ele>1497.8</ele></trkpt>
      <trkpt lat="46.320086" lon="7.453550"><ele>1496.8</ele></trkpt>
      <trkpt lat="46.320265" lon="7.453600"><ele>1497.4</ele></trkpt>
      <trkpt lat="46.320467" lon="7.453393"><ele>1497.0</ele></trkpt>
      <trkpt lat="46.320769" lon="7.453273"><ele>1499.0</ele></trkpt>
      <trkpt lat="46.321614" lon="7.453154"><ele>1510.4</ele></trkpt>
      <trkpt lat="46.321877" lon="7.453330"><ele>1509.0</ele></trkpt>
      <trkpt lat="46.322152" lon="7.453875"><ele>1498.6</ele></trkpt>
      <trkpt lat="46.322473" lon="7.453703"><ele>1494.0</ele></trkpt>
      <trkpt lat="46.323440" lon="7.453572"><ele>1479.6</ele></trkpt>
      <trkpt lat="46.323592" lon="7.453750"><ele>1475.2</ele></trkpt>
      <trkpt lat="46.323570" lon="7.454162"><ele>1468.0</ele></trkpt>
      <trkpt lat="46.323849" lon="7.454754"><ele>1452.0</ele></trkpt>
      <trkpt lat="46.323974" lon="7.454628"><ele>1452.2</ele></trkpt>
      <trkpt lat="46.323885" lon="7.454685"><ele>1448.8</ele></trkpt>
      <trkpt lat="46.324016" lon="7.454165"><ele>1434.0</ele></trkpt>
      <trkpt lat="46.324229" lon="7.454128"><ele>1427.0</ele></trkpt>
      <trkpt lat="46.324429" lon="7.453865"><ele>1420.4</ele></trkpt>
      <trkpt lat="46.324756" lon="7.453906"><ele>1414.8</ele></trkpt>
      <trkpt lat="46.325227" lon="7.453765"><ele>1405.4</ele></trkpt>
      <trkpt lat="46.325539" lon="7.453854"><ele>1405.2</ele></trkpt>
      <trkpt lat="46.325713" lon="7.453695"><ele>1405.8</ele></trkpt>
      <trkpt lat="46.326167" lon="7.453620"><ele>1402.6</ele></trkpt>
      <trkpt lat="46.326444" lon="7.453761"><ele>1398.8</ele></trkpt>
      <trkpt lat="46.326442" lon="7.453604"><ele>1398.6</ele></trkpt>
      <trkpt lat="46.326608" lon="7.453354"><ele>1395.8</ele></trkpt>
      <trkpt lat="46.326869" lon="7.453244"><ele>1393.8</ele></trkpt>
      <trkpt lat="46.327104" lon="7.453343"><ele>1395.6</ele></trkpt>
      <trkpt lat="46.327254" lon="7.453234"><ele>1396.4</ele></trkpt>
      <trkpt lat="46.327484" lon="7.453263"><ele>1397.8</ele></trkpt>
      <trkpt lat="46.327992" lon="7.452890"><ele>1405.6</ele></trkpt>
      <trkpt lat="46.328336" lon="7.452857"><ele>1407.8</ele></trkpt>
      <trkpt lat="46.328577" lon="7.453059"><ele>1413.2</ele></trkpt>
      <trkpt lat="46.328803" lon="7.452835"><ele>1411.6</ele></trkpt>
      <trkpt lat="46.329941" lon="7.452989"><ele>1420.2</ele></trkpt>
      <trkpt lat="46.330416" lon="7.453284"><ele>1423.6</ele></trkpt>
      <trkpt lat="46.330638" lon="7.454323"><ele>1404.4</ele></trkpt>
      <trkpt lat="46.330728" lon="7.454209"><ele>1401.0</ele></trkpt>
      <trkpt lat="46.331188" lon="7.454442"><ele>1389.8</ele></trkpt>
      <trkpt lat="46.331534" lon="7.455163"><ele>1375.4</ele></trkpt>
      <trkpt lat="46.331592" lon="7.455026"><ele>1370.0</ele></trkpt>
      <trkpt lat="46.331681" lon="7.455038"><ele>1369.6</ele></trkpt>
      <trkpt lat="46.331745" lon="7.455187"><ele>1370.6</ele></trkpt>
      <trkpt lat="46.332056" lon="7.454329"><ele>1382.6</ele></trkpt>
      <trkpt lat="46.332152" lon="7.454931"><ele>1395.0</ele></trkpt>
      <trkpt lat="46.332129" lon="7.455283"><ele>1403.6</ele></trkpt>
      <trkpt lat="46.332371" lon="7.455007"><ele>1410.2</ele></trkpt>
      <trkpt lat="46.332458" lon="7.454509"><ele>1419.8</ele></trkpt>
      <trkpt lat="46.332842" lon="7.454166"><ele>1430.2</ele></trkpt>
      <trkpt lat="46.332916" lon="7.453820"><ele>1432.6</ele></trkpt>
      <trkpt lat="46.333520" lon="7.452477"><ele>1454.4</ele></trkpt>
      <trkpt lat="46.333978" lon="7.452044"><ele>1465.8</ele></trkpt>
      <trkpt lat="46.334244" lon="7.451470"><ele>1478.4</ele></trkpt>
      <trkpt lat="46.334370" lon="7.451617"><ele>1484.0</ele></trkpt>
      <trkpt lat="46.334416" lon="7.452130"><ele>1494.2</ele></trkpt>
      <trkpt lat="46.334470" lon="7.452122"><ele>1496.6</ele></trkpt>
      <trkpt lat="46.334764" lon="7.451602"><ele>1511.2</ele></trkpt>
      <trkpt lat="46.334804" lon="7.451378"><ele>1516.6</ele></trkpt>
      <trkpt lat="46.335284" lon="7.451000"><ele>1530.6</ele></trkpt>
      <trkpt lat="46.335596" lon="7.449967"><ele>1538.2</ele></trkpt>
      <trkpt lat="46.335972" lon="7.449475"><ele>1545.2</ele></trkpt>
      <trkpt lat="46.336031" lon="7.449642"><ele>1548.2</ele></trkpt>
      <trkpt lat="46.336822" lon="7.449357"><ele>1561.8</ele></trkpt>
      <trkpt lat="46.338077" lon="7.449233"><ele>1593.0</ele></trkpt>
      <trkpt lat="46.338390" lon="7.449036"><ele>1595.4</ele></trkpt>
      <trkpt lat="46.338672" lon="7.449042"><ele>1596.6</ele></trkpt>
      <trkpt lat="46.338884" lon="7.448852"><ele>1597.6</ele></trkpt>
      <trkpt lat="46.339556" lon="7.448720"><ele>1604.2</ele></trkpt>
      <trkpt lat="46.339841" lon="7.448825"><ele>1607.4</ele></trkpt>
      <trkpt lat="46.340608" lon="7.448468"><ele>1620.8</ele></trkpt>
      <trkpt lat="46.342053" lon="7.448883"><ele>1637.2</ele></trkpt>
      <trkpt lat="46.342290" lon="7.449126"><ele>1642.6</ele></trkpt>
      <trkpt lat="46.343151" lon="7.448897"><ele>1649.4</ele></trkpt>
      <trkpt lat="46.343413" lon="7.448616"><ele>1652.4</ele></trkpt>
      <trkpt lat="46.343706" lon="7.448696"><ele>1653.6</ele></trkpt>
      <trkpt lat="46.343837" lon="7.448365"><ele>1654.6</ele></trkpt>
      <trkpt lat="46.343975" lon="7.448235"><ele>1655.4</ele></trkpt>
      <trkpt lat="46.344493" lon="7.448337"><ele>1659.2</ele></trkpt>
      <trkpt lat="46.344645" lon="7.447692"><ele>1661.4</ele></trkpt>
      <trkpt lat="46.344519" lon="7.447342"><ele>1663.2</ele></trkpt>
      <trkpt lat="46.344761" lon="7.446079"><ele>1670.0</ele></trkpt>
      <trkpt lat="46.345476" lon="7.445679"><ele>1674.6</ele></trkpt>
      <trkpt lat="46.345908" lon="7.445706"><ele>1689.4</ele></trkpt>
      <trkpt lat="46.345928" lon="7.445312"><ele>1697.2</ele></trkpt>
      <trkpt lat="46.345839" lon="7.445048"><ele>1704.4</ele></trkpt>
      <trkpt lat="46.346342" lon="7.444973"><ele>1719.4</ele></trkpt>
      <trkpt lat="46.346401" lon="7.445069"><ele>1721.6</ele></trkpt>
      <trkpt lat="46.346576" lon="7.445075"><ele>1730.2</ele></trkpt>
      <trkpt lat="46.346705" lon="7.445275"><ele>1735.8</ele></trkpt>
      <trkpt lat="46.346981" lon="7.444831"><ele>1749.2</ele></trkpt>
      <trkpt lat="46.347147" lon="7.444727"><ele>1752.8</ele></trkpt>
      <trkpt lat="46.347252" lon="7.444890"><ele>1754.0</ele></trkpt>
      <trkpt lat="46.347309" lon="7.445321"><ele>1760.6</ele></trkpt>
      <trkpt lat="46.347411" lon="7.445204"><ele>1765.2</ele></trkpt>
      <trkpt lat="46.347627" lon="7.445357"><ele>1773.0</ele></trkpt>
      <trkpt lat="46.347685" lon="7.445275"><ele>1775.2</ele></trkpt>
      <trkpt lat="46.347815" lon="7.445402"><ele>1781.6</ele></trkpt>
      <trkpt lat="46.347885" lon="7.445345"><ele>1784.4</ele></trkpt>
      <trkpt lat="46.348169" lon="7.445740"><ele>1798.8</ele></trkpt>
      <trkpt lat="46.348210" lon="7.445333"><ele>1808.2</ele></trkpt>
      <trkpt lat="46.348250" lon="7.445272"><ele>1810.4</ele></trkpt>
      <trkpt lat="46.348398" lon="7.445394"><ele>1814.8</ele></trkpt>
      <trkpt lat="46.348420" lon="7.445327"><ele>1817.0</ele></trkpt>
      <trkpt lat="46.348437" lon="7.444880"><ele>1826.2</ele></trkpt>
      <trkpt lat="46.348275" lon="7.444677"><ele>1829.4</ele></trkpt>
      <trkpt lat="46.348191" lon="7.444091"><ele>1833.8</ele></trkpt>
      <trkpt lat="46.348306" lon="7.442985"><ele>1823.2</ele></trkpt>
      <trkpt lat="46.348561" lon="7.441959"><ele>1816.2</ele></trkpt>
      <trkpt lat="46.348514" lon="7.441908"><ele>1816.4</ele></trkpt>
      <trkpt lat="46.348652" lon="7.441091"><ele>1816.2</ele></trkpt>
      <trkpt lat="46.348547" lon="7.440462"><ele>1810.0</ele></trkpt>
      <trkpt lat="46.348583" lon="7.439988"><ele>1806.4</ele></trkpt>
      <trkpt lat="46.348398" lon="7.439242"><ele>1802.8</ele></trkpt>
      <trkpt lat="46.348484" lon="7.439231"><ele>1802.2</ele></trkpt>
      <trkpt lat="46.348955" lon="7.439886"><ele>1793.8</ele></trkpt>
      <trkpt lat="46.349027" lon="7.439799"><ele>1791.0</ele></trkpt>
      <trkpt lat="46.348895" lon="7.439421"><ele>1786.2</ele></trkpt>
      <trkpt lat="46.348771" lon="7.438623"><ele>1778.6</ele></trkpt>
      <trkpt lat="46.347970" lon="7.437540"><ele>1778.8</ele></trkpt>
      <trkpt lat="46.347908" lon="7.436781"><ele>1777.2</ele></trkpt>
      <trkpt lat="46.347771" lon="7.436320"><ele>1779.0</ele></trkpt>
      <trkpt lat="46.347367" lon="7.435800"><ele>1777.6</ele></trkpt>
      <trkpt lat="46.347096" lon="7.435599"><ele>1778.0</ele></trkpt>
      <trkpt lat="46.346525" lon="7.435479"><ele>1776.8</ele></trkpt>
      <trkpt lat="46.346423" lon="7.435541"><ele>1776.4</ele></trkpt>
      <trkpt lat="46.346460" lon="7.435799"><ele>1771.6</ele></trkpt>
      <trkpt lat="46.346420" lon="7.435681"><ele>1769.4</ele></trkpt>
      <trkpt lat="46.346482" lon="7.435449"><ele>1771.6</ele></trkpt>
      <trkpt lat="46.347205" lon="7.435637"><ele>1772.2</ele></trkpt>
      <trkpt lat="46.347706" lon="7.436187"><ele>1771.0</ele></trkpt>
      <trkpt lat="46.347917" lon="7.436680"><ele>1769.8</ele></trkpt>
      <trkpt lat="46.348011" lon="7.437598"><ele>1769.0</ele></trkpt>
      <trkpt lat="46.348745" lon="7.438589"><ele>1770.0</ele></trkpt>
      <trkpt lat="46.349052" lon="7.439867"><ele>1780.0</ele></trkpt>
      <trkpt lat="46.348928" lon="7.439898"><ele>1783.2</ele></trkpt>
      <trkpt lat="46.348424" lon="7.439289"><ele>1791.2</ele></trkpt>
      <trkpt lat="46.348615" lon="7.440170"><ele>1794.8</ele></trkpt>
      <trkpt lat="46.348565" lon="7.440534"><ele>1798.4</ele></trkpt>
      <trkpt lat="46.348653" lon="7.441438"><ele>1805.2</ele></trkpt>
      <trkpt lat="46.348315" lon="7.443049"><ele>1809.0</ele></trkpt>
      <trkpt lat="46.348322" lon="7.443550"><ele>1815.0</ele></trkpt>
      <trkpt lat="46.348235" lon="7.444098"><ele>1820.2</ele></trkpt>
      <trkpt lat="46.348387" lon="7.444426"><ele>1823.8</ele></trkpt>
      <trkpt lat="46.348600" lon="7.444443"><ele>1827.2</ele></trkpt>
      <trkpt lat="46.348753" lon="7.444641"><ele>1830.0</ele></trkpt>
      <trkpt lat="46.348957" lon="7.444557"><ele>1832.6</ele></trkpt>
      <trkpt lat="46.349336" lon="7.444821"><ele>1838.0</ele></trkpt>
      <trkpt lat="46.349515" lon="7.445131"><ele>1840.0</ele></trkpt>
      <trkpt lat="46.349581" lon="7.445564"><ele>1841.4</ele></trkpt>
      <trkpt lat="46.349461" lon="7.445788"><ele>1842.2</ele></trkpt>
      <trkpt lat="46.348927" lon="7.446100"><ele>1844.0</ele></trkpt>
      <trkpt lat="46.348656" lon="7.446711"><ele>1845.0</ele></trkpt>
      <trkpt lat="46.348761" lon="7.447075"><ele>1846.2</ele></trkpt>
      <trkpt lat="46.348704" lon="7.447426"><ele>1846.8</ele></trkpt>
      <trkpt lat="46.349045" lon="7.447707"><ele>1848.2</ele></trkpt>
      <trkpt lat="46.349084" lon="7.447906"><ele>1848.0</ele></trkpt>
      <trkpt lat="46.349009" lon="7.449096"><ele>1849.4</ele></trkpt>
      <trkpt lat="46.349065" lon="7.449989"><ele>1849.2</ele></trkpt>
      <trkpt lat="46.348894" lon="7.450982"><ele>1847.0</ele></trkpt>
      <trkpt lat="46.348482" lon="7.451548"><ele>1845.6</ele></trkpt>
      <trkpt lat="46.348193" lon="7.452337"><ele>1844.2</ele></trkpt>
      <trkpt lat="46.347922" lon="7.452671"><ele>1841.8</ele></trkpt>
      <trkpt lat="46.347676" lon="7.452747"><ele>1841.4</ele></trkpt>
      <trkpt lat="46.347380" lon="7.452680"><ele>1840.6</ele></trkpt>
      <trkpt lat="46.346910" lon="7.452834"><ele>1839.6</ele></trkpt>
      <trkpt lat="46.346262" lon="7.452584"><ele>1837.8</ele></trkpt>
      <trkpt lat="46.346047" lon="7.452332"><ele>1836.2</ele></trkpt>
      <trkpt lat="46.345796" lon="7.452332"><ele>1836.0</ele></trkpt>
      <trkpt lat="46.344809" lon="7.452605"><ele>1840.2</ele></trkpt>
      <trkpt lat="46.344405" lon="7.453171"><ele>1846.6</ele></trkpt>
      <trkpt lat="46.344185" lon="7.453259"><ele>1850.0</ele></trkpt>
      <trkpt lat="46.344072" lon="7.453627"><ele>1853.6</ele></trkpt>
      <trkpt lat="46.343712" lon="7.453751"><ele>1858.2</ele></trkpt>
      <trkpt lat="46.343324" lon="7.453548"><ele>1863.4</ele></trkpt>
      <trkpt lat="46.342641" lon="7.452428"><ele>1876.8</ele></trkpt>
      <trkpt lat="46.342345" lon="7.452346"><ele>1880.8</ele></trkpt>
      <trkpt lat="46.341976" lon="7.452517"><ele>1885.0</ele></trkpt>
      <trkpt lat="46.341586" lon="7.453042"><ele>1890.8</ele></trkpt>
      <trkpt lat="46.341199" lon="7.453359"><ele>1895.2</ele></trkpt>
      <trkpt lat="46.340951" lon="7.453873"><ele>1900.2</ele></trkpt>
      <trkpt lat="46.339808" lon="7.455667"><ele>1909.0</ele></trkpt>
      <trkpt lat="46.339747" lon="7.456182"><ele>1904.4</ele></trkpt>
      <trkpt lat="46.339511" lon="7.456751"><ele>1897.6</ele></trkpt>
      <trkpt lat="46.339522" lon="7.456998"><ele>1895.4</ele></trkpt>
      <trkpt lat="46.339754" lon="7.457682"><ele>1888.6</ele></trkpt>
      <trkpt lat="46.339722" lon="7.458595"><ele>1880.6</ele></trkpt>
      <trkpt lat="46.339491" lon="7.458014"><ele>1874.2</ele></trkpt>
      <trkpt lat="46.339308" lon="7.457825"><ele>1870.8</ele></trkpt>
      <trkpt lat="46.339078" lon="7.457217"><ele>1865.2</ele></trkpt>
      <trkpt lat="46.339020" lon="7.456532"><ele>1858.2</ele></trkpt>
      <trkpt lat="46.338806" lon="7.456005"><ele>1852.2</ele></trkpt>
      <trkpt lat="46.338531" lon="7.455595"><ele>1846.6</ele></trkpt>
      <trkpt lat="46.338369" lon="7.454988"><ele>1839.2</ele></trkpt>
      <trkpt lat="46.338369" lon="7.454613"><ele>1835.6</ele></trkpt>
      <trkpt lat="46.338296" lon="7.454665"><ele>1833.6</ele></trkpt>
      <trkpt lat="46.338329" lon="7.454863"><ele>1831.8</ele></trkpt>
      <trkpt lat="46.338185" lon="7.455607"><ele>1827.2</ele></trkpt>
      <trkpt lat="46.338290" lon="7.455893"><ele>1825.4</ele></trkpt>
      <trkpt lat="46.338338" lon="7.456632"><ele>1822.4</ele></trkpt>
      <trkpt lat="46.338479" lon="7.457168"><ele>1819.4</ele></trkpt>
      <trkpt lat="46.338421" lon="7.457618"><ele>1816.2</ele></trkpt>
      <trkpt lat="46.338457" lon="7.458314"><ele>1811.6</ele></trkpt>
      <trkpt lat="46.338336" lon="7.458717"><ele>1809.0</ele></trkpt>
      <trkpt lat="46.338327" lon="7.459296"><ele>1805.2</ele></trkpt>
      <trkpt lat="46.338229" lon="7.459575"><ele>1802.2</ele></trkpt>
      <trkpt lat="46.338350" lon="7.460160"><ele>1796.4</ele></trkpt>
      <trkpt lat="46.338347" lon="7.460630"><ele>1793.4</ele></trkpt>
      <trkpt lat="46.339039" lon="7.462615"><ele>1783.0</ele></trkpt>
      <trkpt lat="46.339039" lon="7.463331"><ele>1778.4</ele></trkpt>
      <trkpt lat="46.339260" lon="7.464018"><ele>1775.4</ele></trkpt>
      <trkpt lat="46.339381" lon="7.464815"><ele>1771.0</ele></trkpt>
      <trkpt lat="46.340352" lon="7.466565"><ele>1758.4</ele></trkpt>
      <trkpt lat="46.340369" lon="7.467182"><ele>1756.2</ele></trkpt>
      <trkpt lat="46.340479" lon="7.467564"><ele>1752.6</ele></trkpt>
      <trkpt lat="46.339860" lon="7.467009"><ele>1739.8</ele></trkpt>
      <trkpt lat="46.339814" lon="7.467073"><ele>1738.4</ele></trkpt>
      <trkpt lat="46.339858" lon="7.467372"><ele>1734.6</ele></trkpt>
      <trkpt lat="46.340022" lon="7.467684"><ele>1731.0</ele></trkpt>
      <trkpt lat="46.339321" lon="7.467829"><ele>1724.6</ele></trkpt>
      <trkpt lat="46.338544" lon="7.466967"><ele>1698.6</ele></trkpt>
      <trkpt lat="46.337779" lon="7.466842"><ele>1680.6</ele></trkpt>
      <trkpt lat="46.337289" lon="7.466459"><ele>1669.0</ele></trkpt>
      <trkpt lat="46.337273" lon="7.466327"><ele>1666.8</ele></trkpt>
      <trkpt lat="46.337412" lon="7.466211"><ele>1662.8</ele></trkpt>
      <trkpt lat="46.337442" lon="7.466039"><ele>1660.8</ele></trkpt>
      <trkpt lat="46.337063" lon="7.465908"><ele>1653.4</ele></trkpt>
      <trkpt lat="46.336868" lon="7.465686"><ele>1649.8</ele></trkpt>
      <trkpt lat="46.336353" lon="7.466304"><ele>1640.0</ele></trkpt>
      <trkpt lat="46.336154" lon="7.466345"><ele>1639.6</ele></trkpt>
      <trkpt lat="46.335922" lon="7.466225"><ele>1638.6</ele></trkpt>
      <trkpt lat="46.335539" lon="7.466433"><ele>1637.2</ele></trkpt>
      <trkpt lat="46.335282" lon="7.466147"><ele>1635.8</ele></trkpt>
      <trkpt lat="46.335071" lon="7.466099"><ele>1634.0</ele></trkpt>
      <trkpt lat="46.334979" lon="7.466173"><ele>1634.0</ele></trkpt>
      <trkpt lat="46.334908" lon="7.465998"><ele>1633.6</ele></trkpt>
      <trkpt lat="46.334609" lon="7.465975"><ele>1626.2</ele></trkpt>
      <trkpt lat="46.334501" lon="7.465855"><ele>1625.2</ele></trkpt>
      <trkpt lat="46.334463" lon="7.465609"><ele>1623.0</ele></trkpt>
      <trkpt lat="46.334188" lon="7.465662"><ele>1620.6</ele></trkpt>
      <trkpt lat="46.333813" lon="7.465205"><ele>1616.4</ele></trkpt>
      <trkpt lat="46.333435" lon="7.465095"><ele>1618.0</ele></trkpt>
      <trkpt lat="46.332940" lon="7.464074"><ele>1614.4</ele></trkpt>
      <trkpt lat="46.332306" lon="7.463595"><ele>1609.0</ele></trkpt>
      <trkpt lat="46.332161" lon="7.463359"><ele>1605.2</ele></trkpt>
      <trkpt lat="46.331925" lon="7.462239"><ele>1605.0</ele></trkpt>
      <trkpt lat="46.331674" lon="7.461925"><ele>1605.8</ele></trkpt>
      <trkpt lat="46.331489" lon="7.461347"><ele>1605.8</ele></trkpt>
      <trkpt lat="46.331361" lon="7.460196"><ele>1602.4</ele></trkpt>
      <trkpt lat="46.331171" lon="7.459801"><ele>1602.4</ele></trkpt>
      <trkpt lat="46.331100" lon="7.459161"><ele>1601.6</ele></trkpt>
      <trkpt lat="46.330952" lon="7.458882"><ele>1602.2</ele></trkpt>
      <trkpt lat="46.330899" lon="7.458529"><ele>1602.4</ele></trkpt>
      <trkpt lat="46.330217" lon="7.457456"><ele>1602.6</ele></trkpt>
      <trkpt lat="46.329872" lon="7.457577"><ele>1602.4</ele></trkpt>
      <trkpt lat="46.329800" lon="7.457547"><ele>1602.2</ele></trkpt>
      <trkpt lat="46.329745" lon="7.457317"><ele>1602.6</ele></trkpt>
      <trkpt lat="46.329495" lon="7.457311"><ele>1602.8</ele></trkpt>
      <trkpt lat="46.329474" lon="7.456428"><ele>1603.2</ele></trkpt>
      <trkpt lat="46.329370" lon="7.456012"><ele>1603.0</ele></trkpt>
      <trkpt lat="46.328476" lon="7.455343"><ele>1602.2</ele></trkpt>
      <trkpt lat="46.328085" lon="7.455323"><ele>1600.6</ele></trkpt>
      <trkpt lat="46.327750" lon="7.455445"><ele>1600.0</ele></trkpt>
      <trkpt lat="46.327664" lon="7.455540"><ele>1600.0</ele></trkpt>
      <trkpt lat="46.327650" lon="7.455802"><ele>1599.8</ele></trkpt>
      <trkpt lat="46.327155" lon="7.456033"><ele>1600.8</ele></trkpt>
      <trkpt lat="46.326509" lon="7.456167"><ele>1602.0</ele></trkpt>
      <trkpt lat="46.326367" lon="7.455959"><ele>1601.4</ele></trkpt>
      <trkpt lat="46.325562" lon="7.456385"><ele>1600.8</ele></trkpt>
      <trkpt lat="46.325399" lon="7.456760"><ele>1600.0</ele></trkpt>
      <trkpt lat="46.324996" lon="7.456563"><ele>1599.6</ele></trkpt>
      <trkpt lat="46.324793" lon="7.456790"><ele>1599.8</ele></trkpt>
      <trkpt lat="46.324486" lon="7.456713"><ele>1600.2</ele></trkpt>
      <trkpt lat="46.324354" lon="7.456997"><ele>1600.4</ele></trkpt>
      <trkpt lat="46.324217" lon="7.456955"><ele>1600.6</ele></trkpt>
      <trkpt lat="46.323551" lon="7.457467"><ele>1600.6</ele></trkpt>
      <trkpt lat="46.323500" lon="7.457201"><ele>1600.8</ele></trkpt>
      <trkpt lat="46.323346" lon="7.456969"><ele>1600.8</ele></trkpt>
      <trkpt lat="46.323457" lon="7.456063"><ele>1599.4</ele></trkpt>
      <trkpt lat="46.323245" lon="7.455846"><ele>1599.0</ele></trkpt>
      <trkpt lat="46.322188" lon="7.455619"><ele>1598.2</ele></trkpt>
      <trkpt lat="46.321909" lon="7.455815"><ele>1596.6</ele></trkpt>
      <trkpt lat="46.321470" lon="7.455327"><ele>1594.0</ele></trkpt>
      <trkpt lat="46.321090" lon="7.455198"><ele>1591.4</ele></trkpt>
      <trkpt lat="46.321019" lon="7.455039"><ele>1591.4</ele></trkpt>
      <trkpt lat="46.320957" lon="7.455010"><ele>1591.0</ele></trkpt>
      <trkpt lat="46.320717" lon="7.455257"><ele>1590.8</ele></trkpt>
      <trkpt lat="46.320682" lon="7.455123"><ele>1590.4</ele></trkpt>
      <trkpt lat="46.320481" lon="7.455145"><ele>1590.4</ele></trkpt>
      <trkpt lat="46.320395" lon="7.454919"><ele>1589.8</ele></trkpt>
      <trkpt lat="46.320178" lon="7.455103"><ele>1589.6</ele></trkpt>
      <trkpt lat="46.319987" lon="7.454726"><ele>1588.6</ele></trkpt>
      <trkpt lat="46.319892" lon="7.454710"><ele>1589.0</ele></trkpt>
      <trkpt lat="46.319642" lon="7.454881"><ele>1588.8</ele></trkpt>
      <trkpt lat="46.319453" lon="7.455308"><ele>1588.8</ele></trkpt>
      <trkpt lat="46.319035" lon="7.455369"><ele>1588.8</ele></trkpt>
      <trkpt lat="46.318542" lon="7.455784"><ele>1589.4</ele></trkpt>
      <trkpt lat="46.318082" lon="7.456327"><ele>1588.4</ele></trkpt>
      <trkpt lat="46.317619" lon="7.456365"><ele>1588.2</ele></trkpt>
      <trkpt lat="46.317478" lon="7.456572"><ele>1588.2</ele></trkpt>
      <trkpt lat="46.317221" lon="7.456649"><ele>1588.2</ele></trkpt>
      <trkpt lat="46.316853" lon="7.456964"><ele>1587.8</ele></trkpt>
      <trkpt lat="46.316734" lon="7.457222"><ele>1588.4</ele></trkpt>
      <trkpt lat="46.316490" lon="7.457115"><ele>1587.4</ele></trkpt>
      <trkpt lat="46.316228" lon="7.457191"><ele>1587.6</ele></trkpt>
      <trkpt lat="46.315757" lon="7.458264"><ele>1586.2</ele></trkpt>
      <trkpt lat="46.315341" lon="7.458118"><ele>1585.6</ele></trkpt>
      <trkpt lat="46.315179" lon="7.458201"><ele>1586.4</ele></trkpt>
      <trkpt lat="46.315106" lon="7.459521"><ele>1606.0</ele></trkpt>
      <trkpt lat="46.314834" lon="7.460081"><ele>1619.8</ele></trkpt>
      <trkpt lat="46.314585" lon="7.460179"><ele>1629.4</ele></trkpt>
      <trkpt lat="46.314624" lon="7.460396"><ele>1635.2</ele></trkpt>
      <trkpt lat="46.314562" lon="7.460618"><ele>1634.6</ele></trkpt>
      <trkpt lat="46.314771" lon="7.461823"><ele>1639.4</ele></trkpt>
      <trkpt lat="46.314897" lon="7.463899"><ele>1635.4</ele></trkpt>
      <trkpt lat="46.315132" lon="7.465119"><ele>1636.2</ele></trkpt>
      <trkpt lat="46.315399" lon="7.465600"><ele>1639.4</ele></trkpt>
      <trkpt lat="46.315424" lon="7.466112"><ele>1641.0</ele></trkpt>
      <trkpt lat="46.315664" lon="7.467004"><ele>1646.2</ele></trkpt>
      <trkpt lat="46.315832" lon="7.467273"><ele>1650.6</ele></trkpt>
      <trkpt lat="46.316162" lon="7.467506"><ele>1656.2</ele></trkpt>
      <trkpt lat="46.316537" lon="7.468717"><ele>1670.4</ele></trkpt>
      <trkpt lat="46.317275" lon="7.469880"><ele>1695.0</ele></trkpt>
      <trkpt lat="46.317388" lon="7.470182"><ele>1700.4</ele></trkpt>
      <trkpt lat="46.317631" lon="7.472130"><ele>1705.6</ele></trkpt>
      <trkpt lat="46.318063" lon="7.473651"><ele>1714.6</ele></trkpt>
      <trkpt lat="46.317795" lon="7.474630"><ele>1717.4</ele></trkpt>
      <trkpt lat="46.317757" lon="7.475971"><ele>1723.2</ele></trkpt>
      <trkpt lat="46.318181" lon="7.477482"><ele>1729.8</ele></trkpt>
      <trkpt lat="46.317735" lon="7.477867"><ele>1731.0</ele></trkpt>
      <trkpt lat="46.317722" lon="7.478423"><ele>1727.0</ele></trkpt>
      <trkpt lat="46.317814" lon="7.479190"><ele>1724.4</ele></trkpt>
      <trkpt lat="46.318341" lon="7.480221"><ele>1720.6</ele></trkpt>
      <trkpt lat="46.318585" lon="7.482098"><ele>1712.8</ele></trkpt>
      <trkpt lat="46.318923" lon="7.483173"><ele>1707.4</ele></trkpt>
      <trkpt lat="46.319060" lon="7.483790"><ele>1703.8</ele></trkpt>
      <trkpt lat="46.319063" lon="7.484395"><ele>1706.2</ele></trkpt>
      <trkpt lat="46.319294" lon="7.485138"><ele>1697.4</ele></trkpt>
      <trkpt lat="46.319353" lon="7.485543"><ele>1697.0</ele></trkpt>
      <trkpt lat="46.319314" lon="7.485824"><ele>1697.2</ele></trkpt>
      <trkpt lat="46.319411" lon="7.486031"><ele>1692.6</ele></trkpt>
      <trkpt lat="46.319555" lon="7.487540"><ele>1693.6</ele></trkpt>
      <trkpt lat="46.320390" lon="7.490092"><ele>1686.4</ele></trkpt>
      <trkpt lat="46.320995" lon="7.490811"><ele>1677.0</ele></trkpt>
      <trkpt lat="46.321263" lon="7.491713"><ele>1667.8</ele></trkpt>
      <trkpt lat="46.320978" lon="7.492882"><ele>1668.2</ele></trkpt>
      <trkpt lat="46.320870" lon="7.492970"><ele>1668.4</ele></trkpt>
      <trkpt lat="46.320502" lon="7.492967"><ele>1663.4</ele></trkpt>
      <trkpt lat="46.320396" lon="7.493059"><ele>1662.2</ele></trkpt>
      <trkpt lat="46.320529" lon="7.493202"><ele>1658.4</ele></trkpt>
      <trkpt lat="46.320321" lon="7.493192"><ele>1651.8</ele></trkpt>
      <trkpt lat="46.320538" lon="7.493545"><ele>1637.8</ele></trkpt>
      <trkpt lat="46.320532" lon="7.493697"><ele>1632.2</ele></trkpt>
      <trkpt lat="46.319974" lon="7.494496"><ele>1606.6</ele></trkpt>
      <trkpt lat="46.318707" lon="7.494741"><ele>1593.2</ele></trkpt>
      <trkpt lat="46.318474" lon="7.494665"><ele>1586.8</ele></trkpt>
      <trkpt lat="46.318153" lon="7.494235"><ele>1570.4</ele></trkpt>
      <trkpt lat="46.317800" lon="7.493295"><ele>1554.0</ele></trkpt>
      <trkpt lat="46.317335" lon="7.492461"><ele>1529.0</ele></trkpt>
      <trkpt lat="46.316584" lon="7.491897"><ele>1505.8</ele></trkpt>
      <trkpt lat="46.316299" lon="7.491843"><ele>1499.8</ele></trkpt>
      <trkpt lat="46.316138" lon="7.491494"><ele>1499.8</ele></trkpt>
      <trkpt lat="46.315796" lon="7.491083"><ele>1496.4</ele></trkpt>
      <trkpt lat="46.315159" lon="7.489862"><ele>1492.0</ele></trkpt>
      <trkpt lat="46.315081" lon="7.489015"><ele>1497.6</ele></trkpt>
      <trkpt lat="46.314988" lon="7.488830"><ele>1499.8</ele></trkpt>
      <trkpt lat="46.314406" lon="7.485925"><ele>1523.4</ele></trkpt>
      <trkpt lat="46.312857" lon="7.481215"><ele>1515.2</ele></trkpt>
      <trkpt lat="46.312767" lon="7.481062"><ele>1512.6</ele></trkpt>
      <trkpt lat="46.312538" lon="7.481050"><ele>1510.2</ele></trkpt>
      <trkpt lat="46.312491" lon="7.480629"><ele>1509.0</ele></trkpt>
      <trkpt lat="46.312373" lon="7.480348"><ele>1507.4</ele></trkpt>
      <trkpt lat="46.311897" lon="7.480487"><ele>1506.4</ele></trkpt>
      <trkpt lat="46.311507" lon="7.480758"><ele>1504.6</ele></trkpt>
      <trkpt lat="46.311557" lon="7.480519"><ele>1504.0</ele></trkpt>
      <trkpt lat="46.312000" lon="7.480155"><ele>1502.4</ele></trkpt>
    </trkseg>
  </trk>
</gpx>
