<?xml version="1.0" encoding="UTF-8"?>
<gpx version="1.1" creator="gpx-processor" xmlns="http://www.topografix.com/GPX/1/1">
  <metadata><name>VF6060 XMen</name></metadata>
  <trk>
    <name>VF6060 XMen</name>
    <trkseg>
      <trkpt lat="46.543746" lon="-0.776174"><ele>41.8</ele></trkpt>
      <trkpt lat="46.543628" lon="-0.775893"><ele>41.6</ele></trkpt>
      <trkpt lat="46.543619" lon="-0.775303"><ele>42.0</ele></trkpt>
      <trkpt lat="46.543503" lon="-0.774967"><ele>43.6</ele></trkpt>
      <trkpt lat="46.543584" lon="-0.774744"><ele>45.0</ele></trkpt>
      <trkpt lat="46.543848" lon="-0.774939"><ele>46.2</ele></trkpt>
      <trkpt lat="46.544157" lon="-0.775672"><ele>46.8</ele></trkpt>
      <trkpt lat="46.544179" lon="-0.777051"><ele>48.0</ele></trkpt>
      <trkpt lat="46.543918" lon="-0.779563"><ele>50.6</ele></trkpt>
      <trkpt lat="46.543961" lon="-0.780032"><ele>52.0</ele></trkpt>
      <trkpt lat="46.544171" lon="-0.780844"><ele>56.0</ele></trkpt>
      <trkpt lat="46.544157" lon="-0.781066"><ele>56.8</ele></trkpt>
      <trkpt lat="46.544032" lon="-0.781168"><ele>57.2</ele></trkpt>
      <trkpt lat="46.543256" lon="-0.781148"><ele>56.2</ele></trkpt>
      <trkpt lat="46.542879" lon="-0.780972"><ele>55.8</ele></trkpt>
      <trkpt lat="46.542904" lon="-0.780699"><ele>58.2</ele></trkpt>
      <trkpt lat="46.542595" lon="-0.780924"><ele>72.4</ele></trkpt>
      <trkpt lat="46.542496" lon="-0.781222"><ele>78.6</ele></trkpt>
      <trkpt lat="46.542419" lon="-0.780957"><ele>86.6</ele></trkpt>
      <trkpt lat="46.542211" lon="-0.781004"><ele>92.0</ele></trkpt>
      <trkpt lat="46.541085" lon="-0.782477"><ele>96.6</ele></trkpt>
      <trkpt lat="46.541089" lon="-0.782829"><ele>97.2</ele></trkpt>
      <trkpt lat="46.540953" lon="-0.783206"><ele>97.6</ele></trkpt>
      <trkpt lat="46.541071" lon="-0.783795"><ele>99.0</ele></trkpt>
      <trkpt lat="46.541054" lon="-0.784791"><ele>103.6</ele></trkpt>
      <trkpt lat="46.540993" lon="-0.785366"><ele>105.6</ele></trkpt>
      <trkpt lat="46.540763" lon="-0.786230"><ele>107.4</ele></trkpt>
      <trkpt lat="46.540558" lon="-0.786957"><ele>109.0</ele></trkpt>
      <trkpt lat="46.540262" lon="-0.787632"><ele>109.6</ele></trkpt>
      <trkpt lat="46.540212" lon="-0.788213"><ele>108.6</ele></trkpt>
      <trkpt lat="46.539826" lon="-0.789606"><ele>108.2</ele></trkpt>
      <trkpt lat="46.539498" lon="-0.790314"><ele>109.8</ele></trkpt>
      <trkpt lat="46.539272" lon="-0.790522"><ele>111.2</ele></trkpt>
      <trkpt lat="46.538946" lon="-0.791072"><ele>113.0</ele></trkpt>
      <trkpt lat="46.538687" lon="-0.791212"><ele>113.2</ele></trkpt>
      <trkpt lat="46.538154" lon="-0.788658"><ele>111.2</ele></trkpt>
      <trkpt lat="46.537267" lon="-0.783586"><ele>98.0</ele></trkpt>
      <trkpt lat="46.536072" lon="-0.783988"><ele>97.8</ele></trkpt>
      <trkpt lat="46.535950" lon="-0.783679"><ele>98.0</ele></trkpt>
      <trkpt lat="46.535994" lon="-0.783505"><ele>97.6</ele></trkpt>
      <trkpt lat="46.536405" lon="-0.783368"><ele>96.2</ele></trkpt>
      <trkpt lat="46.536251" lon="-0.783019"><ele>96.2</ele></trkpt>
      <trkpt lat="46.536442" lon="-0.782360"><ele>92.4</ele></trkpt>
      <trkpt lat="46.536495" lon="-0.781492"><ele>87.8</ele></trkpt>
      <trkpt lat="46.536356" lon="-0.780872"><ele>84.0</ele></trkpt>
      <trkpt lat="46.536451" lon="-0.780264"><ele>79.2</ele></trkpt>
      <trkpt lat="46.536380" lon="-0.779799"><ele>74.2</ele></trkpt>
      <trkpt lat="46.536485" lon="-0.779373"><ele>70.2</ele></trkpt>
      <trkpt lat="46.536817" lon="-0.778628"><ele>61.4</ele></trkpt>
      <trkpt lat="46.536834" lon="-0.778291"><ele>57.2</ele></trkpt>
      <trkpt lat="46.536731" lon="-0.777770"><ele>50.6</ele></trkpt>
      <trkpt lat="46.536188" lon="-0.777173"><ele>39.6</ele></trkpt>
      <trkpt lat="46.535418" lon="-0.776966"><ele>38.6</ele></trkpt>
      <trkpt lat="46.534868" lon="-0.776445"><ele>39.0</ele></trkpt>
      <trkpt lat="46.533441" lon="-0.774086"><ele>44.4</ele></trkpt>
      <trkpt lat="46.533426" lon="-0.774007"><ele>44.8</ele></trkpt>
      <trkpt lat="46.533702" lon="-0.773679"><ele>43.6</ele></trkpt>
      <trkpt lat="46.533971" lon="-0.773564"><ele>44.6</ele></trkpt>
      <trkpt lat="46.533400" lon="-0.772791"><ele>40.2</ele></trkpt>
      <trkpt lat="46.532676" lon="-0.772303"><ele>47.6</ele></trkpt>
      <trkpt lat="46.532248" lon="-0.772347"><ele>43.2</ele></trkpt>
      <trkpt lat="46.531401" lon="-0.772171"><ele>43.2</ele></trkpt>
      <trkpt lat="46.530799" lon="-0.771890"><ele>53.2</ele></trkpt>
      <trkpt lat="46.530575" lon="-0.771972"><ele>45.8</ele></trkpt>
      <trkpt lat="46.530322" lon="-0.771613"><ele>43.6</ele></trkpt>
      <trkpt lat="46.530353" lon="-0.771535"><ele>43.8</ele></trkpt>
      <trkpt lat="46.530143" lon="-0.770779"><ele>46.4</ele></trkpt>
      <trkpt lat="46.530240" lon="-0.770409"><ele>45.0</ele></trkpt>
      <trkpt lat="46.530198" lon="-0.769618"><ele>48.6</ele></trkpt>
      <trkpt lat="46.530263" lon="-0.769114"><ele>48.0</ele></trkpt>
      <trkpt lat="46.530493" lon="-0.768882"><ele>52.6</ele></trkpt>
      <trkpt lat="46.530921" lon="-0.768733"><ele>62.4</ele></trkpt>
      <trkpt lat="46.531178" lon="-0.768437"><ele>68.8</ele></trkpt>
      <trkpt lat="46.531411" lon="-0.767648"><ele>78.8</ele></trkpt>
      <trkpt lat="46.531873" lon="-0.766961"><ele>84.6</ele></trkpt>
      <trkpt lat="46.530839" lon="-0.766401"><ele>90.4</ele></trkpt>
      <trkpt lat="46.529943" lon="-0.765420"><ele>98.4</ele></trkpt>
      <trkpt lat="46.529738" lon="-0.765505"><ele>97.0</ele></trkpt>
      <trkpt lat="46.529479" lon="-0.765828"><ele>93.4</ele></trkpt>
      <trkpt lat="46.529292" lon="-0.766532"><ele>86.8</ele></trkpt>
      <trkpt lat="46.528674" lon="-0.767186"><ele>78.6</ele></trkpt>
      <trkpt lat="46.528221" lon="-0.767218"><ele>71.8</ele></trkpt>
      <trkpt lat="46.528158" lon="-0.767124"><ele>70.6</ele></trkpt>
      <trkpt lat="46.527874" lon="-0.767802"><ele>59.8</ele></trkpt>
      <trkpt lat="46.527148" lon="-0.767992"><ele>50.8</ele></trkpt>
      <trkpt lat="46.526949" lon="-0.767841"><ele>49.2</ele></trkpt>
      <trkpt lat="46.526890" lon="-0.767607"><ele>47.8</ele></trkpt>
      <trkpt lat="46.527037" lon="-0.767197"><ele>46.0</ele></trkpt>
      <trkpt lat="46.528036" lon="-0.766155"><ele>42.8</ele></trkpt>
      <trkpt lat="46.528647" lon="-0.765308"><ele>42.6</ele></trkpt>
      <trkpt lat="46.529135" lon="-0.764322"><ele>43.4</ele></trkpt>
      <trkpt lat="46.529394" lon="-0.763439"><ele>43.0</ele></trkpt>
      <trkpt lat="46.529458" lon="-0.762756"><ele>43.6</ele></trkpt>
      <trkpt lat="46.529382" lon="-0.762147"><ele>44.0</ele></trkpt>
      <trkpt lat="46.529014" lon="-0.761319"><ele>42.4</ele></trkpt>
      <trkpt lat="46.529052" lon="-0.761037"><ele>43.6</ele></trkpt>
      <trkpt lat="46.529562" lon="-0.761185"><ele>43.6</ele></trkpt>
      <trkpt lat="46.530387" lon="-0.760817"><ele>43.0</ele></trkpt>
      <trkpt lat="46.531063" lon="-0.760805"><ele>43.6</ele></trkpt>
      <trkpt lat="46.531281" lon="-0.760994"><ele>44.6</ele></trkpt>
      <trkpt lat="46.531544" lon="-0.761867"><ele>49.4</ele></trkpt>
      <trkpt lat="46.531899" lon="-0.762087"><ele>45.0</ele></trkpt>
      <trkpt lat="46.532390" lon="-0.761927"><ele>43.4</ele></trkpt>
      <trkpt lat="46.532728" lon="-0.761422"><ele>44.0</ele></trkpt>
      <trkpt lat="46.533728" lon="-0.760493"><ele>44.6</ele></trkpt>
      <trkpt lat="46.534162" lon="-0.760585"><ele>45.2</ele></trkpt>
      <trkpt lat="46.534695" lon="-0.761165"><ele>48.8</ele></trkpt>
      <trkpt lat="46.535037" lon="-0.761386"><ele>45.4</ele></trkpt>
      <trkpt lat="46.535308" lon="-0.761383"><ele>44.6</ele></trkpt>
      <trkpt lat="46.535624" lon="-0.761090"><ele>45.8</ele></trkpt>
      <trkpt lat="46.535864" lon="-0.761067"><ele>46.8</ele></trkpt>
      <trkpt lat="46.536185" lon="-0.761462"><ele>51.6</ele></trkpt>
      <trkpt lat="46.536633" lon="-0.762813"><ele>62.6</ele></trkpt>
      <trkpt lat="46.537275" lon="-0.764056"><ele>80.8</ele></trkpt>
      <trkpt lat="46.537559" lon="-0.765042"><ele>91.2</ele></trkpt>
      <trkpt lat="46.537943" lon="-0.765757"><ele>97.4</ele></trkpt>
      <trkpt lat="46.537903" lon="-0.765723"><ele>95.2</ele></trkpt>
      <trkpt lat="46.539855" lon="-0.762357"><ele>79.4</ele></trkpt>
      <trkpt lat="46.539927" lon="-0.762145"><ele>78.8</ele></trkpt>
      <trkpt lat="46.539860" lon="-0.761820"><ele>77.2</ele></trkpt>
      <trkpt lat="46.540307" lon="-0.761959"><ele>83.4</ele></trkpt>
      <trkpt lat="46.541524" lon="-0.761053"><ele>93.4</ele></trkpt>
      <trkpt lat="46.542856" lon="-0.760741"><ele>91.8</ele></trkpt>
      <trkpt lat="46.542612" lon="-0.757681"><ele>76.4</ele></trkpt>
      <trkpt lat="46.541733" lon="-0.756602"><ele>58.6</ele></trkpt>
      <trkpt lat="46.541701" lon="-0.756394"><ele>56.6</ele></trkpt>
      <trkpt lat="46.541621" lon="-0.756387"><ele>55.4</ele></trkpt>
      <trkpt lat="46.541266" lon="-0.756759"><ele>54.2</ele></trkpt>
      <trkpt lat="46.540986" lon="-0.757185"><ele>54.2</ele></trkpt>
      <trkpt lat="46.540956" lon="-0.757385"><ele>54.4</ele></trkpt>
      <trkpt lat="46.540522" lon="-0.757997"><ele>53.8</ele></trkpt>
      <trkpt lat="46.540164" lon="-0.758364"><ele>54.2</ele></trkpt>
      <trkpt lat="46.539937" lon="-0.758373"><ele>55.4</ele></trkpt>
      <trkpt lat="46.539785" lon="-0.758248"><ele>54.2</ele></trkpt>
      <trkpt lat="46.538993" lon="-0.758480"><ele>53.4</ele></trkpt>
      <trkpt lat="46.538579" lon="-0.758717"><ele>52.6</ele></trkpt>
      <trkpt lat="46.538081" lon="-0.758662"><ele>51.4</ele></trkpt>
      <trkpt lat="46.537794" lon="-0.758231"><ele>60.2</ele></trkpt>
      <trkpt lat="46.537687" lon="-0.758189"><ele>63.6</ele></trkpt>
      <trkpt lat="46.537674" lon="-0.757921"><ele>69.4</ele></trkpt>
      <trkpt lat="46.537765" lon="-0.757675"><ele>75.2</ele></trkpt>
      <trkpt lat="46.537936" lon="-0.757661"><ele>78.0</ele></trkpt>
      <trkpt lat="46.538016" lon="-0.757513"><ele>79.4</ele></trkpt>
      <trkpt lat="46.538405" lon="-0.755390"><ele>87.2</ele></trkpt>
      <trkpt lat="46.537536" lon="-0.754939"><ele>90.2</ele></trkpt>
      <trkpt lat="46.536301" lon="-0.754481"><ele>85.0</ele></trkpt>
      <trkpt lat="46.535816" lon="-0.754123"><ele>80.4</ele></trkpt>
      <trkpt lat="46.535553" lon="-0.754161"><ele>83.8</ele></trkpt>
      <trkpt lat="46.535266" lon="-0.753827"><ele>86.8</ele></trkpt>
      <trkpt lat="46.534712" lon="-0.754517"><ele>91.4</ele></trkpt>
      <trkpt lat="46.534740" lon="-0.754836"><ele>90.6</ele></trkpt>
      <trkpt lat="46.534995" lon="-0.755049"><ele>87.2</ele></trkpt>
      <trkpt lat="46.535128" lon="-0.755423"><ele>86.8</ele></trkpt>
      <trkpt lat="46.535042" lon="-0.755840"><ele>86.0</ele></trkpt>
      <trkpt lat="46.535149" lon="-0.756254"><ele>83.0</ele></trkpt>
      <trkpt lat="46.535027" lon="-0.756847"><ele>78.8</ele></trkpt>
      <trkpt lat="46.534864" lon="-0.757169"><ele>76.6</ele></trkpt>
      <trkpt lat="46.534940" lon="-0.757520"><ele>73.4</ele></trkpt>
      <trkpt lat="46.534897" lon="-0.758029"><ele>67.0</ele></trkpt>
      <trkpt lat="46.534457" lon="-0.758654"><ele>57.2</ele></trkpt>
      <trkpt lat="46.534117" lon="-0.758943"><ele>50.0</ele></trkpt>
      <trkpt lat="46.533914" lon="-0.759509"><ele>44.6</ele></trkpt>
      <trkpt lat="46.533127" lon="-0.760008"><ele>48.2</ele></trkpt>
      <trkpt lat="46.532494" lon="-0.760948"><ele>44.2</ele></trkpt>
      <trkpt lat="46.532266" lon="-0.761128"><ele>43.4</ele></trkpt>
      <trkpt lat="46.532061" lon="-0.761100"><ele>44.2</ele></trkpt>
      <trkpt lat="46.531605" lon="-0.760167"><ele>47.2</ele></trkpt>
      <trkpt lat="46.531210" lon="-0.759852"><ele>47.4</ele></trkpt>
      <trkpt lat="46.530894" lon="-0.759835"><ele>47.2</ele></trkpt>
      <trkpt lat="46.529820" lon="-0.760300"><ele>46.0</ele></trkpt>
      <trkpt lat="46.529626" lon="-0.760284"><ele>46.0</ele></trkpt>
      <trkpt lat="46.529185" lon="-0.759915"><ele>45.6</ele></trkpt>
      <trkpt lat="46.529097" lon="-0.759671"><ele>45.6</ele></trkpt>
      <trkpt lat="46.529133" lon="-0.758998"><ele>46.4</ele></trkpt>
      <trkpt lat="46.529648" lon="-0.759162"><ele>55.4</ele></trkpt>
      <trkpt lat="46.530310" lon="-0.758848"><ele>66.2</ele></trkpt>
      <trkpt lat="46.530951" lon="-0.758767"><ele>77.4</ele></trkpt>
      <trkpt lat="46.531627" lon="-0.758196"><ele>86.2</ele></trkpt>
      <trkpt lat="46.531850" lon="-0.756782"><ele>85.6</ele></trkpt>
      <trkpt lat="46.533960" lon="-0.753949"><ele>94.8</ele></trkpt>
      <trkpt lat="46.533920" lon="-0.753737"><ele>94.4</ele></trkpt>
      <trkpt lat="46.533500" lon="-0.753158"><ele>96.6</ele></trkpt>
      <trkpt lat="46.532788" lon="-0.752656"><ele>99.8</ele></trkpt>
      <trkpt lat="46.532643" lon="-0.751683"><ele>101.0</ele></trkpt>
      <trkpt lat="46.532507" lon="-0.751267"><ele>101.4</ele></trkpt>
      <trkpt lat="46.532332" lon="-0.749632"><ele>101.4</ele></trkpt>
      <trkpt lat="46.532451" lon="-0.748865"><ele>99.8</ele></trkpt>
      <trkpt lat="46.532415" lon="-0.748528"><ele>98.8</ele></trkpt>
      <trkpt lat="46.532696" lon="-0.747408"><ele>94.2</ele></trkpt>
      <trkpt lat="46.532828" lon="-0.746255"><ele>91.0</ele></trkpt>
      <trkpt lat="46.532965" lon="-0.745873"><ele>90.4</ele></trkpt>
      <trkpt lat="46.532930" lon="-0.745466"><ele>90.2</ele></trkpt>
      <trkpt lat="46.532825" lon="-0.745378"><ele>90.0</ele></trkpt>
      <trkpt lat="46.532664" lon="-0.745342"><ele>90.4</ele></trkpt>
      <trkpt lat="46.532446" lon="-0.745505"><ele>91.0</ele></trkpt>
      <trkpt lat="46.529844" lon="-0.748483"><ele>96.2</ele></trkpt>
      <trkpt lat="46.529553" lon="-0.749409"><ele>95.2</ele></trkpt>
      <trkpt lat="46.529568" lon="-0.749937"><ele>92.8</ele></trkpt>
      <trkpt lat="46.529060" lon="-0.750081"><ele>91.4</ele></trkpt>
      <trkpt lat="46.528250" lon="-0.749984"><ele>92.2</ele></trkpt>
      <trkpt lat="46.527603" lon="-0.750432"><ele>92.6</ele></trkpt>
      <trkpt lat="46.527166" lon="-0.751094"><ele>90.0</ele></trkpt>
      <trkpt lat="46.526471" lon="-0.751544"><ele>84.0</ele></trkpt>
      <trkpt lat="46.526242" lon="-0.751797"><ele>79.8</ele></trkpt>
      <trkpt lat="46.525973" lon="-0.752239"><ele>73.6</ele></trkpt>
      <trkpt lat="46.525920" lon="-0.752888"><ele>66.6</ele></trkpt>
      <trkpt lat="46.525729" lon="-0.753219"><ele>61.0</ele></trkpt>
      <trkpt lat="46.525270" lon="-0.753157"><ele>49.4</ele></trkpt>
      <trkpt lat="46.525049" lon="-0.753025"><ele>45.4</ele></trkpt>
      <trkpt lat="46.524877" lon="-0.751626"><ele>44.8</ele></trkpt>
      <trkpt lat="46.524539" lon="-0.749994"><ele>45.4</ele></trkpt>
      <trkpt lat="46.524572" lon="-0.749690"><ele>45.6</ele></trkpt>
      <trkpt lat="46.524752" lon="-0.749223"><ele>48.0</ele></trkpt>
      <trkpt lat="46.524708" lon="-0.749083"><ele>46.8</ele></trkpt>
      <trkpt lat="46.523291" lon="-0.750192"><ele>43.6</ele></trkpt>
      <trkpt lat="46.522879" lon="-0.750650"><ele>43.0</ele></trkpt>
      <trkpt lat="46.522820" lon="-0.751213"><ele>44.2</ele></trkpt>
      <trkpt lat="46.522884" lon="-0.752547"><ele>58.6</ele></trkpt>
      <trkpt lat="46.522795" lon="-0.752748"><ele>62.2</ele></trkpt>
      <trkpt lat="46.522401" lon="-0.753129"><ele>70.2</ele></trkpt>
      <trkpt lat="46.522339" lon="-0.753428"><ele>73.0</ele></trkpt>
      <trkpt lat="46.522387" lon="-0.753872"><ele>77.4</ele></trkpt>
      <trkpt lat="46.522622" lon="-0.754690"><ele>84.0</ele></trkpt>
      <trkpt lat="46.522652" lon="-0.755104"><ele>85.8</ele></trkpt>
      <trkpt lat="46.523094" lon="-0.756247"><ele>88.6</ele></trkpt>
      <trkpt lat="46.523370" lon="-0.756683"><ele>89.6</ele></trkpt>
      <trkpt lat="46.523949" lon="-0.756712"><ele>90.0</ele></trkpt>
      <trkpt lat="46.524218" lon="-0.756230"><ele>86.4</ele></trkpt>
      <trkpt lat="46.524175" lon="-0.757188"><ele>86.6</ele></trkpt>
      <trkpt lat="46.524296" lon="-0.757583"><ele>89.4</ele></trkpt>
      <trkpt lat="46.524704" lon="-0.757654"><ele>88.4</ele></trkpt>
      <trkpt lat="46.524801" lon="-0.758305"><ele>89.8</ele></trkpt>
      <trkpt lat="46.524743" lon="-0.758607"><ele>89.6</ele></trkpt>
      <trkpt lat="46.525029" lon="-0.759279"><ele>93.8</ele></trkpt>
      <trkpt lat="46.525162" lon="-0.759343"><ele>94.2</ele></trkpt>
      <trkpt lat="46.526067" lon="-0.759005"><ele>91.2</ele></trkpt>
      <trkpt lat="46.526306" lon="-0.759097"><ele>89.0</ele></trkpt>
      <trkpt lat="46.526407" lon="-0.759365"><ele>87.6</ele></trkpt>
      <trkpt lat="46.526451" lon="-0.760245"><ele>84.6</ele></trkpt>
      <trkpt lat="46.526559" lon="-0.760578"><ele>84.8</ele></trkpt>
      <trkpt lat="46.526631" lon="-0.760642"><ele>84.6</ele></trkpt>
      <trkpt lat="46.527180" lon="-0.760329"><ele>77.8</ele></trkpt>
      <trkpt lat="46.527287" lon="-0.760371"><ele>75.6</ele></trkpt>
      <trkpt lat="46.527551" lon="-0.761697"><ele>58.6</ele></trkpt>
      <trkpt lat="46.527863" lon="-0.762391"><ele>48.8</ele></trkpt>
      <trkpt lat="46.528318" lon="-0.763088"><ele>41.8</ele></trkpt>
      <trkpt lat="46.528286" lon="-0.763808"><ele>40.6</ele></trkpt>
      <trkpt lat="46.528026" lon="-0.764785"><ele>40.4</ele></trkpt>
      <trkpt lat="46.526866" lon="-0.766014"><ele>52.8</ele></trkpt>
      <trkpt lat="46.526866" lon="-0.765924"><ele>53.2</ele></trkpt>
      <trkpt lat="46.526672" lon="-0.765905"><ele>58.8</ele></trkpt>
      <trkpt lat="46.526338" lon="-0.766113"><ele>50.0</ele></trkpt>
      <trkpt lat="46.525666" lon="-0.767332"><ele>44.0</ele></trkpt>
      <trkpt lat="46.525562" lon="-0.768127"><ele>46.2</ele></trkpt>
      <trkpt lat="46.525817" lon="-0.768922"><ele>45.4</ele></trkpt>
      <trkpt lat="46.526286" lon="-0.769468"><ele>46.4</ele></trkpt>
      <trkpt lat="46.526791" lon="-0.769608"><ele>46.4</ele></trkpt>
      <trkpt lat="46.527883" lon="-0.769246"><ele>45.4</ele></trkpt>
      <trkpt lat="46.528155" lon="-0.769654"><ele>50.8</ele></trkpt>
      <trkpt lat="46.528134" lon="-0.769990"><ele>53.6</ele></trkpt>
      <trkpt lat="46.527864" lon="-0.770533"><ele>61.4</ele></trkpt>
      <trkpt lat="46.527866" lon="-0.771063"><ele>67.8</ele></trkpt>
      <trkpt lat="46.528430" lon="-0.771142"><ele>73.6</ele></trkpt>
      <trkpt lat="46.528584" lon="-0.771222"><ele>74.8</ele></trkpt>
      <trkpt lat="46.528677" lon="-0.771422"><ele>75.4</ele></trkpt>
      <trkpt lat="46.529007" lon="-0.773460"><ele>86.0</ele></trkpt>
      <trkpt lat="46.528861" lon="-0.774289"><ele>85.0</ele></trkpt>
      <trkpt lat="46.528872" lon="-0.774633"><ele>84.8</ele></trkpt>
      <trkpt lat="46.528920" lon="-0.774864"><ele>85.0</ele></trkpt>
      <trkpt lat="46.529179" lon="-0.775292"><ele>86.8</ele></trkpt>
      <trkpt lat="46.529054" lon="-0.775871"><ele>90.2</ele></trkpt>
      <trkpt lat="46.529331" lon="-0.777187"><ele>97.8</ele></trkpt>
      <trkpt lat="46.529560" lon="-0.777621"><ele>98.2</ele></trkpt>
      <trkpt lat="46.529647" lon="-0.777602"><ele>97.2</ele></trkpt>
      <trkpt lat="46.530202" lon="-0.776605"><ele>89.2</ele></trkpt>
      <trkpt lat="46.530620" lon="-0.775617"><ele>81.0</ele></trkpt>
      <trkpt lat="46.530990" lon="-0.775365"><ele>77.4</ele></trkpt>
      <trkpt lat="46.531538" lon="-0.774632"><ele>68.4</ele></trkpt>
      <trkpt lat="46.532007" lon="-0.774428"><ele>64.0</ele></trkpt>
      <trkpt lat="46.532452" lon="-0.773892"><ele>59.0</ele></trkpt>
      <trkpt lat="46.532605" lon="-0.774138"><ele>56.8</ele></trkpt>
      <trkpt lat="46.532447" lon="-0.775159"><ele>49.8</ele></trkpt>
      <trkpt lat="46.532483" lon="-0.775291"><ele>49.2</ele></trkpt>
      <trkpt lat="46.532649" lon="-0.775372"><ele>48.6</ele></trkpt>
      <trkpt lat="46.532839" lon="-0.775019"><ele>52.2</ele></trkpt>
      <trkpt lat="46.533049" lon="-0.775043"><ele>58.8</ele></trkpt>
      <trkpt lat="46.533042" lon="-0.775274"><ele>63.8</ele></trkpt>
      <trkpt lat="46.533146" lon="-0.775323"><ele>68.4</ele></trkpt>
      <trkpt lat="46.533174" lon="-0.775576"><ele>73.8</ele></trkpt>
      <trkpt lat="46.533357" lon="-0.775677"><ele>79.8</ele></trkpt>
      <trkpt lat="46.533403" lon="-0.775952"><ele>83.6</ele></trkpt>
      <trkpt lat="46.533697" lon="-0.775998"><ele>85.4</ele></trkpt>
      <trkpt lat="46.534134" lon="-0.776652"><ele>97.2</ele></trkpt>
      <trkpt lat="46.534135" lon="-0.777394"><ele>96.0</ele></trkpt>
      <trkpt lat="46.534062" lon="-0.777626"><ele>95.6</ele></trkpt>
      <trkpt lat="46.534234" lon="-0.777950"><ele>95.6</ele></trkpt>
      <trkpt lat="46.534362" lon="-0.778488"><ele>96.4</ele></trkpt>
      <trkpt lat="46.534167" lon="-0.779377"><ele>97.2</ele></trkpt>
      <trkpt lat="46.534325" lon="-0.779996"><ele>97.2</ele></trkpt>
      <trkpt lat="46.534311" lon="-0.780683"><ele>97.8</ele></trkpt>
      <trkpt lat="46.534377" lon="-0.780858"><ele>98.0</ele></trkpt>
      <trkpt lat="46.534283" lon="-0.780989"><ele>97.4</ele></trkpt>
      <trkpt lat="46.534133" lon="-0.781734"><ele>96.6</ele></trkpt>
      <trkpt lat="46.533761" lon="-0.782516"><ele>91.2</ele></trkpt>
      <trkpt lat="46.533644" lon="-0.782970"><ele>86.8</ele></trkpt>
      <trkpt lat="46.533402" lon="-0.783303"><ele>87.6</ele></trkpt>
      <trkpt lat="46.533609" lon="-0.783748"><ele>90.4</ele></trkpt>
      <trkpt lat="46.533985" lon="-0.783868"><ele>92.4</ele></trkpt>
      <trkpt lat="46.534092" lon="-0.784136"><ele>95.2</ele></trkpt>
      <trkpt lat="46.534025" lon="-0.784254"><ele>95.4</ele></trkpt>
      <trkpt lat="46.534129" lon="-0.784474"><ele>96.4</ele></trkpt>
      <trkpt lat="46.534074" lon="-0.784602"><ele>97.4</ele></trkpt>
      <trkpt lat="46.533846" lon="-0.784678"><ele>97.0</ele></trkpt>
      <trkpt lat="46.533514" lon="-0.785010"><ele>95.8</ele></trkpt>
      <trkpt lat="46.533481" lon="-0.785238"><ele>94.8</ele></trkpt>
      <trkpt lat="46.533334" lon="-0.785407"><ele>93.6</ele></trkpt>
      <trkpt lat="46.533328" lon="-0.785569"><ele>92.8</ele></trkpt>
      <trkpt lat="46.533576" lon="-0.785922"><ele>92.6</ele></trkpt>
      <trkpt lat="46.533317" lon="-0.786574"><ele>92.8</ele></trkpt>
      <trkpt lat="46.533451" lon="-0.786704"><ele>94.0</ele></trkpt>
      <trkpt lat="46.533535" lon="-0.786623"><ele>91.2</ele></trkpt>
      <trkpt lat="46.533941" lon="-0.786655"><ele>93.2</ele></trkpt>
      <trkpt lat="46.534055" lon="-0.786796"><ele>94.4</ele></trkpt>
      <trkpt lat="46.534538" lon="-0.786944"><ele>98.2</ele></trkpt>
      <trkpt lat="46.534916" lon="-0.787187"><ele>100.6</ele></trkpt>
      <trkpt lat="46.535659" lon="-0.788048"><ele>104.6</ele></trkpt>
      <trkpt lat="46.535662" lon="-0.788233"><ele>103.2</ele></trkpt>
      <trkpt lat="46.535541" lon="-0.788519"><ele>99.2</ele></trkpt>
      <trkpt lat="46.535674" lon="-0.788995"><ele>101.6</ele></trkpt>
      <trkpt lat="46.535515" lon="-0.789305"><ele>106.4</ele></trkpt>
      <trkpt lat="46.535276" lon="-0.789445"><ele>108.0</ele></trkpt>
      <trkpt lat="46.535286" lon="-0.789778"><ele>108.4</ele></trkpt>
      <trkpt lat="46.534732" lon="-0.790674"><ele>111.8</ele></trkpt>
      <trkpt lat="46.534747" lon="-0.790878"><ele>112.6</ele></trkpt>
      <trkpt lat="46.534868" lon="-0.790901"><ele>112.4</ele></trkpt>
      <trkpt lat="46.534726" lon="-0.790832"><ele>112.0</ele></trkpt>
      <trkpt lat="46.534757" lon="-0.790892"><ele>111.2</ele></trkpt>
      <trkpt lat="46.538797" lon="-0.791198"><ele>115.4</ele></trkpt>
      <trkpt lat="46.539650" lon="-0.790150"><ele>111.2</ele></trkpt>
      <trkpt lat="46.540235" lon="-0.788181"><ele>108.4</ele></trkpt>
      <trkpt lat="46.540975" lon="-0.787604"><ele>106.8</ele></trkpt>
      <trkpt lat="46.541394" lon="-0.786998"><ele>105.8</ele></trkpt>
      <trkpt lat="46.541832" lon="-0.787180"><ele>102.4</ele></trkpt>
      <trkpt lat="46.542090" lon="-0.787179"><ele>99.8</ele></trkpt>
      <trkpt lat="46.543082" lon="-0.786935"><ele>89.4</ele></trkpt>
      <trkpt lat="46.543705" lon="-0.786534"><ele>84.8</ele></trkpt>
      <trkpt lat="46.544184" lon="-0.786469"><ele>85.2</ele></trkpt>
      <trkpt lat="46.544584" lon="-0.786577"><ele>82.0</ele></trkpt>
      <trkpt lat="46.544894" lon="-0.786182"><ele>78.4</ele></trkpt>
      <trkpt lat="46.545457" lon="-0.784597"><ele>74.8</ele></trkpt>
      <trkpt lat="46.545454" lon="-0.784054"><ele>73.6</ele></trkpt>
      <trkpt lat="46.545070" lon="-0.783918"><ele>69.0</ele></trkpt>
      <trkpt lat="46.544048" lon="-0.784079"><ele>76.4</ele></trkpt>
      <trkpt lat="46.543079" lon="-0.783865"><ele>87.6</ele></trkpt>
      <trkpt lat="46.542879" lon="-0.783596"><ele>83.4</ele></trkpt>
      <trkpt lat="46.542843" lon="-0.783348"><ele>76.6</ele></trkpt>
      <trkpt lat="46.542739" lon="-0.783264"><ele>73.2</ele></trkpt>
      <trkpt lat="46.542586" lon="-0.782776"><ele>67.6</ele></trkpt>
      <trkpt lat="46.542778" lon="-0.782351"><ele>64.2</ele></trkpt>
      <trkpt lat="46.542865" lon="-0.781919"><ele>61.2</ele></trkpt>
      <trkpt lat="46.542756" lon="-0.781229"><ele>58.2</ele></trkpt>
      <trkpt lat="46.542794" lon="-0.781013"><ele>57.4</ele></trkpt>
      <trkpt lat="46.543266" lon="-0.781160"><ele>56.8</ele></trkpt>
      <trkpt lat="46.544004" lon="-0.781183"><ele>56.4</ele></trkpt>
      <trkpt lat="46.544164" lon="-0.781004"><ele>55.4</ele></trkpt>
      <trkpt lat="46.543959" lon="-0.780063"><ele>51.6</ele></trkpt>
      <trkpt lat="46.543911" lon="-0.779420"><ele>49.4</ele></trkpt>
      <trkpt lat="46.544204" lon="-0.776344"><ele>46.0</ele></trkpt>
      <trkpt lat="46.544093" lon="-0.775489"><ele>45.4</ele></trkpt>
      <trkpt lat="46.543880" lon="-0.775005"><ele>45.2</ele></trkpt>
      <trkpt lat="46.543626" lon="-0.774771"><ele>44.8</ele></trkpt>
      <trkpt lat="46.543507" lon="-0.774934"><ele>43.4</ele></trkpt>
      <trkpt lat="46.543617" lon="-0.775308"><ele>42.2</ele></trkpt>
      <trkpt lat="46.543629" lon="-0.775803"><ele>42.0</ele></trkpt>
    </trkseg>
  </trk>
</gpx>
