<?xml version="1.0" encoding="UTF-8"?>
<gpx version="1.1" creator="gpx-processor" xmlns="http://www.topografix.com/GPX/1/1">
  <metadata><name>Grand Raid des Pyrénées - Tour des Lacs</name></metadata>
  <trk>
    <name>Grand Raid des Pyrénées - Tour des Lacs</name>
    <trkseg>
      <trkpt lat="42.829738" lon="0.327783"><ele>779.8</ele></trkpt>
      <trkpt lat="42.829640" lon="0.328338"><ele>793.8</ele></trkpt>
      <trkpt lat="42.829146" lon="0.328848"><ele>792.0</ele></trkpt>
      <trkpt lat="42.828694" lon="0.328609"><ele>793.2</ele></trkpt>
      <trkpt lat="42.827015" lon="0.328229"><ele>796.2</ele></trkpt>
      <trkpt lat="42.826614" lon="0.328051"><ele>797.2</ele></trkpt>
      <trkpt lat="42.826192" lon="0.327647"><ele>798.4</ele></trkpt>
      <trkpt lat="42.823701" lon="0.324652"><ele>803.0</ele></trkpt>
      <trkpt lat="42.823422" lon="0.324220"><ele>803.6</ele></trkpt>
      <trkpt lat="42.823125" lon="0.324062"><ele>804.2</ele></trkpt>
      <trkpt lat="42.822949" lon="0.323664"><ele>805.0</ele></trkpt>
      <trkpt lat="42.821384" lon="0.322680"><ele>808.4</ele></trkpt>
      <trkpt lat="42.820940" lon="0.322537"><ele>809.0</ele></trkpt>
      <trkpt lat="42.820155" lon="0.322586"><ele>811.2</ele></trkpt>
      <trkpt lat="42.820030" lon="0.322422"><ele>811.4</ele></trkpt>
      <trkpt lat="42.820027" lon="0.322163"><ele>811.2</ele></trkpt>
      <trkpt lat="42.820248" lon="0.321703"><ele>810.8</ele></trkpt>
      <trkpt lat="42.820706" lon="0.320893"><ele>810.4</ele></trkpt>
      <trkpt lat="42.821067" lon="0.320440"><ele>811.4</ele></trkpt>
      <trkpt lat="42.821484" lon="0.319207"><ele>809.0</ele></trkpt>
      <trkpt lat="42.822447" lon="0.317015"><ele>813.2</ele></trkpt>
      <trkpt lat="42.822989" lon="0.316478"><ele>816.6</ele></trkpt>
      <trkpt lat="42.823581" lon="0.316074"><ele>820.6</ele></trkpt>
      <trkpt lat="42.823458" lon="0.315457"><ele>823.4</ele></trkpt>
      <trkpt lat="42.823456" lon="0.314679"><ele>831.0</ele></trkpt>
      <trkpt lat="42.823687" lon="0.314033"><ele>841.0</ele></trkpt>
      <trkpt lat="42.824010" lon="0.313919"><ele>845.8</ele></trkpt>
      <trkpt lat="42.825240" lon="0.314074"><ele>863.8</ele></trkpt>
      <trkpt lat="42.826182" lon="0.313766"><ele>879.4</ele></trkpt>
      <trkpt lat="42.825202" lon="0.313240"><ele>890.2</ele></trkpt>
      <trkpt lat="42.824591" lon="0.312829"><ele>898.0</ele></trkpt>
      <trkpt lat="42.824581" lon="0.312725"><ele>899.0</ele></trkpt>
      <trkpt lat="42.825171" lon="0.312774"><ele>906.6</ele></trkpt>
      <trkpt lat="42.826388" lon="0.312453"><ele>922.6</ele></trkpt>
      <trkpt lat="42.826805" lon="0.312268"><ele>928.8</ele></trkpt>
      <trkpt lat="42.827451" lon="0.311791"><ele>939.6</ele></trkpt>
      <trkpt lat="42.827395" lon="0.311694"><ele>942.2</ele></trkpt>
      <trkpt lat="42.826467" lon="0.311648"><ele>951.2</ele></trkpt>
      <trkpt lat="42.825660" lon="0.311892"><ele>961.0</ele></trkpt>
      <trkpt lat="42.825518" lon="0.311811"><ele>962.0</ele></trkpt>
      <trkpt lat="42.826806" lon="0.311115"><ele>974.0</ele></trkpt>
      <trkpt lat="42.827448" lon="0.309782"><ele>987.6</ele></trkpt>
      <trkpt lat="42.827382" lon="0.309728"><ele>989.2</ele></trkpt>
      <trkpt lat="42.826754" lon="0.310524"><ele>996.8</ele></trkpt>
      <trkpt lat="42.826173" lon="0.310752"><ele>1003.0</ele></trkpt>
      <trkpt lat="42.826180" lon="0.310612"><ele>1005.0</ele></trkpt>
      <trkpt lat="42.826487" lon="0.310354"><ele>1009.4</ele></trkpt>
      <trkpt lat="42.826713" lon="0.310019"><ele>1013.2</ele></trkpt>
      <trkpt lat="42.827413" lon="0.308598"><ele>1028.0</ele></trkpt>
      <trkpt lat="42.827846" lon="0.306970"><ele>1046.0</ele></trkpt>
      <trkpt lat="42.828107" lon="0.305260"><ele>1066.0</ele></trkpt>
      <trkpt lat="42.828068" lon="0.305206"><ele>1067.2</ele></trkpt>
      <trkpt lat="42.827989" lon="0.305284"><ele>1068.4</ele></trkpt>
      <trkpt lat="42.827860" lon="0.305661"><ele>1073.0</ele></trkpt>
      <trkpt lat="42.827133" lon="0.306815"><ele>1088.4</ele></trkpt>
      <trkpt lat="42.825976" lon="0.307602"><ele>1105.0</ele></trkpt>
      <trkpt lat="42.825545" lon="0.307713"><ele>1110.2</ele></trkpt>
      <trkpt lat="42.825890" lon="0.307416"><ele>1115.0</ele></trkpt>
      <trkpt lat="42.826395" lon="0.306572"><ele>1123.0</ele></trkpt>
      <trkpt lat="42.826351" lon="0.306468"><ele>1125.4</ele></trkpt>
      <trkpt lat="42.826009" lon="0.306898"><ele>1129.2</ele></trkpt>
      <trkpt lat="42.825725" lon="0.307045"><ele>1131.8</ele></trkpt>
      <trkpt lat="42.825963" lon="0.306730"><ele>1136.2</ele></trkpt>
      <trkpt lat="42.826445" lon="0.305742"><ele>1150.2</ele></trkpt>
      <trkpt lat="42.825709" lon="0.306286"><ele>1162.4</ele></trkpt>
      <trkpt lat="42.825304" lon="0.306241"><ele>1166.2</ele></trkpt>
      <trkpt lat="42.825221" lon="0.306066"><ele>1168.2</ele></trkpt>
      <trkpt lat="42.825565" lon="0.305992"><ele>1172.6</ele></trkpt>
      <trkpt lat="42.825603" lon="0.305901"><ele>1173.4</ele></trkpt>
      <trkpt lat="42.825255" lon="0.305829"><ele>1176.4</ele></trkpt>
      <trkpt lat="42.824628" lon="0.305157"><ele>1182.6</ele></trkpt>
      <trkpt lat="42.824319" lon="0.304676"><ele>1186.2</ele></trkpt>
      <trkpt lat="42.824037" lon="0.304032"><ele>1192.4</ele></trkpt>
      <trkpt lat="42.824060" lon="0.303127"><ele>1203.0</ele></trkpt>
      <trkpt lat="42.823972" lon="0.302506"><ele>1209.6</ele></trkpt>
      <trkpt lat="42.824046" lon="0.302270"><ele>1212.4</ele></trkpt>
      <trkpt lat="42.823927" lon="0.301948"><ele>1216.4</ele></trkpt>
      <trkpt lat="42.823760" lon="0.300417"><ele>1230.8</ele></trkpt>
      <trkpt lat="42.824199" lon="0.299452"><ele>1240.0</ele></trkpt>
      <trkpt lat="42.824454" lon="0.298331"><ele>1251.0</ele></trkpt>
      <trkpt lat="42.824481" lon="0.296970"><ele>1269.6</ele></trkpt>
      <trkpt lat="42.824376" lon="0.296495"><ele>1276.0</ele></trkpt>
      <trkpt lat="42.824378" lon="0.295439"><ele>1284.0</ele></trkpt>
      <trkpt lat="42.824293" lon="0.294828"><ele>1290.8</ele></trkpt>
      <trkpt lat="42.824231" lon="0.294839"><ele>1291.8</ele></trkpt>
      <trkpt lat="42.824113" lon="0.295248"><ele>1297.0</ele></trkpt>
      <trkpt lat="42.823990" lon="0.296004"><ele>1303.0</ele></trkpt>
      <trkpt lat="42.823816" lon="0.295312"><ele>1312.8</ele></trkpt>
      <trkpt lat="42.823817" lon="0.295040"><ele>1318.2</ele></trkpt>
      <trkpt lat="42.823536" lon="0.294649"><ele>1329.4</ele></trkpt>
      <trkpt lat="42.823338" lon="0.294759"><ele>1337.8</ele></trkpt>
      <trkpt lat="42.822778" lon="0.294801"><ele>1356.8</ele></trkpt>
      <trkpt lat="42.822105" lon="0.295614"><ele>1377.2</ele></trkpt>
      <trkpt lat="42.821698" lon="0.295731"><ele>1388.8</ele></trkpt>
      <trkpt lat="42.821477" lon="0.295601"><ele>1396.6</ele></trkpt>
      <trkpt lat="42.820682" lon="0.294649"><ele>1432.6</ele></trkpt>
      <trkpt lat="42.820424" lon="0.293652"><ele>1452.8</ele></trkpt>
      <trkpt lat="42.820239" lon="0.293208"><ele>1462.6</ele></trkpt>
      <trkpt lat="42.820001" lon="0.292041"><ele>1486.2</ele></trkpt>
      <trkpt lat="42.819598" lon="0.290950"><ele>1504.0</ele></trkpt>
      <trkpt lat="42.819474" lon="0.290321"><ele>1509.6</ele></trkpt>
      <trkpt lat="42.819403" lon="0.290340"><ele>1511.8</ele></trkpt>
      <trkpt lat="42.819217" lon="0.291530"><ele>1513.4</ele></trkpt>
      <trkpt lat="42.819148" lon="0.290875"><ele>1519.0</ele></trkpt>
      <trkpt lat="42.819191" lon="0.290028"><ele>1525.8</ele></trkpt>
      <trkpt lat="42.819137" lon="0.289977"><ele>1527.2</ele></trkpt>
      <trkpt lat="42.818446" lon="0.291286"><ele>1539.0</ele></trkpt>
      <trkpt lat="42.818200" lon="0.291479"><ele>1540.6</ele></trkpt>
      <trkpt lat="42.817914" lon="0.291435"><ele>1542.4</ele></trkpt>
      <trkpt lat="42.817920" lon="0.291257"><ele>1544.0</ele></trkpt>
      <trkpt lat="42.818549" lon="0.290144"><ele>1553.6</ele></trkpt>
      <trkpt lat="42.818751" lon="0.289160"><ele>1561.8</ele></trkpt>
      <trkpt lat="42.818730" lon="0.288727"><ele>1565.8</ele></trkpt>
      <trkpt lat="42.818444" lon="0.289409"><ele>1572.4</ele></trkpt>
      <trkpt lat="42.818155" lon="0.289697"><ele>1575.4</ele></trkpt>
      <trkpt lat="42.817558" lon="0.289800"><ele>1581.4</ele></trkpt>
      <trkpt lat="42.817280" lon="0.289700"><ele>1584.2</ele></trkpt>
      <trkpt lat="42.817257" lon="0.289585"><ele>1585.4</ele></trkpt>
      <trkpt lat="42.817320" lon="0.289456"><ele>1586.2</ele></trkpt>
      <trkpt lat="42.817863" lon="0.289228"><ele>1589.6</ele></trkpt>
      <trkpt lat="42.818062" lon="0.288931"><ele>1591.0</ele></trkpt>
      <trkpt lat="42.818153" lon="0.287489"><ele>1602.2</ele></trkpt>
      <trkpt lat="42.818062" lon="0.287363"><ele>1604.2</ele></trkpt>
      <trkpt lat="42.817690" lon="0.287921"><ele>1609.2</ele></trkpt>
      <trkpt lat="42.817789" lon="0.287626"><ele>1610.8</ele></trkpt>
      <trkpt lat="42.817784" lon="0.287365"><ele>1612.0</ele></trkpt>
      <trkpt lat="42.817869" lon="0.287118"><ele>1611.4</ele></trkpt>
      <trkpt lat="42.818075" lon="0.286913"><ele>1611.0</ele></trkpt>
      <trkpt lat="42.818231" lon="0.286481"><ele>1614.8</ele></trkpt>
      <trkpt lat="42.818560" lon="0.286056"><ele>1627.2</ele></trkpt>
      <trkpt lat="42.818989" lon="0.284765"><ele>1644.4</ele></trkpt>
      <trkpt lat="42.819190" lon="0.283791"><ele>1655.2</ele></trkpt>
      <trkpt lat="42.819219" lon="0.282146"><ele>1672.0</ele></trkpt>
      <trkpt lat="42.819550" lon="0.281110"><ele>1685.0</ele></trkpt>
      <trkpt lat="42.819423" lon="0.280157"><ele>1702.2</ele></trkpt>
      <trkpt lat="42.819020" lon="0.278697"><ele>1741.4</ele></trkpt>
      <trkpt lat="42.818966" lon="0.277859"><ele>1763.2</ele></trkpt>
      <trkpt lat="42.818567" lon="0.276592"><ele>1785.4</ele></trkpt>
      <trkpt lat="42.818518" lon="0.275842"><ele>1800.6</ele></trkpt>
      <trkpt lat="42.818739" lon="0.275351"><ele>1809.2</ele></trkpt>
      <trkpt lat="42.819262" lon="0.274794"><ele>1822.0</ele></trkpt>
      <trkpt lat="42.819940" lon="0.274504"><ele>1834.0</ele></trkpt>
      <trkpt lat="42.820258" lon="0.274256"><ele>1841.4</ele></trkpt>
      <trkpt lat="42.820575" lon="0.273186"><ele>1850.0</ele></trkpt>
      <trkpt lat="42.820393" lon="0.270799"><ele>1847.0</ele></trkpt>
      <trkpt lat="42.820444" lon="0.269656"><ele>1851.2</ele></trkpt>
      <trkpt lat="42.820269" lon="0.268844"><ele>1853.0</ele></trkpt>
      <trkpt lat="42.819879" lon="0.268303"><ele>1857.6</ele></trkpt>
      <trkpt lat="42.819534" lon="0.267371"><ele>1877.6</ele></trkpt>
      <trkpt lat="42.819603" lon="0.266297"><ele>1886.0</ele></trkpt>
      <trkpt lat="42.819494" lon="0.265657"><ele>1891.6</ele></trkpt>
      <trkpt lat="42.819714" lon="0.265172"><ele>1893.2</ele></trkpt>
      <trkpt lat="42.819952" lon="0.264186"><ele>1897.8</ele></trkpt>
      <trkpt lat="42.820115" lon="0.263889"><ele>1903.0</ele></trkpt>
      <trkpt lat="42.820135" lon="0.263449"><ele>1904.4</ele></trkpt>
      <trkpt lat="42.820780" lon="0.263077"><ele>1897.0</ele></trkpt>
      <trkpt lat="42.821004" lon="0.262616"><ele>1892.8</ele></trkpt>
      <trkpt lat="42.820891" lon="0.261158"><ele>1875.6</ele></trkpt>
      <trkpt lat="42.820939" lon="0.260753"><ele>1873.0</ele></trkpt>
      <trkpt lat="42.820757" lon="0.260151"><ele>1870.8</ele></trkpt>
      <trkpt lat="42.820661" lon="0.258882"><ele>1866.6</ele></trkpt>
      <trkpt lat="42.820785" lon="0.258364"><ele>1863.4</ele></trkpt>
      <trkpt lat="42.821388" lon="0.256794"><ele>1853.4</ele></trkpt>
      <trkpt lat="42.821470" lon="0.255667"><ele>1850.4</ele></trkpt>
      <trkpt lat="42.822006" lon="0.254762"><ele>1847.2</ele></trkpt>
      <trkpt lat="42.822116" lon="0.254190"><ele>1842.4</ele></trkpt>
      <trkpt lat="42.822281" lon="0.253917"><ele>1839.4</ele></trkpt>
      <trkpt lat="42.823102" lon="0.253074"><ele>1828.8</ele></trkpt>
      <trkpt lat="42.823762" lon="0.252707"><ele>1823.6</ele></trkpt>
      <trkpt lat="42.824534" lon="0.251712"><ele>1817.0</ele></trkpt>
      <trkpt lat="42.825111" lon="0.251302"><ele>1814.6</ele></trkpt>
      <trkpt lat="42.825447" lon="0.249028"><ele>1833.4</ele></trkpt>
      <trkpt lat="42.825632" lon="0.248582"><ele>1841.2</ele></trkpt>
      <trkpt lat="42.826040" lon="0.248478"><ele>1844.4</ele></trkpt>
      <trkpt lat="42.827514" lon="0.249214"><ele>1860.2</ele></trkpt>
      <trkpt lat="42.828254" lon="0.249282"><ele>1866.2</ele></trkpt>
      <trkpt lat="42.828845" lon="0.248925"><ele>1874.2</ele></trkpt>
      <trkpt lat="42.829708" lon="0.247560"><ele>1908.0</ele></trkpt>
      <trkpt lat="42.830119" lon="0.247191"><ele>1920.4</ele></trkpt>
      <trkpt lat="42.830404" lon="0.247086"><ele>1927.4</ele></trkpt>
      <trkpt lat="42.831451" lon="0.247060"><ele>1942.8</ele></trkpt>
      <trkpt lat="42.831973" lon="0.246651"><ele>1946.0</ele></trkpt>
      <trkpt lat="42.832386" lon="0.245991"><ele>1953.2</ele></trkpt>
      <trkpt lat="42.832838" lon="0.244915"><ele>1969.8</ele></trkpt>
      <trkpt lat="42.833397" lon="0.242526"><ele>2020.4</ele></trkpt>
      <trkpt lat="42.833461" lon="0.241854"><ele>2037.2</ele></trkpt>
      <trkpt lat="42.833410" lon="0.241043"><ele>2057.0</ele></trkpt>
      <trkpt lat="42.833176" lon="0.240635"><ele>2072.6</ele></trkpt>
      <trkpt lat="42.832764" lon="0.240326"><ele>2091.8</ele></trkpt>
      <trkpt lat="42.832747" lon="0.240126"><ele>2098.6</ele></trkpt>
      <trkpt lat="42.832875" lon="0.239832"><ele>2103.6</ele></trkpt>
      <trkpt lat="42.833448" lon="0.239086"><ele>2121.2</ele></trkpt>
      <trkpt lat="42.834322" lon="0.238539"><ele>2135.8</ele></trkpt>
      <trkpt lat="42.834642" lon="0.237648"><ele>2167.8</ele></trkpt>
      <trkpt lat="42.834576" lon="0.237293"><ele>2178.8</ele></trkpt>
      <trkpt lat="42.834342" lon="0.236997"><ele>2188.4</ele></trkpt>
      <trkpt lat="42.833071" lon="0.236451"><ele>2212.4</ele></trkpt>
      <trkpt lat="42.832014" lon="0.234784"><ele>2198.2</ele></trkpt>
      <trkpt lat="42.831688" lon="0.234503"><ele>2194.0</ele></trkpt>
      <trkpt lat="42.831356" lon="0.233958"><ele>2186.2</ele></trkpt>
      <trkpt lat="42.831174" lon="0.233377"><ele>2180.6</ele></trkpt>
      <trkpt lat="42.830788" lon="0.232599"><ele>2169.6</ele></trkpt>
      <trkpt lat="42.830342" lon="0.231223"><ele>2150.4</ele></trkpt>
      <trkpt lat="42.829754" lon="0.230195"><ele>2135.6</ele></trkpt>
      <trkpt lat="42.829274" lon="0.229104"><ele>2119.4</ele></trkpt>
      <trkpt lat="42.829023" lon="0.228183"><ele>2111.0</ele></trkpt>
      <trkpt lat="42.828618" lon="0.225815"><ele>2084.4</ele></trkpt>
      <trkpt lat="42.828506" lon="0.224344"><ele>2062.0</ele></trkpt>
      <trkpt lat="42.828520" lon="0.223406"><ele>2048.6</ele></trkpt>
      <trkpt lat="42.828347" lon="0.222486"><ele>2037.8</ele></trkpt>
      <trkpt lat="42.828496" lon="0.221936"><ele>2035.4</ele></trkpt>
      <trkpt lat="42.828394" lon="0.221401"><ele>2034.8</ele></trkpt>
      <trkpt lat="42.828391" lon="0.220671"><ele>2034.8</ele></trkpt>
      <trkpt lat="42.828493" lon="0.220619"><ele>2034.0</ele></trkpt>
      <trkpt lat="42.828574" lon="0.220722"><ele>2033.6</ele></trkpt>
      <trkpt lat="42.828470" lon="0.220706"><ele>2033.0</ele></trkpt>
      <trkpt lat="42.828371" lon="0.220532"><ele>2033.6</ele></trkpt>
      <trkpt lat="42.828442" lon="0.220397"><ele>2034.0</ele></trkpt>
      <trkpt lat="42.828541" lon="0.220417"><ele>2033.4</ele></trkpt>
      <trkpt lat="42.828426" lon="0.220358"><ele>2034.6</ele></trkpt>
      <trkpt lat="42.828479" lon="0.220027"><ele>2034.0</ele></trkpt>
      <trkpt lat="42.828741" lon="0.219032"><ele>2039.0</ele></trkpt>
      <trkpt lat="42.828895" lon="0.217987"><ele>2046.4</ele></trkpt>
      <trkpt lat="42.829240" lon="0.216947"><ele>2057.2</ele></trkpt>
      <trkpt lat="42.829077" lon="0.216091"><ele>2074.4</ele></trkpt>
      <trkpt lat="42.829298" lon="0.214274"><ele>2090.8</ele></trkpt>
      <trkpt lat="42.829819" lon="0.213553"><ele>2090.8</ele></trkpt>
      <trkpt lat="42.830175" lon="0.213512"><ele>2093.4</ele></trkpt>
      <trkpt lat="42.830344" lon="0.212708"><ele>2100.8</ele></trkpt>
      <trkpt lat="42.830603" lon="0.212182"><ele>2110.8</ele></trkpt>
      <trkpt lat="42.830854" lon="0.211930"><ele>2116.0</ele></trkpt>
      <trkpt lat="42.831031" lon="0.211885"><ele>2119.0</ele></trkpt>
      <trkpt lat="42.831371" lon="0.211339"><ele>2131.8</ele></trkpt>
      <trkpt lat="42.831494" lon="0.210938"><ele>2135.4</ele></trkpt>
      <trkpt lat="42.831675" lon="0.210806"><ele>2137.0</ele></trkpt>
      <trkpt lat="42.831722" lon="0.210620"><ele>2139.0</ele></trkpt>
      <trkpt lat="42.832129" lon="0.210084"><ele>2134.8</ele></trkpt>
      <trkpt lat="42.832698" lon="0.209725"><ele>2127.0</ele></trkpt>
      <trkpt lat="42.833472" lon="0.209638"><ele>2119.4</ele></trkpt>
      <trkpt lat="42.834434" lon="0.208883"><ele>2115.6</ele></trkpt>
      <trkpt lat="42.835060" lon="0.208975"><ele>2114.6</ele></trkpt>
      <trkpt lat="42.835257" lon="0.208836"><ele>2117.0</ele></trkpt>
      <trkpt lat="42.835941" lon="0.208650"><ele>2119.8</ele></trkpt>
      <trkpt lat="42.837017" lon="0.208697"><ele>2124.4</ele></trkpt>
      <trkpt lat="42.837626" lon="0.208301"><ele>2128.8</ele></trkpt>
      <trkpt lat="42.838041" lon="0.208258"><ele>2133.0</ele></trkpt>
      <trkpt lat="42.838449" lon="0.208342"><ele>2135.2</ele></trkpt>
      <trkpt lat="42.839024" lon="0.208108"><ele>2139.0</ele></trkpt>
      <trkpt lat="42.839344" lon="0.208275"><ele>2138.6</ele></trkpt>
      <trkpt lat="42.839619" lon="0.208231"><ele>2138.6</ele></trkpt>
      <trkpt lat="42.840164" lon="0.208499"><ele>2140.2</ele></trkpt>
      <trkpt lat="42.840470" lon="0.208504"><ele>2142.0</ele></trkpt>
      <trkpt lat="42.840948" lon="0.208804"><ele>2145.0</ele></trkpt>
      <trkpt lat="42.841156" lon="0.208839"><ele>2144.0</ele></trkpt>
      <trkpt lat="42.841313" lon="0.209018"><ele>2143.4</ele></trkpt>
      <trkpt lat="42.841712" lon="0.209002"><ele>2145.0</ele></trkpt>
      <trkpt lat="42.842166" lon="0.209329"><ele>2148.0</ele></trkpt>
      <trkpt lat="42.842459" lon="0.209696"><ele>2151.8</ele></trkpt>
      <trkpt lat="42.843046" lon="0.209981"><ele>2161.6</ele></trkpt>
      <trkpt lat="42.843592" lon="0.210522"><ele>2168.6</ele></trkpt>
      <trkpt lat="42.844062" lon="0.210318"><ele>2168.6</ele></trkpt>
      <trkpt lat="42.844548" lon="0.210264"><ele>2174.8</ele></trkpt>
      <trkpt lat="42.844896" lon="0.210613"><ele>2178.8</ele></trkpt>
      <trkpt lat="42.845363" lon="0.211407"><ele>2183.2</ele></trkpt>
      <trkpt lat="42.845491" lon="0.211424"><ele>2184.0</ele></trkpt>
      <trkpt lat="42.846098" lon="0.212007"><ele>2188.8</ele></trkpt>
      <trkpt lat="42.846394" lon="0.212751"><ele>2197.2</ele></trkpt>
      <trkpt lat="42.846624" lon="0.212711"><ele>2202.8</ele></trkpt>
      <trkpt lat="42.847465" lon="0.212997"><ele>2204.2</ele></trkpt>
      <trkpt lat="42.847728" lon="0.213398"><ele>2200.4</ele></trkpt>
      <trkpt lat="42.847846" lon="0.213452"><ele>2200.6</ele></trkpt>
      <trkpt lat="42.848970" lon="0.212512"><ele>2219.8</ele></trkpt>
      <trkpt lat="42.849393" lon="0.212500"><ele>2225.8</ele></trkpt>
      <trkpt lat="42.849728" lon="0.212666"><ele>2226.2</ele></trkpt>
      <trkpt lat="42.850276" lon="0.212186"><ele>2225.8</ele></trkpt>
      <trkpt lat="42.851112" lon="0.211891"><ele>2214.4</ele></trkpt>
      <trkpt lat="42.851329" lon="0.211503"><ele>2218.4</ele></trkpt>
      <trkpt lat="42.852171" lon="0.211254"><ele>2228.2</ele></trkpt>
      <trkpt lat="42.852411" lon="0.211074"><ele>2230.8</ele></trkpt>
      <trkpt lat="42.852539" lon="0.210859"><ele>2233.8</ele></trkpt>
      <trkpt lat="42.852593" lon="0.211016"><ele>2235.8</ele></trkpt>
      <trkpt lat="42.852629" lon="0.210854"><ele>2238.2</ele></trkpt>
      <trkpt lat="42.852701" lon="0.210970"><ele>2243.2</ele></trkpt>
      <trkpt lat="42.852983" lon="0.210467"><ele>2258.4</ele></trkpt>
      <trkpt lat="42.853176" lon="0.210283"><ele>2258.4</ele></trkpt>
      <trkpt lat="42.853320" lon="0.209797"><ele>2252.2</ele></trkpt>
      <trkpt lat="42.853424" lon="0.209668"><ele>2249.6</ele></trkpt>
      <trkpt lat="42.854231" lon="0.209903"><ele>2257.8</ele></trkpt>
      <trkpt lat="42.855142" lon="0.209520"><ele>2265.2</ele></trkpt>
      <trkpt lat="42.855436" lon="0.209510"><ele>2266.8</ele></trkpt>
      <trkpt lat="42.855927" lon="0.208686"><ele>2274.2</ele></trkpt>
      <trkpt lat="42.855905" lon="0.207935"><ele>2281.2</ele></trkpt>
      <trkpt lat="42.856518" lon="0.207180"><ele>2288.4</ele></trkpt>
      <trkpt lat="42.856719" lon="0.207191"><ele>2291.8</ele></trkpt>
      <trkpt lat="42.856780" lon="0.207377"><ele>2293.2</ele></trkpt>
      <trkpt lat="42.856933" lon="0.207454"><ele>2295.4</ele></trkpt>
      <trkpt lat="42.857196" lon="0.207248"><ele>2302.2</ele></trkpt>
      <trkpt lat="42.857351" lon="0.207277"><ele>2304.8</ele></trkpt>
      <trkpt lat="42.857505" lon="0.207543"><ele>2307.4</ele></trkpt>
      <trkpt lat="42.858161" lon="0.207349"><ele>2316.8</ele></trkpt>
      <trkpt lat="42.858529" lon="0.207419"><ele>2316.6</ele></trkpt>
      <trkpt lat="42.858747" lon="0.207592"><ele>2319.2</ele></trkpt>
      <trkpt lat="42.859119" lon="0.207552"><ele>2327.8</ele></trkpt>
      <trkpt lat="42.859504" lon="0.206985"><ele>2326.0</ele></trkpt>
      <trkpt lat="42.859729" lon="0.206964"><ele>2331.0</ele></trkpt>
      <trkpt lat="42.859894" lon="0.206807"><ele>2334.8</ele></trkpt>
      <trkpt lat="42.860116" lon="0.206802"><ele>2334.0</ele></trkpt>
      <trkpt lat="42.860261" lon="0.206940"><ele>2337.8</ele></trkpt>
      <trkpt lat="42.860663" lon="0.206831"><ele>2342.0</ele></trkpt>
      <trkpt lat="42.860772" lon="0.207009"><ele>2347.4</ele></trkpt>
      <trkpt lat="42.861023" lon="0.207043"><ele>2360.8</ele></trkpt>
      <trkpt lat="42.861196" lon="0.206407"><ele>2382.4</ele></trkpt>
      <trkpt lat="42.861646" lon="0.206704"><ele>2391.2</ele></trkpt>
      <trkpt lat="42.861656" lon="0.206846"><ele>2390.8</ele></trkpt>
      <trkpt lat="42.861832" lon="0.206984"><ele>2392.8</ele></trkpt>
      <trkpt lat="42.862281" lon="0.206974"><ele>2401.2</ele></trkpt>
      <trkpt lat="42.862878" lon="0.207281"><ele>2410.8</ele></trkpt>
      <trkpt lat="42.863120" lon="0.207125"><ele>2410.0</ele></trkpt>
      <trkpt lat="42.863478" lon="0.207232"><ele>2411.4</ele></trkpt>
      <trkpt lat="42.863805" lon="0.206984"><ele>2411.4</ele></trkpt>
      <trkpt lat="42.864736" lon="0.207035"><ele>2421.6</ele></trkpt>
      <trkpt lat="42.865235" lon="0.206577"><ele>2420.0</ele></trkpt>
      <trkpt lat="42.865505" lon="0.206523"><ele>2422.0</ele></trkpt>
      <trkpt lat="42.865992" lon="0.206668"><ele>2437.0</ele></trkpt>
      <trkpt lat="42.866323" lon="0.206988"><ele>2458.8</ele></trkpt>
      <trkpt lat="42.866719" lon="0.206594"><ele>2478.6</ele></trkpt>
      <trkpt lat="42.866796" lon="0.206691"><ele>2487.2</ele></trkpt>
      <trkpt lat="42.866893" lon="0.206407"><ele>2497.4</ele></trkpt>
      <trkpt lat="42.867034" lon="0.206452"><ele>2519.0</ele></trkpt>
      <trkpt lat="42.867161" lon="0.206358"><ele>2537.2</ele></trkpt>
      <trkpt lat="42.867285" lon="0.206912"><ele>2512.2</ele></trkpt>
      <trkpt lat="42.867871" lon="0.207078"><ele>2485.8</ele></trkpt>
      <trkpt lat="42.868223" lon="0.207291"><ele>2468.8</ele></trkpt>
      <trkpt lat="42.868349" lon="0.207149"><ele>2465.6</ele></trkpt>
      <trkpt lat="42.868651" lon="0.207147"><ele>2451.8</ele></trkpt>
      <trkpt lat="42.868944" lon="0.206702"><ele>2439.0</ele></trkpt>
      <trkpt lat="42.869641" lon="0.207062"><ele>2416.6</ele></trkpt>
      <trkpt lat="42.869848" lon="0.206644"><ele>2415.8</ele></trkpt>
      <trkpt lat="42.870298" lon="0.206172"><ele>2410.2</ele></trkpt>
      <trkpt lat="42.870369" lon="0.205858"><ele>2405.8</ele></trkpt>
      <trkpt lat="42.870638" lon="0.205719"><ele>2407.8</ele></trkpt>
      <trkpt lat="42.870881" lon="0.205428"><ele>2409.4</ele></trkpt>
      <trkpt lat="42.871348" lon="0.205402"><ele>2414.4</ele></trkpt>
      <trkpt lat="42.871542" lon="0.205250"><ele>2410.8</ele></trkpt>
      <trkpt lat="42.871789" lon="0.205401"><ele>2411.4</ele></trkpt>
      <trkpt lat="42.872259" lon="0.205213"><ele>2401.4</ele></trkpt>
      <trkpt lat="42.872688" lon="0.205497"><ele>2418.4</ele></trkpt>
      <trkpt lat="42.872802" lon="0.205325"><ele>2406.6</ele></trkpt>
      <trkpt lat="42.872903" lon="0.205333"><ele>2404.8</ele></trkpt>
      <trkpt lat="42.872875" lon="0.205074"><ele>2401.2</ele></trkpt>
      <trkpt lat="42.873021" lon="0.204955"><ele>2391.6</ele></trkpt>
      <trkpt lat="42.873230" lon="0.205493"><ele>2382.6</ele></trkpt>
      <trkpt lat="42.873453" lon="0.205361"><ele>2371.0</ele></trkpt>
      <trkpt lat="42.873677" lon="0.205607"><ele>2377.6</ele></trkpt>
      <trkpt lat="42.873818" lon="0.205584"><ele>2377.2</ele></trkpt>
      <trkpt lat="42.874084" lon="0.205427"><ele>2362.6</ele></trkpt>
      <trkpt lat="42.874263" lon="0.205100"><ele>2354.8</ele></trkpt>
      <trkpt lat="42.874535" lon="0.205087"><ele>2348.4</ele></trkpt>
      <trkpt lat="42.874477" lon="0.205278"><ele>2343.6</ele></trkpt>
      <trkpt lat="42.874871" lon="0.205516"><ele>2348.0</ele></trkpt>
      <trkpt lat="42.875122" lon="0.205575"><ele>2336.4</ele></trkpt>
      <trkpt lat="42.875567" lon="0.205374"><ele>2337.6</ele></trkpt>
      <trkpt lat="42.875885" lon="0.205559"><ele>2334.6</ele></trkpt>
      <trkpt lat="42.876058" lon="0.205912"><ele>2327.0</ele></trkpt>
      <trkpt lat="42.876403" lon="0.205890"><ele>2324.2</ele></trkpt>
      <trkpt lat="42.876806" lon="0.205649"><ele>2319.0</ele></trkpt>
      <trkpt lat="42.877769" lon="0.204641"><ele>2290.0</ele></trkpt>
      <trkpt lat="42.878058" lon="0.204553"><ele>2294.4</ele></trkpt>
      <trkpt lat="42.878203" lon="0.204385"><ele>2285.4</ele></trkpt>
      <trkpt lat="42.878322" lon="0.204448"><ele>2282.2</ele></trkpt>
      <trkpt lat="42.878602" lon="0.204093"><ele>2274.4</ele></trkpt>
      <trkpt lat="42.878877" lon="0.203964"><ele>2272.4</ele></trkpt>
      <trkpt lat="42.878996" lon="0.204120"><ele>2269.8</ele></trkpt>
      <trkpt lat="42.879126" lon="0.204005"><ele>2266.0</ele></trkpt>
      <trkpt lat="42.879132" lon="0.204208"><ele>2262.4</ele></trkpt>
      <trkpt lat="42.879212" lon="0.204162"><ele>2260.2</ele></trkpt>
      <trkpt lat="42.879364" lon="0.204338"><ele>2254.0</ele></trkpt>
      <trkpt lat="42.879439" lon="0.204920"><ele>2242.2</ele></trkpt>
      <trkpt lat="42.879553" lon="0.205023"><ele>2243.0</ele></trkpt>
      <trkpt lat="42.879749" lon="0.205594"><ele>2239.4</ele></trkpt>
      <trkpt lat="42.880178" lon="0.205758"><ele>2229.0</ele></trkpt>
      <trkpt lat="42.880511" lon="0.205636"><ele>2230.8</ele></trkpt>
      <trkpt lat="42.880892" lon="0.205713"><ele>2226.6</ele></trkpt>
      <trkpt lat="42.881143" lon="0.205428"><ele>2222.6</ele></trkpt>
      <trkpt lat="42.881461" lon="0.205501"><ele>2221.8</ele></trkpt>
      <trkpt lat="42.881537" lon="0.205426"><ele>2219.8</ele></trkpt>
      <trkpt lat="42.881460" lon="0.205467"><ele>2225.8</ele></trkpt>
      <trkpt lat="42.881516" lon="0.205518"><ele>2221.6</ele></trkpt>
      <trkpt lat="42.881608" lon="0.205372"><ele>2222.0</ele></trkpt>
      <trkpt lat="42.881458" lon="0.205531"><ele>2218.8</ele></trkpt>
      <trkpt lat="42.881732" lon="0.205751"><ele>2213.2</ele></trkpt>
      <trkpt lat="42.882016" lon="0.205479"><ele>2212.8</ele></trkpt>
      <trkpt lat="42.882095" lon="0.205212"><ele>2209.8</ele></trkpt>
      <trkpt lat="42.882310" lon="0.205215"><ele>2206.2</ele></trkpt>
      <trkpt lat="42.882483" lon="0.205351"><ele>2199.4</ele></trkpt>
      <trkpt lat="42.882692" lon="0.205175"><ele>2197.2</ele></trkpt>
      <trkpt lat="42.883618" lon="0.205112"><ele>2183.8</ele></trkpt>
      <trkpt lat="42.883801" lon="0.205005"><ele>2179.4</ele></trkpt>
      <trkpt lat="42.883902" lon="0.204545"><ele>2175.2</ele></trkpt>
      <trkpt lat="42.884168" lon="0.204215"><ele>2175.8</ele></trkpt>
      <trkpt lat="42.884300" lon="0.204395"><ele>2166.6</ele></trkpt>
      <trkpt lat="42.884542" lon="0.204435"><ele>2161.4</ele></trkpt>
      <trkpt lat="42.884416" lon="0.204647"><ele>2153.6</ele></trkpt>
      <trkpt lat="42.884544" lon="0.204819"><ele>2146.0</ele></trkpt>
      <trkpt lat="42.884755" lon="0.204859"><ele>2137.2</ele></trkpt>
      <trkpt lat="42.884666" lon="0.205189"><ele>2133.0</ele></trkpt>
      <trkpt lat="42.884950" lon="0.205462"><ele>2123.0</ele></trkpt>
      <trkpt lat="42.885142" lon="0.205525"><ele>2124.6</ele></trkpt>
      <trkpt lat="42.885334" lon="0.206258"><ele>2117.2</ele></trkpt>
      <trkpt lat="42.885307" lon="0.206470"><ele>2118.0</ele></trkpt>
      <trkpt lat="42.885670" lon="0.206506"><ele>2117.0</ele></trkpt>
      <trkpt lat="42.885797" lon="0.206333"><ele>2115.2</ele></trkpt>
      <trkpt lat="42.886072" lon="0.206300"><ele>2121.0</ele></trkpt>
      <trkpt lat="42.886178" lon="0.206194"><ele>2123.8</ele></trkpt>
      <trkpt lat="42.886672" lon="0.205345"><ele>2120.2</ele></trkpt>
      <trkpt lat="42.887396" lon="0.205347"><ele>2132.6</ele></trkpt>
      <trkpt lat="42.887504" lon="0.205186"><ele>2133.8</ele></trkpt>
      <trkpt lat="42.887711" lon="0.205116"><ele>2130.8</ele></trkpt>
      <trkpt lat="42.887913" lon="0.205188"><ele>2127.8</ele></trkpt>
      <trkpt lat="42.888344" lon="0.205077"><ele>2127.8</ele></trkpt>
      <trkpt lat="42.888792" lon="0.205134"><ele>2125.8</ele></trkpt>
      <trkpt lat="42.889002" lon="0.204522"><ele>2119.2</ele></trkpt>
      <trkpt lat="42.889005" lon="0.204311"><ele>2118.4</ele></trkpt>
      <trkpt lat="42.889293" lon="0.203793"><ele>2118.0</ele></trkpt>
      <trkpt lat="42.889343" lon="0.203860"><ele>2123.0</ele></trkpt>
      <trkpt lat="42.889543" lon="0.203657"><ele>2130.4</ele></trkpt>
      <trkpt lat="42.889934" lon="0.202856"><ele>2144.8</ele></trkpt>
      <trkpt lat="42.890292" lon="0.202509"><ele>2152.8</ele></trkpt>
      <trkpt lat="42.890416" lon="0.202140"><ele>2157.8</ele></trkpt>
      <trkpt lat="42.890582" lon="0.202027"><ele>2160.0</ele></trkpt>
      <trkpt lat="42.890719" lon="0.201589"><ele>2157.8</ele></trkpt>
      <trkpt lat="42.890945" lon="0.201519"><ele>2160.6</ele></trkpt>
      <trkpt lat="42.891162" lon="0.201090"><ele>2155.0</ele></trkpt>
      <trkpt lat="42.891332" lon="0.201005"><ele>2148.6</ele></trkpt>
      <trkpt lat="42.891366" lon="0.200844"><ele>2146.8</ele></trkpt>
      <trkpt lat="42.891999" lon="0.200976"><ele>2130.8</ele></trkpt>
      <trkpt lat="42.892222" lon="0.200822"><ele>2130.6</ele></trkpt>
      <trkpt lat="42.892331" lon="0.200868"><ele>2131.2</ele></trkpt>
      <trkpt lat="42.892682" lon="0.200718"><ele>2130.0</ele></trkpt>
      <trkpt lat="42.892726" lon="0.200229"><ele>2120.6</ele></trkpt>
      <trkpt lat="42.892835" lon="0.200216"><ele>2117.8</ele></trkpt>
      <trkpt lat="42.892791" lon="0.200085"><ele>2112.2</ele></trkpt>
      <trkpt lat="42.892988" lon="0.199988"><ele>2105.4</ele></trkpt>
      <trkpt lat="42.892999" lon="0.199860"><ele>2103.2</ele></trkpt>
      <trkpt lat="42.892898" lon="0.199608"><ele>2100.2</ele></trkpt>
      <trkpt lat="42.892722" lon="0.199477"><ele>2096.6</ele></trkpt>
      <trkpt lat="42.892827" lon="0.199335"><ele>2091.4</ele></trkpt>
      <trkpt lat="42.892745" lon="0.198973"><ele>2087.4</ele></trkpt>
      <trkpt lat="42.892349" lon="0.198404"><ele>2082.6</ele></trkpt>
      <trkpt lat="42.892445" lon="0.198021"><ele>2079.6</ele></trkpt>
      <trkpt lat="42.892737" lon="0.197796"><ele>2078.0</ele></trkpt>
      <trkpt lat="42.893023" lon="0.197369"><ele>2076.0</ele></trkpt>
      <trkpt lat="42.893268" lon="0.197504"><ele>2066.8</ele></trkpt>
      <trkpt lat="42.893304" lon="0.197384"><ele>2062.4</ele></trkpt>
      <trkpt lat="42.893905" lon="0.197244"><ele>2056.2</ele></trkpt>
      <trkpt lat="42.894036" lon="0.197052"><ele>2054.2</ele></trkpt>
      <trkpt lat="42.894362" lon="0.197341"><ele>2049.6</ele></trkpt>
      <trkpt lat="42.894518" lon="0.197662"><ele>2046.0</ele></trkpt>
      <trkpt lat="42.894801" lon="0.197846"><ele>2043.6</ele></trkpt>
      <trkpt lat="42.894883" lon="0.198085"><ele>2044.0</ele></trkpt>
      <trkpt lat="42.895648" lon="0.198518"><ele>2043.0</ele></trkpt>
      <trkpt lat="42.895879" lon="0.198562"><ele>2043.8</ele></trkpt>
      <trkpt lat="42.896171" lon="0.198862"><ele>2044.6</ele></trkpt>
      <trkpt lat="42.896293" lon="0.199246"><ele>2047.6</ele></trkpt>
      <trkpt lat="42.896449" lon="0.199466"><ele>2047.6</ele></trkpt>
      <trkpt lat="42.896515" lon="0.199846"><ele>2048.2</ele></trkpt>
      <trkpt lat="42.896623" lon="0.199977"><ele>2049.0</ele></trkpt>
      <trkpt lat="42.896539" lon="0.200119"><ele>2046.6</ele></trkpt>
      <trkpt lat="42.896625" lon="0.200419"><ele>2039.8</ele></trkpt>
      <trkpt lat="42.897343" lon="0.200071"><ele>2029.2</ele></trkpt>
      <trkpt lat="42.897934" lon="0.200456"><ele>2013.8</ele></trkpt>
      <trkpt lat="42.898796" lon="0.200672"><ele>1992.4</ele></trkpt>
      <trkpt lat="42.898587" lon="0.201455"><ele>1970.6</ele></trkpt>
      <trkpt lat="42.898613" lon="0.201784"><ele>1965.8</ele></trkpt>
      <trkpt lat="42.899143" lon="0.202535"><ele>1961.8</ele></trkpt>
      <trkpt lat="42.899463" lon="0.202836"><ele>1959.4</ele></trkpt>
      <trkpt lat="42.899737" lon="0.203977"><ele>1943.2</ele></trkpt>
      <trkpt lat="42.899945" lon="0.204278"><ele>1936.6</ele></trkpt>
      <trkpt lat="42.900107" lon="0.204279"><ele>1932.4</ele></trkpt>
      <trkpt lat="42.900312" lon="0.204427"><ele>1924.6</ele></trkpt>
      <trkpt lat="42.900684" lon="0.204929"><ele>1912.8</ele></trkpt>
      <trkpt lat="42.901085" lon="0.205787"><ele>1889.0</ele></trkpt>
      <trkpt lat="42.901603" lon="0.207225"><ele>1858.4</ele></trkpt>
      <trkpt lat="42.901838" lon="0.207426"><ele>1850.0</ele></trkpt>
      <trkpt lat="42.901673" lon="0.207603"><ele>1840.8</ele></trkpt>
      <trkpt lat="42.901668" lon="0.207880"><ele>1833.4</ele></trkpt>
      <trkpt lat="42.902055" lon="0.207972"><ele>1819.6</ele></trkpt>
      <trkpt lat="42.902199" lon="0.208399"><ele>1805.2</ele></trkpt>
      <trkpt lat="42.902417" lon="0.208400"><ele>1795.8</ele></trkpt>
      <trkpt lat="42.902526" lon="0.208296"><ele>1791.4</ele></trkpt>
      <trkpt lat="42.902749" lon="0.208348"><ele>1780.4</ele></trkpt>
      <trkpt lat="42.902767" lon="0.208477"><ele>1776.2</ele></trkpt>
      <trkpt lat="42.903357" lon="0.208791"><ele>1767.0</ele></trkpt>
      <trkpt lat="42.904155" lon="0.209461"><ele>1740.6</ele></trkpt>
      <trkpt lat="42.904354" lon="0.209500"><ele>1736.4</ele></trkpt>
      <trkpt lat="42.904518" lon="0.209736"><ele>1732.4</ele></trkpt>
      <trkpt lat="42.904577" lon="0.209513"><ele>1727.6</ele></trkpt>
      <trkpt lat="42.904730" lon="0.209473"><ele>1721.8</ele></trkpt>
      <trkpt lat="42.904808" lon="0.209604"><ele>1713.4</ele></trkpt>
      <trkpt lat="42.905150" lon="0.209199"><ele>1693.4</ele></trkpt>
      <trkpt lat="42.905589" lon="0.209115"><ele>1676.2</ele></trkpt>
      <trkpt lat="42.905874" lon="0.208812"><ele>1671.8</ele></trkpt>
      <trkpt lat="42.906964" lon="0.208261"><ele>1678.4</ele></trkpt>
      <trkpt lat="42.907192" lon="0.208016"><ele>1677.4</ele></trkpt>
      <trkpt lat="42.907774" lon="0.207904"><ele>1684.8</ele></trkpt>
      <trkpt lat="42.908276" lon="0.207412"><ele>1710.0</ele></trkpt>
      <trkpt lat="42.908674" lon="0.207409"><ele>1719.2</ele></trkpt>
      <trkpt lat="42.908905" lon="0.207526"><ele>1728.4</ele></trkpt>
      <trkpt lat="42.909372" lon="0.207475"><ele>1741.8</ele></trkpt>
      <trkpt lat="42.909339" lon="0.207396"><ele>1743.0</ele></trkpt>
      <trkpt lat="42.909537" lon="0.206918"><ele>1763.0</ele></trkpt>
      <trkpt lat="42.909423" lon="0.205834"><ele>1804.2</ele></trkpt>
      <trkpt lat="42.909577" lon="0.204415"><ele>1827.0</ele></trkpt>
      <trkpt lat="42.909826" lon="0.203745"><ele>1836.8</ele></trkpt>
      <trkpt lat="42.909860" lon="0.202207"><ele>1860.8</ele></trkpt>
      <trkpt lat="42.909793" lon="0.201804"><ele>1865.2</ele></trkpt>
      <trkpt lat="42.909853" lon="0.200918"><ele>1897.4</ele></trkpt>
      <trkpt lat="42.909739" lon="0.200211"><ele>1917.6</ele></trkpt>
      <trkpt lat="42.909254" lon="0.198682"><ele>1935.2</ele></trkpt>
      <trkpt lat="42.909219" lon="0.197979"><ele>1949.0</ele></trkpt>
      <trkpt lat="42.909051" lon="0.197657"><ele>1960.6</ele></trkpt>
      <trkpt lat="42.909182" lon="0.196719"><ele>1982.6</ele></trkpt>
      <trkpt lat="42.909164" lon="0.196576"><ele>1985.2</ele></trkpt>
      <trkpt lat="42.909044" lon="0.196470"><ele>1988.6</ele></trkpt>
      <trkpt lat="42.909120" lon="0.195828"><ele>2005.2</ele></trkpt>
      <trkpt lat="42.909006" lon="0.195486"><ele>2017.6</ele></trkpt>
      <trkpt lat="42.909273" lon="0.195160"><ele>2021.4</ele></trkpt>
      <trkpt lat="42.909267" lon="0.194883"><ele>2030.4</ele></trkpt>
      <trkpt lat="42.909384" lon="0.194577"><ele>2040.8</ele></trkpt>
      <trkpt lat="42.909245" lon="0.194344"><ele>2047.0</ele></trkpt>
      <trkpt lat="42.909201" lon="0.193985"><ele>2049.0</ele></trkpt>
      <trkpt lat="42.909238" lon="0.193329"><ele>2069.8</ele></trkpt>
      <trkpt lat="42.909350" lon="0.192898"><ele>2075.4</ele></trkpt>
      <trkpt lat="42.909686" lon="0.192397"><ele>2051.6</ele></trkpt>
      <trkpt lat="42.909852" lon="0.192447"><ele>2043.4</ele></trkpt>
      <trkpt lat="42.910286" lon="0.192134"><ele>2019.4</ele></trkpt>
      <trkpt lat="42.910022" lon="0.191680"><ele>2007.6</ele></trkpt>
      <trkpt lat="42.910054" lon="0.191303"><ele>2002.8</ele></trkpt>
      <trkpt lat="42.909907" lon="0.191245"><ele>2002.0</ele></trkpt>
      <trkpt lat="42.909969" lon="0.190313"><ele>1960.0</ele></trkpt>
      <trkpt lat="42.910160" lon="0.189180"><ele>1939.6</ele></trkpt>
      <trkpt lat="42.910290" lon="0.189057"><ele>1933.2</ele></trkpt>
      <trkpt lat="42.910260" lon="0.188484"><ele>1921.2</ele></trkpt>
      <trkpt lat="42.910606" lon="0.188361"><ele>1909.0</ele></trkpt>
      <trkpt lat="42.910738" lon="0.188186"><ele>1906.6</ele></trkpt>
      <trkpt lat="42.910589" lon="0.188071"><ele>1897.8</ele></trkpt>
      <trkpt lat="42.910521" lon="0.187844"><ele>1892.6</ele></trkpt>
      <trkpt lat="42.910045" lon="0.187401"><ele>1871.6</ele></trkpt>
      <trkpt lat="42.910015" lon="0.187025"><ele>1866.8</ele></trkpt>
      <trkpt lat="42.909843" lon="0.186627"><ele>1861.8</ele></trkpt>
      <trkpt lat="42.909438" lon="0.186524"><ele>1852.4</ele></trkpt>
      <trkpt lat="42.908979" lon="0.186041"><ele>1837.8</ele></trkpt>
      <trkpt lat="42.908678" lon="0.185855"><ele>1832.2</ele></trkpt>
      <trkpt lat="42.908531" lon="0.185486"><ele>1827.0</ele></trkpt>
      <trkpt lat="42.909823" lon="0.182382"><ele>1744.2</ele></trkpt>
      <trkpt lat="42.910232" lon="0.182092"><ele>1732.0</ele></trkpt>
      <trkpt lat="42.910257" lon="0.181948"><ele>1729.0</ele></trkpt>
      <trkpt lat="42.910146" lon="0.181680"><ele>1725.6</ele></trkpt>
      <trkpt lat="42.909931" lon="0.181587"><ele>1726.0</ele></trkpt>
      <trkpt lat="42.910003" lon="0.181512"><ele>1726.8</ele></trkpt>
      <trkpt lat="42.910032" lon="0.181620"><ele>1726.2</ele></trkpt>
      <trkpt lat="42.909991" lon="0.181535"><ele>1726.0</ele></trkpt>
      <trkpt lat="42.910039" lon="0.181515"><ele>1726.0</ele></trkpt>
      <trkpt lat="42.909974" lon="0.181560"><ele>1727.8</ele></trkpt>
      <trkpt lat="42.910189" lon="0.181420"><ele>1728.4</ele></trkpt>
      <trkpt lat="42.910348" lon="0.181060"><ele>1730.8</ele></trkpt>
      <trkpt lat="42.910480" lon="0.181123"><ele>1734.2</ele></trkpt>
      <trkpt lat="42.910446" lon="0.181026"><ele>1732.8</ele></trkpt>
      <trkpt lat="42.910740" lon="0.181495"><ele>1734.0</ele></trkpt>
      <trkpt lat="42.911139" lon="0.181581"><ele>1727.0</ele></trkpt>
      <trkpt lat="42.911293" lon="0.181533"><ele>1721.6</ele></trkpt>
      <trkpt lat="42.911999" lon="0.180620"><ele>1728.8</ele></trkpt>
      <trkpt lat="42.912456" lon="0.180472"><ele>1727.2</ele></trkpt>
      <trkpt lat="42.912775" lon="0.180748"><ele>1723.8</ele></trkpt>
      <trkpt lat="42.913555" lon="0.180449"><ele>1709.0</ele></trkpt>
      <trkpt lat="42.913698" lon="0.180472"><ele>1706.6</ele></trkpt>
      <trkpt lat="42.913958" lon="0.180705"><ele>1701.2</ele></trkpt>
      <trkpt lat="42.914283" lon="0.181222"><ele>1692.6</ele></trkpt>
      <trkpt lat="42.914450" lon="0.181361"><ele>1689.2</ele></trkpt>
      <trkpt lat="42.914666" lon="0.181348"><ele>1685.8</ele></trkpt>
      <trkpt lat="42.914788" lon="0.181850"><ele>1679.6</ele></trkpt>
      <trkpt lat="42.915143" lon="0.182284"><ele>1671.6</ele></trkpt>
      <trkpt lat="42.915942" lon="0.182555"><ele>1660.4</ele></trkpt>
      <trkpt lat="42.916115" lon="0.182976"><ele>1656.8</ele></trkpt>
      <trkpt lat="42.916034" lon="0.183339"><ele>1655.0</ele></trkpt>
      <trkpt lat="42.916301" lon="0.183815"><ele>1646.2</ele></trkpt>
      <trkpt lat="42.917328" lon="0.184796"><ele>1625.6</ele></trkpt>
      <trkpt lat="42.918019" lon="0.185274"><ele>1621.2</ele></trkpt>
      <trkpt lat="42.918370" lon="0.185326"><ele>1624.0</ele></trkpt>
      <trkpt lat="42.918660" lon="0.185492"><ele>1621.6</ele></trkpt>
      <trkpt lat="42.918860" lon="0.185502"><ele>1622.0</ele></trkpt>
      <trkpt lat="42.919040" lon="0.185363"><ele>1625.2</ele></trkpt>
      <trkpt lat="42.919304" lon="0.185402"><ele>1627.6</ele></trkpt>
      <trkpt lat="42.919660" lon="0.185678"><ele>1626.4</ele></trkpt>
      <trkpt lat="42.919957" lon="0.185645"><ele>1628.8</ele></trkpt>
      <trkpt lat="42.920109" lon="0.185931"><ele>1632.2</ele></trkpt>
      <trkpt lat="42.920848" lon="0.186565"><ele>1653.6</ele></trkpt>
      <trkpt lat="42.921608" lon="0.186618"><ele>1672.2</ele></trkpt>
      <trkpt lat="42.921843" lon="0.186549"><ele>1675.6</ele></trkpt>
      <trkpt lat="42.922270" lon="0.186151"><ele>1668.0</ele></trkpt>
      <trkpt lat="42.922841" lon="0.186055"><ele>1665.0</ele></trkpt>
      <trkpt lat="42.923161" lon="0.185692"><ele>1664.6</ele></trkpt>
      <trkpt lat="42.924019" lon="0.185247"><ele>1662.4</ele></trkpt>
      <trkpt lat="42.925117" lon="0.184159"><ele>1643.6</ele></trkpt>
      <trkpt lat="42.925218" lon="0.183957"><ele>1639.4</ele></trkpt>
      <trkpt lat="42.925993" lon="0.183267"><ele>1616.4</ele></trkpt>
      <trkpt lat="42.926221" lon="0.182859"><ele>1606.4</ele></trkpt>
      <trkpt lat="42.927584" lon="0.182174"><ele>1570.6</ele></trkpt>
      <trkpt lat="42.927977" lon="0.181900"><ele>1560.6</ele></trkpt>
      <trkpt lat="42.928281" lon="0.181452"><ele>1560.2</ele></trkpt>
      <trkpt lat="42.928341" lon="0.181033"><ele>1564.2</ele></trkpt>
      <trkpt lat="42.928275" lon="0.180482"><ele>1570.8</ele></trkpt>
      <trkpt lat="42.928572" lon="0.179689"><ele>1582.8</ele></trkpt>
      <trkpt lat="42.928581" lon="0.179046"><ele>1591.0</ele></trkpt>
      <trkpt lat="42.929344" lon="0.177291"><ele>1618.2</ele></trkpt>
      <trkpt lat="42.929532" lon="0.176419"><ele>1627.6</ele></trkpt>
      <trkpt lat="42.929958" lon="0.175660"><ele>1640.8</ele></trkpt>
      <trkpt lat="42.930063" lon="0.174871"><ele>1649.6</ele></trkpt>
      <trkpt lat="42.930030" lon="0.174329"><ele>1657.4</ele></trkpt>
      <trkpt lat="42.929780" lon="0.173712"><ele>1666.2</ele></trkpt>
      <trkpt lat="42.929663" lon="0.173041"><ele>1675.2</ele></trkpt>
      <trkpt lat="42.929427" lon="0.172424"><ele>1682.6</ele></trkpt>
      <trkpt lat="42.929162" lon="0.172124"><ele>1687.6</ele></trkpt>
      <trkpt lat="42.929148" lon="0.171281"><ele>1700.6</ele></trkpt>
      <trkpt lat="42.928925" lon="0.170485"><ele>1710.8</ele></trkpt>
      <trkpt lat="42.928895" lon="0.168833"><ele>1737.8</ele></trkpt>
      <trkpt lat="42.928666" lon="0.168099"><ele>1752.6</ele></trkpt>
      <trkpt lat="42.928467" lon="0.166574"><ele>1782.4</ele></trkpt>
      <trkpt lat="42.928154" lon="0.165594"><ele>1805.4</ele></trkpt>
      <trkpt lat="42.928316" lon="0.165149"><ele>1813.8</ele></trkpt>
      <trkpt lat="42.928437" lon="0.165050"><ele>1815.4</ele></trkpt>
      <trkpt lat="42.928649" lon="0.165182"><ele>1815.4</ele></trkpt>
      <trkpt lat="42.928700" lon="0.164893"><ele>1818.6</ele></trkpt>
      <trkpt lat="42.928298" lon="0.164389"><ele>1828.8</ele></trkpt>
      <trkpt lat="42.928513" lon="0.164101"><ele>1831.0</ele></trkpt>
      <trkpt lat="42.928521" lon="0.163747"><ele>1835.0</ele></trkpt>
      <trkpt lat="42.928911" lon="0.163242"><ele>1839.2</ele></trkpt>
      <trkpt lat="42.929321" lon="0.163051"><ele>1846.0</ele></trkpt>
      <trkpt lat="42.930605" lon="0.162758"><ele>1853.8</ele></trkpt>
      <trkpt lat="42.930958" lon="0.162314"><ele>1860.2</ele></trkpt>
      <trkpt lat="42.931450" lon="0.162019"><ele>1868.2</ele></trkpt>
      <trkpt lat="42.932014" lon="0.161197"><ele>1880.2</ele></trkpt>
      <trkpt lat="42.932189" lon="0.160444"><ele>1891.4</ele></trkpt>
      <trkpt lat="42.932415" lon="0.160173"><ele>1895.2</ele></trkpt>
      <trkpt lat="42.932211" lon="0.160075"><ele>1901.0</ele></trkpt>
      <trkpt lat="42.932076" lon="0.160159"><ele>1905.4</ele></trkpt>
      <trkpt lat="42.931985" lon="0.159908"><ele>1908.6</ele></trkpt>
      <trkpt lat="42.932024" lon="0.159663"><ele>1912.6</ele></trkpt>
      <trkpt lat="42.931843" lon="0.159283"><ele>1921.8</ele></trkpt>
      <trkpt lat="42.931937" lon="0.159217"><ele>1924.2</ele></trkpt>
      <trkpt lat="42.932207" lon="0.159310"><ele>1929.8</ele></trkpt>
      <trkpt lat="42.932178" lon="0.159092"><ele>1931.8</ele></trkpt>
      <trkpt lat="42.931985" lon="0.158803"><ele>1937.8</ele></trkpt>
      <trkpt lat="42.931795" lon="0.158816"><ele>1942.6</ele></trkpt>
      <trkpt lat="42.931476" lon="0.159165"><ele>1946.4</ele></trkpt>
      <trkpt lat="42.931743" lon="0.158357"><ele>1958.0</ele></trkpt>
      <trkpt lat="42.931457" lon="0.157134"><ele>1976.0</ele></trkpt>
      <trkpt lat="42.931553" lon="0.157085"><ele>1976.2</ele></trkpt>
      <trkpt lat="42.931812" lon="0.156600"><ele>1982.8</ele></trkpt>
      <trkpt lat="42.932117" lon="0.156445"><ele>1988.6</ele></trkpt>
      <trkpt lat="42.931524" lon="0.156076"><ele>2000.6</ele></trkpt>
      <trkpt lat="42.931305" lon="0.156082"><ele>2004.6</ele></trkpt>
      <trkpt lat="42.931071" lon="0.155867"><ele>2010.0</ele></trkpt>
      <trkpt lat="42.931210" lon="0.155743"><ele>2014.0</ele></trkpt>
      <trkpt lat="42.931099" lon="0.155570"><ele>2020.8</ele></trkpt>
      <trkpt lat="42.931233" lon="0.155395"><ele>2025.4</ele></trkpt>
      <trkpt lat="42.931048" lon="0.155173"><ele>2033.4</ele></trkpt>
      <trkpt lat="42.930928" lon="0.154771"><ele>2038.8</ele></trkpt>
      <trkpt lat="42.930938" lon="0.154254"><ele>2051.0</ele></trkpt>
      <trkpt lat="42.930693" lon="0.153342"><ele>2065.8</ele></trkpt>
      <trkpt lat="42.930364" lon="0.153213"><ele>2071.8</ele></trkpt>
      <trkpt lat="42.929935" lon="0.154158"><ele>2084.2</ele></trkpt>
      <trkpt lat="42.929872" lon="0.154105"><ele>2087.0</ele></trkpt>
      <trkpt lat="42.929803" lon="0.153274"><ele>2099.4</ele></trkpt>
      <trkpt lat="42.929916" lon="0.152587"><ele>2108.8</ele></trkpt>
      <trkpt lat="42.930087" lon="0.152195"><ele>2117.4</ele></trkpt>
      <trkpt lat="42.930190" lon="0.151681"><ele>2123.6</ele></trkpt>
      <trkpt lat="42.930081" lon="0.151270"><ele>2129.4</ele></trkpt>
      <trkpt lat="42.930075" lon="0.150643"><ele>2137.6</ele></trkpt>
      <trkpt lat="42.929902" lon="0.149939"><ele>2150.6</ele></trkpt>
      <trkpt lat="42.929701" lon="0.149948"><ele>2155.8</ele></trkpt>
      <trkpt lat="42.929583" lon="0.149756"><ele>2160.8</ele></trkpt>
      <trkpt lat="42.929532" lon="0.149346"><ele>2167.6</ele></trkpt>
      <trkpt lat="42.929629" lon="0.149197"><ele>2168.8</ele></trkpt>
      <trkpt lat="42.929586" lon="0.148773"><ele>2175.2</ele></trkpt>
      <trkpt lat="42.929431" lon="0.148261"><ele>2185.6</ele></trkpt>
      <trkpt lat="42.929191" lon="0.148086"><ele>2190.6</ele></trkpt>
      <trkpt lat="42.929029" lon="0.147772"><ele>2195.2</ele></trkpt>
      <trkpt lat="42.928824" lon="0.147686"><ele>2197.8</ele></trkpt>
      <trkpt lat="42.928399" lon="0.147134"><ele>2209.2</ele></trkpt>
      <trkpt lat="42.928275" lon="0.146781"><ele>2216.8</ele></trkpt>
      <trkpt lat="42.928059" lon="0.146469"><ele>2222.6</ele></trkpt>
      <trkpt lat="42.928058" lon="0.145770"><ele>2230.4</ele></trkpt>
      <trkpt lat="42.927917" lon="0.145507"><ele>2234.6</ele></trkpt>
      <trkpt lat="42.927733" lon="0.144763"><ele>2246.4</ele></trkpt>
      <trkpt lat="42.928175" lon="0.143428"><ele>2265.0</ele></trkpt>
      <trkpt lat="42.928305" lon="0.143260"><ele>2269.2</ele></trkpt>
      <trkpt lat="42.928543" lon="0.143218"><ele>2273.2</ele></trkpt>
      <trkpt lat="42.928998" lon="0.142915"><ele>2281.4</ele></trkpt>
      <trkpt lat="42.929260" lon="0.142968"><ele>2283.8</ele></trkpt>
      <trkpt lat="42.929480" lon="0.142706"><ele>2292.8</ele></trkpt>
      <trkpt lat="42.929911" lon="0.143082"><ele>2297.8</ele></trkpt>
      <trkpt lat="42.929797" lon="0.142759"><ele>2304.2</ele></trkpt>
      <trkpt lat="42.929912" lon="0.142691"><ele>2309.6</ele></trkpt>
      <trkpt lat="42.929834" lon="0.142571"><ele>2314.0</ele></trkpt>
      <trkpt lat="42.929981" lon="0.142188"><ele>2321.0</ele></trkpt>
      <trkpt lat="42.930060" lon="0.141350"><ele>2335.6</ele></trkpt>
      <trkpt lat="42.930410" lon="0.140328"><ele>2355.2</ele></trkpt>
      <trkpt lat="42.930435" lon="0.139917"><ele>2364.8</ele></trkpt>
      <trkpt lat="42.930606" lon="0.139526"><ele>2368.8</ele></trkpt>
      <trkpt lat="42.930376" lon="0.139088"><ele>2375.4</ele></trkpt>
      <trkpt lat="42.930516" lon="0.138614"><ele>2383.4</ele></trkpt>
      <trkpt lat="42.930508" lon="0.138364"><ele>2385.2</ele></trkpt>
      <trkpt lat="42.930646" lon="0.138290"><ele>2383.4</ele></trkpt>
      <trkpt lat="42.930595" lon="0.138371"><ele>2381.0</ele></trkpt>
      <trkpt lat="42.930560" lon="0.138290"><ele>2378.6</ele></trkpt>
      <trkpt lat="42.930449" lon="0.138350"><ele>2380.4</ele></trkpt>
      <trkpt lat="42.930502" lon="0.138503"><ele>2378.4</ele></trkpt>
      <trkpt lat="42.930577" lon="0.138412"><ele>2378.6</ele></trkpt>
      <trkpt lat="42.930506" lon="0.138466"><ele>2376.4</ele></trkpt>
      <trkpt lat="42.930784" lon="0.138629"><ele>2374.0</ele></trkpt>
      <trkpt lat="42.930928" lon="0.138480"><ele>2371.8</ele></trkpt>
      <trkpt lat="42.930983" lon="0.138205"><ele>2370.0</ele></trkpt>
      <trkpt lat="42.930653" lon="0.137890"><ele>2367.0</ele></trkpt>
      <trkpt lat="42.930301" lon="0.138278"><ele>2366.0</ele></trkpt>
      <trkpt lat="42.929532" lon="0.138296"><ele>2354.4</ele></trkpt>
      <trkpt lat="42.928787" lon="0.138502"><ele>2349.8</ele></trkpt>
      <trkpt lat="42.927178" lon="0.137812"><ele>2334.6</ele></trkpt>
      <trkpt lat="42.926545" lon="0.137433"><ele>2320.6</ele></trkpt>
      <trkpt lat="42.926325" lon="0.137167"><ele>2311.4</ele></trkpt>
      <trkpt lat="42.926908" lon="0.136726"><ele>2299.2</ele></trkpt>
      <trkpt lat="42.926957" lon="0.136594"><ele>2296.6</ele></trkpt>
      <trkpt lat="42.926887" lon="0.136149"><ele>2289.6</ele></trkpt>
      <trkpt lat="42.926320" lon="0.135417"><ele>2270.6</ele></trkpt>
      <trkpt lat="42.927034" lon="0.135552"><ele>2260.2</ele></trkpt>
      <trkpt lat="42.927204" lon="0.135450"><ele>2256.8</ele></trkpt>
      <trkpt lat="42.927161" lon="0.135221"><ele>2250.2</ele></trkpt>
      <trkpt lat="42.927249" lon="0.135145"><ele>2249.8</ele></trkpt>
      <trkpt lat="42.926873" lon="0.134632"><ele>2244.6</ele></trkpt>
      <trkpt lat="42.926205" lon="0.134290"><ele>2239.0</ele></trkpt>
      <trkpt lat="42.925908" lon="0.133875"><ele>2240.2</ele></trkpt>
      <trkpt lat="42.925746" lon="0.133883"><ele>2238.0</ele></trkpt>
      <trkpt lat="42.925317" lon="0.134198"><ele>2228.0</ele></trkpt>
      <trkpt lat="42.924960" lon="0.134327"><ele>2222.0</ele></trkpt>
      <trkpt lat="42.924834" lon="0.134104"><ele>2219.8</ele></trkpt>
      <trkpt lat="42.924322" lon="0.133638"><ele>2215.8</ele></trkpt>
      <trkpt lat="42.923799" lon="0.133224"><ele>2209.6</ele></trkpt>
      <trkpt lat="42.923280" lon="0.132974"><ele>2203.4</ele></trkpt>
      <trkpt lat="42.922595" lon="0.132765"><ele>2194.8</ele></trkpt>
      <trkpt lat="42.921981" lon="0.132826"><ele>2185.2</ele></trkpt>
      <trkpt lat="42.921442" lon="0.132733"><ele>2175.4</ele></trkpt>
      <trkpt lat="42.921013" lon="0.132575"><ele>2173.6</ele></trkpt>
      <trkpt lat="42.920387" lon="0.132156"><ele>2175.8</ele></trkpt>
      <trkpt lat="42.919934" lon="0.132174"><ele>2169.0</ele></trkpt>
      <trkpt lat="42.919792" lon="0.132087"><ele>2166.4</ele></trkpt>
      <trkpt lat="42.919588" lon="0.132283"><ele>2162.6</ele></trkpt>
      <trkpt lat="42.919399" lon="0.132300"><ele>2158.8</ele></trkpt>
      <trkpt lat="42.919206" lon="0.132160"><ele>2156.4</ele></trkpt>
      <trkpt lat="42.918965" lon="0.131758"><ele>2153.0</ele></trkpt>
      <trkpt lat="42.918130" lon="0.131847"><ele>2140.2</ele></trkpt>
      <trkpt lat="42.918075" lon="0.131661"><ele>2137.4</ele></trkpt>
      <trkpt lat="42.918159" lon="0.131295"><ele>2134.4</ele></trkpt>
      <trkpt lat="42.918117" lon="0.131248"><ele>2133.0</ele></trkpt>
      <trkpt lat="42.917798" lon="0.131543"><ele>2125.2</ele></trkpt>
      <trkpt lat="42.917825" lon="0.131936"><ele>2121.0</ele></trkpt>
      <trkpt lat="42.917720" lon="0.132213"><ele>2118.2</ele></trkpt>
      <trkpt lat="42.917320" lon="0.132258"><ele>2111.6</ele></trkpt>
      <trkpt lat="42.917479" lon="0.131924"><ele>2103.0</ele></trkpt>
      <trkpt lat="42.917445" lon="0.131641"><ele>2096.6</ele></trkpt>
      <trkpt lat="42.917352" lon="0.131511"><ele>2094.2</ele></trkpt>
      <trkpt lat="42.916752" lon="0.130996"><ele>2079.8</ele></trkpt>
      <trkpt lat="42.916467" lon="0.131003"><ele>2076.0</ele></trkpt>
      <trkpt lat="42.916253" lon="0.130702"><ele>2069.8</ele></trkpt>
      <trkpt lat="42.915192" lon="0.129777"><ele>2050.4</ele></trkpt>
      <trkpt lat="42.914552" lon="0.129429"><ele>2039.0</ele></trkpt>
      <trkpt lat="42.914124" lon="0.128958"><ele>2028.4</ele></trkpt>
      <trkpt lat="42.913791" lon="0.128187"><ele>2018.2</ele></trkpt>
      <trkpt lat="42.913558" lon="0.127033"><ele>2002.4</ele></trkpt>
      <trkpt lat="42.913398" lon="0.127710"><ele>1995.8</ele></trkpt>
      <trkpt lat="42.913434" lon="0.128197"><ele>1988.8</ele></trkpt>
      <trkpt lat="42.913299" lon="0.129220"><ele>1978.0</ele></trkpt>
      <trkpt lat="42.913386" lon="0.130084"><ele>1973.0</ele></trkpt>
      <trkpt lat="42.913557" lon="0.130615"><ele>1969.4</ele></trkpt>
      <trkpt lat="42.913627" lon="0.131217"><ele>1964.6</ele></trkpt>
      <trkpt lat="42.913758" lon="0.131534"><ele>1962.6</ele></trkpt>
      <trkpt lat="42.913448" lon="0.131383"><ele>1954.6</ele></trkpt>
      <trkpt lat="42.913266" lon="0.131451"><ele>1950.6</ele></trkpt>
      <trkpt lat="42.912950" lon="0.132609"><ele>1929.6</ele></trkpt>
      <trkpt lat="42.912156" lon="0.133374"><ele>1905.4</ele></trkpt>
      <trkpt lat="42.911785" lon="0.133935"><ele>1900.6</ele></trkpt>
      <trkpt lat="42.911534" lon="0.134019"><ele>1898.6</ele></trkpt>
      <trkpt lat="42.911197" lon="0.133765"><ele>1896.2</ele></trkpt>
      <trkpt lat="42.910775" lon="0.132850"><ele>1884.4</ele></trkpt>
      <trkpt lat="42.910171" lon="0.132233"><ele>1874.8</ele></trkpt>
      <trkpt lat="42.909735" lon="0.130786"><ele>1860.0</ele></trkpt>
      <trkpt lat="42.909674" lon="0.130255"><ele>1854.8</ele></trkpt>
      <trkpt lat="42.909716" lon="0.129993"><ele>1852.0</ele></trkpt>
      <trkpt lat="42.909463" lon="0.128611"><ele>1836.2</ele></trkpt>
      <trkpt lat="42.909448" lon="0.127504"><ele>1826.6</ele></trkpt>
      <trkpt lat="42.909129" lon="0.124595"><ele>1797.4</ele></trkpt>
      <trkpt lat="42.909111" lon="0.122515"><ele>1775.0</ele></trkpt>
      <trkpt lat="42.909211" lon="0.119079"><ele>1739.2</ele></trkpt>
      <trkpt lat="42.909314" lon="0.118851"><ele>1736.6</ele></trkpt>
      <trkpt lat="42.909792" lon="0.118634"><ele>1729.6</ele></trkpt>
      <trkpt lat="42.910368" lon="0.118740"><ele>1720.8</ele></trkpt>
      <trkpt lat="42.910690" lon="0.118528"><ele>1716.6</ele></trkpt>
      <trkpt lat="42.910470" lon="0.118140"><ele>1712.0</ele></trkpt>
      <trkpt lat="42.910027" lon="0.116744"><ele>1698.2</ele></trkpt>
      <trkpt lat="42.909557" lon="0.116879"><ele>1678.6</ele></trkpt>
      <trkpt lat="42.909478" lon="0.116691"><ele>1675.4</ele></trkpt>
      <trkpt lat="42.909242" lon="0.116516"><ele>1670.4</ele></trkpt>
      <trkpt lat="42.909072" lon="0.116181"><ele>1659.6</ele></trkpt>
      <trkpt lat="42.908665" lon="0.115843"><ele>1644.0</ele></trkpt>
      <trkpt lat="42.908475" lon="0.115802"><ele>1638.0</ele></trkpt>
      <trkpt lat="42.908393" lon="0.115601"><ele>1634.0</ele></trkpt>
      <trkpt lat="42.908127" lon="0.115464"><ele>1628.0</ele></trkpt>
      <trkpt lat="42.907916" lon="0.115410"><ele>1625.0</ele></trkpt>
      <trkpt lat="42.907347" lon="0.115816"><ele>1616.0</ele></trkpt>
      <trkpt lat="42.907156" lon="0.115754"><ele>1614.2</ele></trkpt>
      <trkpt lat="42.907175" lon="0.114472"><ele>1603.0</ele></trkpt>
      <trkpt lat="42.906802" lon="0.113034"><ele>1584.2</ele></trkpt>
      <trkpt lat="42.906543" lon="0.110602"><ele>1568.2</ele></trkpt>
      <trkpt lat="42.906265" lon="0.110089"><ele>1564.2</ele></trkpt>
      <trkpt lat="42.905948" lon="0.109180"><ele>1552.8</ele></trkpt>
      <trkpt lat="42.905354" lon="0.106834"><ele>1537.0</ele></trkpt>
      <trkpt lat="42.904452" lon="0.104797"><ele>1489.8</ele></trkpt>
      <trkpt lat="42.903809" lon="0.103881"><ele>1468.2</ele></trkpt>
      <trkpt lat="42.903782" lon="0.103539"><ele>1463.0</ele></trkpt>
      <trkpt lat="42.903547" lon="0.103359"><ele>1461.2</ele></trkpt>
      <trkpt lat="42.903368" lon="0.102902"><ele>1458.0</ele></trkpt>
      <trkpt lat="42.903417" lon="0.102653"><ele>1456.0</ele></trkpt>
      <trkpt lat="42.903312" lon="0.102231"><ele>1454.0</ele></trkpt>
      <trkpt lat="42.903100" lon="0.102196"><ele>1453.0</ele></trkpt>
      <trkpt lat="42.903035" lon="0.102363"><ele>1455.8</ele></trkpt>
      <trkpt lat="42.902993" lon="0.102328"><ele>1455.4</ele></trkpt>
      <trkpt lat="42.902891" lon="0.103127"><ele>1461.0</ele></trkpt>
      <trkpt lat="42.902616" lon="0.103477"><ele>1463.8</ele></trkpt>
      <trkpt lat="42.902143" lon="0.103607"><ele>1467.2</ele></trkpt>
      <trkpt lat="42.901619" lon="0.103900"><ele>1473.6</ele></trkpt>
      <trkpt lat="42.901071" lon="0.104390"><ele>1482.2</ele></trkpt>
      <trkpt lat="42.900316" lon="0.104509"><ele>1492.0</ele></trkpt>
      <trkpt lat="42.899265" lon="0.104929"><ele>1504.2</ele></trkpt>
      <trkpt lat="42.898610" lon="0.105643"><ele>1506.2</ele></trkpt>
      <trkpt lat="42.897912" lon="0.105998"><ele>1514.4</ele></trkpt>
      <trkpt lat="42.897464" lon="0.106345"><ele>1521.4</ele></trkpt>
      <trkpt lat="42.896943" lon="0.106332"><ele>1528.2</ele></trkpt>
      <trkpt lat="42.896734" lon="0.106446"><ele>1529.4</ele></trkpt>
      <trkpt lat="42.895713" lon="0.106552"><ele>1542.8</ele></trkpt>
      <trkpt lat="42.895556" lon="0.106719"><ele>1546.8</ele></trkpt>
      <trkpt lat="42.894821" lon="0.106807"><ele>1562.6</ele></trkpt>
      <trkpt lat="42.894213" lon="0.106800"><ele>1576.8</ele></trkpt>
      <trkpt lat="42.893344" lon="0.106635"><ele>1594.0</ele></trkpt>
      <trkpt lat="42.892856" lon="0.106802"><ele>1604.0</ele></trkpt>
      <trkpt lat="42.892662" lon="0.106775"><ele>1608.6</ele></trkpt>
      <trkpt lat="42.892252" lon="0.106985"><ele>1617.2</ele></trkpt>
      <trkpt lat="42.891647" lon="0.106991"><ele>1631.0</ele></trkpt>
      <trkpt lat="42.891161" lon="0.107280"><ele>1641.0</ele></trkpt>
      <trkpt lat="42.890820" lon="0.107242"><ele>1647.0</ele></trkpt>
      <trkpt lat="42.890445" lon="0.107489"><ele>1651.8</ele></trkpt>
      <trkpt lat="42.889421" lon="0.107514"><ele>1662.0</ele></trkpt>
      <trkpt lat="42.889000" lon="0.107849"><ele>1667.2</ele></trkpt>
      <trkpt lat="42.887731" lon="0.108356"><ele>1682.6</ele></trkpt>
      <trkpt lat="42.886628" lon="0.108482"><ele>1698.2</ele></trkpt>
      <trkpt lat="42.886201" lon="0.108227"><ele>1705.6</ele></trkpt>
      <trkpt lat="42.886368" lon="0.108880"><ele>1710.8</ele></trkpt>
      <trkpt lat="42.886330" lon="0.108998"><ele>1713.0</ele></trkpt>
      <trkpt lat="42.886103" lon="0.109011"><ele>1716.0</ele></trkpt>
      <trkpt lat="42.885489" lon="0.109450"><ele>1723.4</ele></trkpt>
      <trkpt lat="42.884999" lon="0.110068"><ele>1733.4</ele></trkpt>
      <trkpt lat="42.884459" lon="0.110534"><ele>1738.6</ele></trkpt>
      <trkpt lat="42.884355" lon="0.110800"><ele>1739.8</ele></trkpt>
      <trkpt lat="42.883817" lon="0.111581"><ele>1745.8</ele></trkpt>
      <trkpt lat="42.883424" lon="0.111601"><ele>1748.8</ele></trkpt>
      <trkpt lat="42.883161" lon="0.111979"><ele>1754.0</ele></trkpt>
      <trkpt lat="42.883194" lon="0.112209"><ele>1755.0</ele></trkpt>
      <trkpt lat="42.883098" lon="0.112676"><ele>1756.2</ele></trkpt>
      <trkpt lat="42.882988" lon="0.112782"><ele>1756.8</ele></trkpt>
      <trkpt lat="42.882917" lon="0.113084"><ele>1762.2</ele></trkpt>
      <trkpt lat="42.882936" lon="0.113390"><ele>1766.4</ele></trkpt>
      <trkpt lat="42.882797" lon="0.113612"><ele>1768.4</ele></trkpt>
      <trkpt lat="42.882797" lon="0.114204"><ele>1776.4</ele></trkpt>
      <trkpt lat="42.882595" lon="0.114819"><ele>1786.6</ele></trkpt>
      <trkpt lat="42.882705" lon="0.115198"><ele>1792.4</ele></trkpt>
      <trkpt lat="42.882613" lon="0.115700"><ele>1795.2</ele></trkpt>
      <trkpt lat="42.882701" lon="0.115914"><ele>1796.0</ele></trkpt>
      <trkpt lat="42.882595" lon="0.116626"><ele>1809.0</ele></trkpt>
      <trkpt lat="42.882597" lon="0.117372"><ele>1825.6</ele></trkpt>
      <trkpt lat="42.882308" lon="0.117899"><ele>1836.6</ele></trkpt>
      <trkpt lat="42.882252" lon="0.119131"><ele>1861.4</ele></trkpt>
      <trkpt lat="42.882153" lon="0.119423"><ele>1867.4</ele></trkpt>
      <trkpt lat="42.882104" lon="0.119386"><ele>1869.6</ele></trkpt>
      <trkpt lat="42.882047" lon="0.119512"><ele>1873.4</ele></trkpt>
      <trkpt lat="42.881978" lon="0.119429"><ele>1876.4</ele></trkpt>
      <trkpt lat="42.881793" lon="0.120082"><ele>1887.0</ele></trkpt>
      <trkpt lat="42.881868" lon="0.120408"><ele>1889.0</ele></trkpt>
      <trkpt lat="42.882435" lon="0.121166"><ele>1897.6</ele></trkpt>
      <trkpt lat="42.882477" lon="0.121490"><ele>1900.4</ele></trkpt>
      <trkpt lat="42.882376" lon="0.122428"><ele>1899.6</ele></trkpt>
      <trkpt lat="42.882436" lon="0.123506"><ele>1901.2</ele></trkpt>
      <trkpt lat="42.882658" lon="0.124708"><ele>1898.2</ele></trkpt>
      <trkpt lat="42.882633" lon="0.124864"><ele>1897.0</ele></trkpt>
      <trkpt lat="42.882501" lon="0.124927"><ele>1896.6</ele></trkpt>
      <trkpt lat="42.882345" lon="0.125254"><ele>1896.4</ele></trkpt>
      <trkpt lat="42.882303" lon="0.125582"><ele>1897.6</ele></trkpt>
      <trkpt lat="42.882196" lon="0.125636"><ele>1897.0</ele></trkpt>
      <trkpt lat="42.882072" lon="0.125477"><ele>1898.4</ele></trkpt>
      <trkpt lat="42.882013" lon="0.125620"><ele>1900.8</ele></trkpt>
      <trkpt lat="42.882046" lon="0.126195"><ele>1908.6</ele></trkpt>
      <trkpt lat="42.881983" lon="0.126996"><ele>1922.0</ele></trkpt>
      <trkpt lat="42.882053" lon="0.127485"><ele>1924.8</ele></trkpt>
      <trkpt lat="42.881977" lon="0.127814"><ele>1924.6</ele></trkpt>
      <trkpt lat="42.882364" lon="0.127989"><ele>1924.2</ele></trkpt>
      <trkpt lat="42.882378" lon="0.128075"><ele>1925.4</ele></trkpt>
      <trkpt lat="42.882132" lon="0.129104"><ele>1939.4</ele></trkpt>
      <trkpt lat="42.882264" lon="0.129059"><ele>1944.2</ele></trkpt>
      <trkpt lat="42.882042" lon="0.130306"><ele>1954.2</ele></trkpt>
      <trkpt lat="42.881623" lon="0.131850"><ele>1959.0</ele></trkpt>
      <trkpt lat="42.881520" lon="0.132778"><ele>1963.8</ele></trkpt>
      <trkpt lat="42.881444" lon="0.132875"><ele>1963.0</ele></trkpt>
      <trkpt lat="42.881380" lon="0.133691"><ele>1956.2</ele></trkpt>
      <trkpt lat="42.881526" lon="0.133830"><ele>1956.8</ele></trkpt>
      <trkpt lat="42.881625" lon="0.134105"><ele>1957.2</ele></trkpt>
      <trkpt lat="42.881596" lon="0.134517"><ele>1958.2</ele></trkpt>
      <trkpt lat="42.881459" lon="0.135031"><ele>1964.0</ele></trkpt>
      <trkpt lat="42.881134" lon="0.135295"><ele>1966.2</ele></trkpt>
      <trkpt lat="42.880909" lon="0.135897"><ele>1974.0</ele></trkpt>
      <trkpt lat="42.880991" lon="0.135840"><ele>1978.0</ele></trkpt>
      <trkpt lat="42.881033" lon="0.135997"><ele>1980.8</ele></trkpt>
      <trkpt lat="42.880963" lon="0.136651"><ele>1998.4</ele></trkpt>
      <trkpt lat="42.881041" lon="0.136666"><ele>2000.2</ele></trkpt>
      <trkpt lat="42.881074" lon="0.137034"><ele>2007.8</ele></trkpt>
      <trkpt lat="42.881001" lon="0.137392"><ele>2011.8</ele></trkpt>
      <trkpt lat="42.880817" lon="0.138100"><ele>2017.2</ele></trkpt>
      <trkpt lat="42.880569" lon="0.138118"><ele>2021.2</ele></trkpt>
      <trkpt lat="42.880238" lon="0.137873"><ele>2024.4</ele></trkpt>
      <trkpt lat="42.879976" lon="0.138087"><ele>2027.8</ele></trkpt>
      <trkpt lat="42.879858" lon="0.138334"><ele>2029.8</ele></trkpt>
      <trkpt lat="42.879745" lon="0.139005"><ele>2034.8</ele></trkpt>
      <trkpt lat="42.879423" lon="0.139796"><ele>2050.6</ele></trkpt>
      <trkpt lat="42.879450" lon="0.140400"><ele>2053.2</ele></trkpt>
      <trkpt lat="42.879357" lon="0.140958"><ele>2061.4</ele></trkpt>
      <trkpt lat="42.878937" lon="0.141717"><ele>2068.0</ele></trkpt>
      <trkpt lat="42.878940" lon="0.142471"><ele>2070.6</ele></trkpt>
      <trkpt lat="42.878790" lon="0.142847"><ele>2070.8</ele></trkpt>
      <trkpt lat="42.878536" lon="0.143096"><ele>2073.0</ele></trkpt>
      <trkpt lat="42.878155" lon="0.144263"><ele>2079.4</ele></trkpt>
      <trkpt lat="42.878171" lon="0.144914"><ele>2087.6</ele></trkpt>
      <trkpt lat="42.878022" lon="0.145809"><ele>2092.6</ele></trkpt>
      <trkpt lat="42.877872" lon="0.146030"><ele>2096.6</ele></trkpt>
      <trkpt lat="42.877572" lon="0.146063"><ele>2100.4</ele></trkpt>
      <trkpt lat="42.877261" lon="0.145946"><ele>2109.0</ele></trkpt>
      <trkpt lat="42.876862" lon="0.146149"><ele>2118.8</ele></trkpt>
      <trkpt lat="42.876285" lon="0.147316"><ele>2119.8</ele></trkpt>
      <trkpt lat="42.876218" lon="0.147641"><ele>2122.2</ele></trkpt>
      <trkpt lat="42.875980" lon="0.147962"><ele>2124.2</ele></trkpt>
      <trkpt lat="42.875946" lon="0.148188"><ele>2124.4</ele></trkpt>
      <trkpt lat="42.875664" lon="0.148502"><ele>2127.2</ele></trkpt>
      <trkpt lat="42.875352" lon="0.149334"><ele>2135.8</ele></trkpt>
      <trkpt lat="42.875360" lon="0.150059"><ele>2142.6</ele></trkpt>
      <trkpt lat="42.875480" lon="0.150235"><ele>2145.8</ele></trkpt>
      <trkpt lat="42.875663" lon="0.150288"><ele>2144.6</ele></trkpt>
      <trkpt lat="42.875742" lon="0.150180"><ele>2145.4</ele></trkpt>
      <trkpt lat="42.875724" lon="0.150258"><ele>2145.2</ele></trkpt>
      <trkpt lat="42.875666" lon="0.150189"><ele>2145.0</ele></trkpt>
      <trkpt lat="42.875805" lon="0.150326"><ele>2145.4</ele></trkpt>
      <trkpt lat="42.875662" lon="0.150178"><ele>2141.2</ele></trkpt>
      <trkpt lat="42.875786" lon="0.150228"><ele>2141.2</ele></trkpt>
      <trkpt lat="42.875776" lon="0.150438"><ele>2140.8</ele></trkpt>
      <trkpt lat="42.875351" lon="0.150894"><ele>2144.6</ele></trkpt>
      <trkpt lat="42.875182" lon="0.151407"><ele>2148.0</ele></trkpt>
      <trkpt lat="42.875230" lon="0.151838"><ele>2151.8</ele></trkpt>
      <trkpt lat="42.875139" lon="0.151907"><ele>2153.0</ele></trkpt>
      <trkpt lat="42.875826" lon="0.152145"><ele>2150.0</ele></trkpt>
      <trkpt lat="42.875908" lon="0.152086"><ele>2150.4</ele></trkpt>
      <trkpt lat="42.876011" lon="0.152184"><ele>2149.6</ele></trkpt>
      <trkpt lat="42.876059" lon="0.152736"><ele>2153.8</ele></trkpt>
      <trkpt lat="42.875905" lon="0.153005"><ele>2153.6</ele></trkpt>
      <trkpt lat="42.876016" lon="0.153465"><ele>2157.8</ele></trkpt>
      <trkpt lat="42.876195" lon="0.153820"><ele>2163.0</ele></trkpt>
      <trkpt lat="42.876242" lon="0.154317"><ele>2167.0</ele></trkpt>
      <trkpt lat="42.876156" lon="0.154734"><ele>2168.0</ele></trkpt>
      <trkpt lat="42.876076" lon="0.154716"><ele>2166.6</ele></trkpt>
      <trkpt lat="42.876187" lon="0.154807"><ele>2172.4</ele></trkpt>
      <trkpt lat="42.876142" lon="0.155003"><ele>2176.4</ele></trkpt>
      <trkpt lat="42.876212" lon="0.155421"><ele>2179.2</ele></trkpt>
      <trkpt lat="42.876303" lon="0.155629"><ele>2178.8</ele></trkpt>
      <trkpt lat="42.876445" lon="0.155732"><ele>2180.6</ele></trkpt>
      <trkpt lat="42.876634" lon="0.156170"><ele>2187.6</ele></trkpt>
      <trkpt lat="42.876925" lon="0.156508"><ele>2199.4</ele></trkpt>
      <trkpt lat="42.877018" lon="0.157218"><ele>2200.4</ele></trkpt>
      <trkpt lat="42.877133" lon="0.157443"><ele>2199.2</ele></trkpt>
      <trkpt lat="42.877172" lon="0.157751"><ele>2198.8</ele></trkpt>
      <trkpt lat="42.877448" lon="0.158219"><ele>2204.6</ele></trkpt>
      <trkpt lat="42.877500" lon="0.158943"><ele>2209.6</ele></trkpt>
      <trkpt lat="42.877731" lon="0.159593"><ele>2213.4</ele></trkpt>
      <trkpt lat="42.877721" lon="0.160612"><ele>2224.2</ele></trkpt>
      <trkpt lat="42.877889" lon="0.161124"><ele>2226.6</ele></trkpt>
      <trkpt lat="42.877663" lon="0.161646"><ele>2231.0</ele></trkpt>
      <trkpt lat="42.877603" lon="0.162073"><ele>2233.2</ele></trkpt>
      <trkpt lat="42.877432" lon="0.162194"><ele>2235.0</ele></trkpt>
      <trkpt lat="42.877307" lon="0.162981"><ele>2251.8</ele></trkpt>
      <trkpt lat="42.877220" lon="0.163079"><ele>2253.8</ele></trkpt>
      <trkpt lat="42.877267" lon="0.163744"><ele>2259.8</ele></trkpt>
      <trkpt lat="42.877146" lon="0.164738"><ele>2265.2</ele></trkpt>
      <trkpt lat="42.876793" lon="0.165514"><ele>2268.0</ele></trkpt>
      <trkpt lat="42.876691" lon="0.166199"><ele>2278.0</ele></trkpt>
      <trkpt lat="42.875949" lon="0.167955"><ele>2306.4</ele></trkpt>
      <trkpt lat="42.875931" lon="0.168433"><ele>2314.0</ele></trkpt>
      <trkpt lat="42.875814" lon="0.168617"><ele>2321.4</ele></trkpt>
      <trkpt lat="42.875625" lon="0.168660"><ele>2327.8</ele></trkpt>
      <trkpt lat="42.875493" lon="0.169527"><ele>2346.0</ele></trkpt>
      <trkpt lat="42.875205" lon="0.170003"><ele>2364.2</ele></trkpt>
      <trkpt lat="42.874970" lon="0.170842"><ele>2381.0</ele></trkpt>
      <trkpt lat="42.874791" lon="0.171082"><ele>2393.8</ele></trkpt>
      <trkpt lat="42.874787" lon="0.171258"><ele>2399.4</ele></trkpt>
      <trkpt lat="42.874600" lon="0.171224"><ele>2406.8</ele></trkpt>
      <trkpt lat="42.874604" lon="0.171406"><ele>2415.0</ele></trkpt>
      <trkpt lat="42.874479" lon="0.171417"><ele>2419.6</ele></trkpt>
      <trkpt lat="42.874413" lon="0.171782"><ele>2433.8</ele></trkpt>
      <trkpt lat="42.874226" lon="0.172046"><ele>2445.8</ele></trkpt>
      <trkpt lat="42.873579" lon="0.172116"><ele>2454.2</ele></trkpt>
      <trkpt lat="42.873486" lon="0.172376"><ele>2445.4</ele></trkpt>
      <trkpt lat="42.873515" lon="0.172755"><ele>2439.2</ele></trkpt>
      <trkpt lat="42.873932" lon="0.173613"><ele>2422.4</ele></trkpt>
      <trkpt lat="42.873986" lon="0.174736"><ele>2400.4</ele></trkpt>
      <trkpt lat="42.874189" lon="0.175268"><ele>2404.0</ele></trkpt>
      <trkpt lat="42.874028" lon="0.175701"><ele>2393.8</ele></trkpt>
      <trkpt lat="42.874059" lon="0.176420"><ele>2382.8</ele></trkpt>
      <trkpt lat="42.872816" lon="0.178497"><ele>2336.0</ele></trkpt>
      <trkpt lat="42.872118" lon="0.179372"><ele>2328.2</ele></trkpt>
      <trkpt lat="42.872290" lon="0.181117"><ele>2327.4</ele></trkpt>
      <trkpt lat="42.872179" lon="0.181432"><ele>2326.8</ele></trkpt>
      <trkpt lat="42.872411" lon="0.181862"><ele>2319.6</ele></trkpt>
      <trkpt lat="42.872345" lon="0.182194"><ele>2314.4</ele></trkpt>
      <trkpt lat="42.871877" lon="0.182851"><ele>2292.0</ele></trkpt>
      <trkpt lat="42.871778" lon="0.184016"><ele>2295.8</ele></trkpt>
      <trkpt lat="42.871449" lon="0.185122"><ele>2296.4</ele></trkpt>
      <trkpt lat="42.871512" lon="0.185246"><ele>2293.0</ele></trkpt>
      <trkpt lat="42.871509" lon="0.185599"><ele>2292.6</ele></trkpt>
      <trkpt lat="42.871192" lon="0.186217"><ele>2291.4</ele></trkpt>
      <trkpt lat="42.871019" lon="0.186244"><ele>2286.4</ele></trkpt>
      <trkpt lat="42.870321" lon="0.185632"><ele>2273.2</ele></trkpt>
      <trkpt lat="42.869462" lon="0.185967"><ele>2263.6</ele></trkpt>
      <trkpt lat="42.868909" lon="0.186405"><ele>2250.4</ele></trkpt>
      <trkpt lat="42.867918" lon="0.186647"><ele>2224.8</ele></trkpt>
      <trkpt lat="42.867230" lon="0.187094"><ele>2208.4</ele></trkpt>
      <trkpt lat="42.866790" lon="0.187256"><ele>2203.8</ele></trkpt>
      <trkpt lat="42.865388" lon="0.187238"><ele>2186.4</ele></trkpt>
      <trkpt lat="42.865067" lon="0.186887"><ele>2174.2</ele></trkpt>
      <trkpt lat="42.864978" lon="0.186985"><ele>2170.0</ele></trkpt>
      <trkpt lat="42.864889" lon="0.186909"><ele>2167.6</ele></trkpt>
      <trkpt lat="42.864568" lon="0.187000"><ele>2157.4</ele></trkpt>
      <trkpt lat="42.864286" lon="0.186925"><ele>2155.4</ele></trkpt>
      <trkpt lat="42.863967" lon="0.187028"><ele>2152.0</ele></trkpt>
      <trkpt lat="42.863827" lon="0.186968"><ele>2147.4</ele></trkpt>
      <trkpt lat="42.863502" lon="0.187050"><ele>2142.4</ele></trkpt>
      <trkpt lat="42.863230" lon="0.187327"><ele>2137.0</ele></trkpt>
      <trkpt lat="42.861870" lon="0.187245"><ele>2117.0</ele></trkpt>
      <trkpt lat="42.861389" lon="0.187308"><ele>2113.0</ele></trkpt>
      <trkpt lat="42.861033" lon="0.187172"><ele>2107.4</ele></trkpt>
      <trkpt lat="42.860785" lon="0.187199"><ele>2103.6</ele></trkpt>
      <trkpt lat="42.860439" lon="0.187584"><ele>2097.2</ele></trkpt>
      <trkpt lat="42.859876" lon="0.187919"><ele>2078.2</ele></trkpt>
      <trkpt lat="42.859482" lon="0.188524"><ele>2059.8</ele></trkpt>
      <trkpt lat="42.859438" lon="0.188472"><ele>2057.6</ele></trkpt>
      <trkpt lat="42.859312" lon="0.188638"><ele>2049.2</ele></trkpt>
      <trkpt lat="42.859277" lon="0.188580"><ele>2048.4</ele></trkpt>
      <trkpt lat="42.859148" lon="0.188687"><ele>2041.2</ele></trkpt>
      <trkpt lat="42.858685" lon="0.189645"><ele>2026.6</ele></trkpt>
      <trkpt lat="42.858484" lon="0.189759"><ele>2024.6</ele></trkpt>
      <trkpt lat="42.858465" lon="0.190286"><ele>2019.8</ele></trkpt>
      <trkpt lat="42.858412" lon="0.190420"><ele>2018.6</ele></trkpt>
      <trkpt lat="42.858066" lon="0.190705"><ele>2013.8</ele></trkpt>
      <trkpt lat="42.858055" lon="0.191129"><ele>2011.8</ele></trkpt>
      <trkpt lat="42.857954" lon="0.191325"><ele>2011.8</ele></trkpt>
      <trkpt lat="42.856943" lon="0.191991"><ele>2007.2</ele></trkpt>
      <trkpt lat="42.856659" lon="0.191979"><ele>2002.2</ele></trkpt>
      <trkpt lat="42.856473" lon="0.192127"><ele>1995.8</ele></trkpt>
      <trkpt lat="42.856247" lon="0.192532"><ele>1994.8</ele></trkpt>
      <trkpt lat="42.855896" lon="0.192851"><ele>1989.2</ele></trkpt>
      <trkpt lat="42.855602" lon="0.192941"><ele>1988.2</ele></trkpt>
      <trkpt lat="42.855503" lon="0.193074"><ele>1986.4</ele></trkpt>
      <trkpt lat="42.854916" lon="0.193086"><ele>1980.2</ele></trkpt>
      <trkpt lat="42.854784" lon="0.193572"><ele>1977.8</ele></trkpt>
      <trkpt lat="42.854656" lon="0.193768"><ele>1977.6</ele></trkpt>
      <trkpt lat="42.853965" lon="0.194279"><ele>1982.6</ele></trkpt>
      <trkpt lat="42.853454" lon="0.194347"><ele>1982.4</ele></trkpt>
      <trkpt lat="42.853111" lon="0.194657"><ele>1980.8</ele></trkpt>
      <trkpt lat="42.852558" lon="0.194920"><ele>1976.2</ele></trkpt>
      <trkpt lat="42.852241" lon="0.194907"><ele>1976.2</ele></trkpt>
      <trkpt lat="42.851559" lon="0.194535"><ele>1963.8</ele></trkpt>
      <trkpt lat="42.851273" lon="0.194167"><ele>1959.0</ele></trkpt>
      <trkpt lat="42.851217" lon="0.193663"><ele>1960.8</ele></trkpt>
      <trkpt lat="42.851002" lon="0.193589"><ele>1959.2</ele></trkpt>
      <trkpt lat="42.850909" lon="0.193338"><ele>1954.2</ele></trkpt>
      <trkpt lat="42.850813" lon="0.193279"><ele>1951.6</ele></trkpt>
      <trkpt lat="42.850192" lon="0.194048"><ele>1945.0</ele></trkpt>
      <trkpt lat="42.849728" lon="0.193842"><ele>1945.2</ele></trkpt>
      <trkpt lat="42.849488" lon="0.193907"><ele>1944.2</ele></trkpt>
      <trkpt lat="42.849208" lon="0.194351"><ele>1948.0</ele></trkpt>
      <trkpt lat="42.849053" lon="0.194321"><ele>1945.2</ele></trkpt>
      <trkpt lat="42.848579" lon="0.194764"><ele>1941.0</ele></trkpt>
      <trkpt lat="42.847823" lon="0.194738"><ele>1939.2</ele></trkpt>
      <trkpt lat="42.847273" lon="0.194380"><ele>1929.0</ele></trkpt>
      <trkpt lat="42.846477" lon="0.194859"><ele>1912.6</ele></trkpt>
      <trkpt lat="42.846298" lon="0.194690"><ele>1911.0</ele></trkpt>
      <trkpt lat="42.845775" lon="0.194722"><ele>1909.8</ele></trkpt>
      <trkpt lat="42.845133" lon="0.195568"><ele>1899.4</ele></trkpt>
      <trkpt lat="42.844878" lon="0.195651"><ele>1897.6</ele></trkpt>
      <trkpt lat="42.844645" lon="0.195949"><ele>1891.8</ele></trkpt>
      <trkpt lat="42.844397" lon="0.196038"><ele>1883.6</ele></trkpt>
      <trkpt lat="42.844116" lon="0.195925"><ele>1874.8</ele></trkpt>
      <trkpt lat="42.843918" lon="0.196014"><ele>1872.0</ele></trkpt>
      <trkpt lat="42.843645" lon="0.196318"><ele>1862.4</ele></trkpt>
      <trkpt lat="42.843466" lon="0.196220"><ele>1859.0</ele></trkpt>
      <trkpt lat="42.843316" lon="0.196545"><ele>1855.2</ele></trkpt>
      <trkpt lat="42.842725" lon="0.197232"><ele>1850.2</ele></trkpt>
      <trkpt lat="42.842646" lon="0.197447"><ele>1850.4</ele></trkpt>
      <trkpt lat="42.841913" lon="0.198223"><ele>1853.2</ele></trkpt>
      <trkpt lat="42.841639" lon="0.198203"><ele>1849.8</ele></trkpt>
      <trkpt lat="42.841114" lon="0.198454"><ele>1841.6</ele></trkpt>
      <trkpt lat="42.840712" lon="0.198342"><ele>1843.6</ele></trkpt>
      <trkpt lat="42.840454" lon="0.198496"><ele>1844.6</ele></trkpt>
      <trkpt lat="42.840071" lon="0.198913"><ele>1844.0</ele></trkpt>
      <trkpt lat="42.840053" lon="0.199134"><ele>1844.2</ele></trkpt>
      <trkpt lat="42.840270" lon="0.199275"><ele>1847.6</ele></trkpt>
      <trkpt lat="42.840382" lon="0.199643"><ele>1856.0</ele></trkpt>
      <trkpt lat="42.840636" lon="0.199827"><ele>1863.0</ele></trkpt>
      <trkpt lat="42.840666" lon="0.200023"><ele>1868.0</ele></trkpt>
      <trkpt lat="42.840491" lon="0.200145"><ele>1873.8</ele></trkpt>
      <trkpt lat="42.840438" lon="0.200426"><ele>1879.8</ele></trkpt>
      <trkpt lat="42.840169" lon="0.200846"><ele>1888.4</ele></trkpt>
      <trkpt lat="42.839416" lon="0.201448"><ele>1900.2</ele></trkpt>
      <trkpt lat="42.838906" lon="0.202109"><ele>1913.4</ele></trkpt>
      <trkpt lat="42.838576" lon="0.202259"><ele>1919.2</ele></trkpt>
      <trkpt lat="42.837282" lon="0.203316"><ele>1945.2</ele></trkpt>
      <trkpt lat="42.835913" lon="0.204744"><ele>1964.0</ele></trkpt>
      <trkpt lat="42.835644" lon="0.205686"><ele>1969.2</ele></trkpt>
      <trkpt lat="42.835048" lon="0.205601"><ele>1975.6</ele></trkpt>
      <trkpt lat="42.834931" lon="0.205696"><ele>1978.4</ele></trkpt>
      <trkpt lat="42.834835" lon="0.205993"><ele>1977.6</ele></trkpt>
      <trkpt lat="42.833803" lon="0.206919"><ele>1984.4</ele></trkpt>
      <trkpt lat="42.833361" lon="0.207149"><ele>1987.4</ele></trkpt>
      <trkpt lat="42.833018" lon="0.207070"><ele>1990.0</ele></trkpt>
      <trkpt lat="42.832674" lon="0.207268"><ele>1994.8</ele></trkpt>
      <trkpt lat="42.832218" lon="0.207370"><ele>1999.6</ele></trkpt>
      <trkpt lat="42.829943" lon="0.209277"><ele>2008.2</ele></trkpt>
      <trkpt lat="42.829073" lon="0.210358"><ele>2016.0</ele></trkpt>
      <trkpt lat="42.829000" lon="0.210730"><ele>2013.8</ele></trkpt>
      <trkpt lat="42.828312" lon="0.211720"><ele>2019.4</ele></trkpt>
      <trkpt lat="42.828244" lon="0.212260"><ele>2018.8</ele></trkpt>
      <trkpt lat="42.827971" lon="0.212817"><ele>2020.6</ele></trkpt>
      <trkpt lat="42.827786" lon="0.213854"><ele>2016.2</ele></trkpt>
      <trkpt lat="42.827719" lon="0.214588"><ele>2015.6</ele></trkpt>
      <trkpt lat="42.827767" lon="0.216602"><ele>2024.2</ele></trkpt>
      <trkpt lat="42.827556" lon="0.218141"><ele>2029.8</ele></trkpt>
      <trkpt lat="42.827947" lon="0.219823"><ele>2036.4</ele></trkpt>
      <trkpt lat="42.828543" lon="0.220674"><ele>2040.2</ele></trkpt>
      <trkpt lat="42.828464" lon="0.220618"><ele>2040.8</ele></trkpt>
      <trkpt lat="42.828394" lon="0.221019"><ele>2039.2</ele></trkpt>
      <trkpt lat="42.828464" lon="0.221878"><ele>2042.6</ele></trkpt>
      <trkpt lat="42.828376" lon="0.222445"><ele>2041.8</ele></trkpt>
      <trkpt lat="42.828566" lon="0.223356"><ele>2052.4</ele></trkpt>
      <trkpt lat="42.828538" lon="0.224718"><ele>2068.6</ele></trkpt>
      <trkpt lat="42.828641" lon="0.225804"><ele>2087.2</ele></trkpt>
      <trkpt lat="42.829187" lon="0.228780"><ele>2118.8</ele></trkpt>
      <trkpt lat="42.829557" lon="0.229761"><ele>2129.8</ele></trkpt>
      <trkpt lat="42.830392" lon="0.231222"><ele>2150.2</ele></trkpt>
      <trkpt lat="42.830825" lon="0.232640"><ele>2171.6</ele></trkpt>
      <trkpt lat="42.831637" lon="0.234385"><ele>2194.2</ele></trkpt>
      <trkpt lat="42.832065" lon="0.234816"><ele>2202.8</ele></trkpt>
      <trkpt lat="42.833119" lon="0.236497"><ele>2215.4</ele></trkpt>
      <trkpt lat="42.833662" lon="0.236727"><ele>2210.0</ele></trkpt>
      <trkpt lat="42.834534" lon="0.236929"><ele>2189.6</ele></trkpt>
      <trkpt lat="42.835177" lon="0.237329"><ele>2178.0</ele></trkpt>
      <trkpt lat="42.835615" lon="0.237821"><ele>2172.0</ele></trkpt>
      <trkpt lat="42.835764" lon="0.238310"><ele>2167.8</ele></trkpt>
      <trkpt lat="42.835705" lon="0.239126"><ele>2160.2</ele></trkpt>
      <trkpt lat="42.835825" lon="0.240277"><ele>2142.4</ele></trkpt>
      <trkpt lat="42.835731" lon="0.241858"><ele>2120.0</ele></trkpt>
      <trkpt lat="42.835583" lon="0.242716"><ele>2108.4</ele></trkpt>
      <trkpt lat="42.834912" lon="0.244567"><ele>2080.0</ele></trkpt>
      <trkpt lat="42.834759" lon="0.245606"><ele>2067.8</ele></trkpt>
      <trkpt lat="42.834803" lon="0.246313"><ele>2064.0</ele></trkpt>
      <trkpt lat="42.834730" lon="0.247032"><ele>2059.0</ele></trkpt>
      <trkpt lat="42.834775" lon="0.247176"><ele>2056.0</ele></trkpt>
      <trkpt lat="42.835047" lon="0.247381"><ele>2048.8</ele></trkpt>
      <trkpt lat="42.835014" lon="0.247913"><ele>2042.2</ele></trkpt>
      <trkpt lat="42.834639" lon="0.250072"><ele>2031.0</ele></trkpt>
      <trkpt lat="42.834174" lon="0.250931"><ele>2028.6</ele></trkpt>
      <trkpt lat="42.833792" lon="0.252083"><ele>2023.4</ele></trkpt>
      <trkpt lat="42.833491" lon="0.252720"><ele>2021.0</ele></trkpt>
      <trkpt lat="42.833418" lon="0.253217"><ele>2021.8</ele></trkpt>
      <trkpt lat="42.833438" lon="0.254018"><ele>2019.0</ele></trkpt>
      <trkpt lat="42.833150" lon="0.255762"><ele>2011.0</ele></trkpt>
      <trkpt lat="42.833135" lon="0.256273"><ele>2008.0</ele></trkpt>
      <trkpt lat="42.833247" lon="0.257251"><ele>2000.8</ele></trkpt>
      <trkpt lat="42.833526" lon="0.257673"><ele>1997.2</ele></trkpt>
      <trkpt lat="42.833656" lon="0.258613"><ele>1991.0</ele></trkpt>
      <trkpt lat="42.834262" lon="0.261489"><ele>1977.0</ele></trkpt>
      <trkpt lat="42.834343" lon="0.262078"><ele>1976.2</ele></trkpt>
      <trkpt lat="42.834325" lon="0.262830"><ele>1973.2</ele></trkpt>
      <trkpt lat="42.834448" lon="0.263504"><ele>1969.8</ele></trkpt>
      <trkpt lat="42.834558" lon="0.266157"><ele>1957.8</ele></trkpt>
      <trkpt lat="42.834687" lon="0.266909"><ele>1953.6</ele></trkpt>
      <trkpt lat="42.834581" lon="0.268012"><ele>1951.4</ele></trkpt>
      <trkpt lat="42.834718" lon="0.268539"><ele>1945.4</ele></trkpt>
      <trkpt lat="42.834729" lon="0.269166"><ele>1937.6</ele></trkpt>
      <trkpt lat="42.834387" lon="0.270863"><ele>1928.8</ele></trkpt>
      <trkpt lat="42.834553" lon="0.271430"><ele>1923.2</ele></trkpt>
      <trkpt lat="42.834612" lon="0.272444"><ele>1920.6</ele></trkpt>
      <trkpt lat="42.834289" lon="0.273048"><ele>1921.0</ele></trkpt>
      <trkpt lat="42.834085" lon="0.273829"><ele>1920.8</ele></trkpt>
      <trkpt lat="42.834456" lon="0.275328"><ele>1918.8</ele></trkpt>
      <trkpt lat="42.834700" lon="0.275995"><ele>1915.4</ele></trkpt>
      <trkpt lat="42.834882" lon="0.277173"><ele>1911.0</ele></trkpt>
      <trkpt lat="42.834910" lon="0.277821"><ele>1908.2</ele></trkpt>
      <trkpt lat="42.835081" lon="0.278486"><ele>1903.4</ele></trkpt>
      <trkpt lat="42.835455" lon="0.281087"><ele>1886.2</ele></trkpt>
      <trkpt lat="42.836546" lon="0.283649"><ele>1837.8</ele></trkpt>
      <trkpt lat="42.836759" lon="0.284323"><ele>1822.6</ele></trkpt>
      <trkpt lat="42.837841" lon="0.286735"><ele>1770.6</ele></trkpt>
      <trkpt lat="42.838085" lon="0.288088"><ele>1744.6</ele></trkpt>
      <trkpt lat="42.838038" lon="0.288233"><ele>1742.2</ele></trkpt>
      <trkpt lat="42.838124" lon="0.289150"><ele>1717.8</ele></trkpt>
      <trkpt lat="42.838110" lon="0.289478"><ele>1711.2</ele></trkpt>
      <trkpt lat="42.837941" lon="0.289960"><ele>1700.2</ele></trkpt>
      <trkpt lat="42.837779" lon="0.290794"><ele>1682.6</ele></trkpt>
      <trkpt lat="42.837791" lon="0.291611"><ele>1669.4</ele></trkpt>
      <trkpt lat="42.837856" lon="0.292186"><ele>1663.6</ele></trkpt>
      <trkpt lat="42.838115" lon="0.293056"><ele>1655.6</ele></trkpt>
      <trkpt lat="42.838283" lon="0.294173"><ele>1642.6</ele></trkpt>
      <trkpt lat="42.838390" lon="0.294486"><ele>1638.4</ele></trkpt>
      <trkpt lat="42.838387" lon="0.294948"><ele>1633.8</ele></trkpt>
      <trkpt lat="42.838767" lon="0.296121"><ele>1624.8</ele></trkpt>
      <trkpt lat="42.838804" lon="0.296552"><ele>1622.0</ele></trkpt>
      <trkpt lat="42.838769" lon="0.297024"><ele>1617.2</ele></trkpt>
      <trkpt lat="42.838282" lon="0.298149"><ele>1608.8</ele></trkpt>
      <trkpt lat="42.838160" lon="0.298909"><ele>1606.6</ele></trkpt>
      <trkpt lat="42.837684" lon="0.299188"><ele>1594.0</ele></trkpt>
      <trkpt lat="42.837444" lon="0.300900"><ele>1571.0</ele></trkpt>
      <trkpt lat="42.837132" lon="0.300681"><ele>1555.0</ele></trkpt>
      <trkpt lat="42.836896" lon="0.300652"><ele>1543.2</ele></trkpt>
      <trkpt lat="42.836806" lon="0.300301"><ele>1536.8</ele></trkpt>
      <trkpt lat="42.836531" lon="0.300696"><ele>1524.0</ele></trkpt>
      <trkpt lat="42.836203" lon="0.299895"><ele>1505.2</ele></trkpt>
      <trkpt lat="42.835866" lon="0.299515"><ele>1495.0</ele></trkpt>
      <trkpt lat="42.835538" lon="0.298320"><ele>1471.6</ele></trkpt>
      <trkpt lat="42.834563" lon="0.297978"><ele>1457.2</ele></trkpt>
      <trkpt lat="42.834129" lon="0.297646"><ele>1442.8</ele></trkpt>
      <trkpt lat="42.833603" lon="0.297574"><ele>1428.8</ele></trkpt>
      <trkpt lat="42.833199" lon="0.297319"><ele>1415.0</ele></trkpt>
      <trkpt lat="42.832875" lon="0.296939"><ele>1398.8</ele></trkpt>
      <trkpt lat="42.832402" lon="0.295345"><ele>1365.8</ele></trkpt>
      <trkpt lat="42.832288" lon="0.294329"><ele>1354.2</ele></trkpt>
      <trkpt lat="42.831460" lon="0.294130"><ele>1339.2</ele></trkpt>
      <trkpt lat="42.831191" lon="0.294229"><ele>1331.6</ele></trkpt>
      <trkpt lat="42.830744" lon="0.294131"><ele>1323.6</ele></trkpt>
      <trkpt lat="42.830466" lon="0.294202"><ele>1316.4</ele></trkpt>
      <trkpt lat="42.830819" lon="0.294646"><ele>1306.8</ele></trkpt>
      <trkpt lat="42.830966" lon="0.295028"><ele>1298.8</ele></trkpt>
      <trkpt lat="42.830898" lon="0.295462"><ele>1295.2</ele></trkpt>
      <trkpt lat="42.830974" lon="0.296679"><ele>1287.2</ele></trkpt>
      <trkpt lat="42.830851" lon="0.297147"><ele>1283.4</ele></trkpt>
      <trkpt lat="42.830766" lon="0.298819"><ele>1269.8</ele></trkpt>
      <trkpt lat="42.830969" lon="0.300860"><ele>1252.4</ele></trkpt>
      <trkpt lat="42.831203" lon="0.301536"><ele>1245.2</ele></trkpt>
      <trkpt lat="42.830718" lon="0.300791"><ele>1237.6</ele></trkpt>
      <trkpt lat="42.830358" lon="0.299689"><ele>1227.0</ele></trkpt>
      <trkpt lat="42.830170" lon="0.299327"><ele>1222.6</ele></trkpt>
      <trkpt lat="42.829874" lon="0.297890"><ele>1209.2</ele></trkpt>
      <trkpt lat="42.829697" lon="0.299122"><ele>1197.4</ele></trkpt>
      <trkpt lat="42.829869" lon="0.299652"><ele>1192.8</ele></trkpt>
      <trkpt lat="42.830009" lon="0.301917"><ele>1168.4</ele></trkpt>
      <trkpt lat="42.829959" lon="0.301967"><ele>1166.8</ele></trkpt>
      <trkpt lat="42.829733" lon="0.301403"><ele>1160.8</ele></trkpt>
      <trkpt lat="42.829589" lon="0.300663"><ele>1155.4</ele></trkpt>
      <trkpt lat="42.829114" lon="0.299656"><ele>1143.6</ele></trkpt>
      <trkpt lat="42.829195" lon="0.300480"><ele>1135.4</ele></trkpt>
      <trkpt lat="42.829015" lon="0.302029"><ele>1118.2</ele></trkpt>
      <trkpt lat="42.829183" lon="0.302381"><ele>1113.2</ele></trkpt>
      <trkpt lat="42.829048" lon="0.302628"><ele>1110.6</ele></trkpt>
      <trkpt lat="42.828878" lon="0.303329"><ele>1100.8</ele></trkpt>
      <trkpt lat="42.829096" lon="0.303645"><ele>1094.0</ele></trkpt>
      <trkpt lat="42.828911" lon="0.304127"><ele>1089.4</ele></trkpt>
      <trkpt lat="42.828911" lon="0.303870"><ele>1086.2</ele></trkpt>
      <trkpt lat="42.828757" lon="0.303726"><ele>1084.0</ele></trkpt>
      <trkpt lat="42.828658" lon="0.303141"><ele>1078.6</ele></trkpt>
      <trkpt lat="42.828587" lon="0.303061"><ele>1078.6</ele></trkpt>
      <trkpt lat="42.828364" lon="0.303609"><ele>1074.2</ele></trkpt>
      <trkpt lat="42.828000" lon="0.304046"><ele>1066.2</ele></trkpt>
      <trkpt lat="42.828026" lon="0.306932"><ele>1026.0</ele></trkpt>
      <trkpt lat="42.827702" lon="0.308793"><ele>991.2</ele></trkpt>
      <trkpt lat="42.827713" lon="0.309517"><ele>977.0</ele></trkpt>
      <trkpt lat="42.827447" lon="0.311160"><ele>951.2</ele></trkpt>
      <trkpt lat="42.827447" lon="0.311766"><ele>941.4</ele></trkpt>
      <trkpt lat="42.826716" lon="0.312284"><ele>930.0</ele></trkpt>
      <trkpt lat="42.826295" lon="0.312395"><ele>924.4</ele></trkpt>
      <trkpt lat="42.825794" lon="0.313081"><ele>904.8</ele></trkpt>
      <trkpt lat="42.825264" lon="0.313352"><ele>889.4</ele></trkpt>
      <trkpt lat="42.824796" lon="0.313764"><ele>873.8</ele></trkpt>
      <trkpt lat="42.824441" lon="0.313869"><ele>864.8</ele></trkpt>
      <trkpt lat="42.824198" lon="0.313837"><ele>860.2</ele></trkpt>
      <trkpt lat="42.824279" lon="0.313932"><ele>857.8</ele></trkpt>
      <trkpt lat="42.823743" lon="0.313949"><ele>851.0</ele></trkpt>
      <trkpt lat="42.823442" lon="0.314603"><ele>841.8</ele></trkpt>
      <trkpt lat="42.823439" lon="0.315410"><ele>832.0</ele></trkpt>
      <trkpt lat="42.823615" lon="0.316065"><ele>827.8</ele></trkpt>
      <trkpt lat="42.824371" lon="0.316610"><ele>823.0</ele></trkpt>
      <trkpt lat="42.824978" lon="0.317366"><ele>822.6</ele></trkpt>
      <trkpt lat="42.825554" lon="0.317716"><ele>824.0</ele></trkpt>
      <trkpt lat="42.825674" lon="0.317898"><ele>824.6</ele></trkpt>
      <trkpt lat="42.825100" lon="0.320017"><ele>815.8</ele></trkpt>
      <trkpt lat="42.824129" lon="0.321959"><ele>808.0</ele></trkpt>
      <trkpt lat="42.823642" lon="0.323122"><ele>807.6</ele></trkpt>
      <trkpt lat="42.823743" lon="0.323092"><ele>805.8</ele></trkpt>
      <trkpt lat="42.825051" lon="0.324248"><ele>802.6</ele></trkpt>
      <trkpt lat="42.825248" lon="0.324616"><ele>802.0</ele></trkpt>
      <trkpt lat="42.825319" lon="0.324992"><ele>800.8</ele></trkpt>
      <trkpt lat="42.825530" lon="0.325353"><ele>800.0</ele></trkpt>
      <trkpt lat="42.825629" lon="0.325907"><ele>799.2</ele></trkpt>
      <trkpt lat="42.825796" lon="0.326007"><ele>799.0</ele></trkpt>
      <trkpt lat="42.826027" lon="0.326465"><ele>799.0</ele></trkpt>
      <trkpt lat="42.826343" lon="0.326749"><ele>798.6</ele></trkpt>
      <trkpt lat="42.826728" lon="0.326983"><ele>797.6</ele></trkpt>
      <trkpt lat="42.827872" lon="0.327420"><ele>795.6</ele></trkpt>
      <trkpt lat="42.829503" lon="0.328440"><ele>793.0</ele></trkpt>
      <trkpt lat="42.829725" lon="0.328099"><ele>795.6</ele></trkpt>
      <trkpt lat="42.829772" lon="0.327083"><ele>791.8</ele></trkpt>
    </trkseg>
  </trk>
</gpx>
