<?xml version="1.0" encoding="UTF-8" standalone="yes"?>
<gpx
 version="1.1"
 creator="Generated by MapOut iPhone App. See https://mapout.app"
 xmlns="http://www.topografix.com/GPX/1/1"
 xmlns:xsi="http://www.w3.org/2001/XMLSchema-instance"
 xmlns:gpxx="http://www.garmin.com/xmlschemas/GpxExtensions/v3"
 xmlns:mapout="https://mapout.app/xmlschemas/MapOutExtensions"
 xsi:schemaLocation="http://www.topografix.com/GPX/1/1 https://www.topografix.com/GPX/1/1/gpx.xsd http://www.garmin.com/xmlschemas/GpxExtensions/v3 https://www8.garmin.com/xmlschemas/GpxExtensionsv3.xsd https://mapout.app/xmlschemas/MapOutExtensions https://mapout.app/xmlschemas/MapOutExtensions.xsd">
  <metadata>
    <name>Drawn 16 Aug 2026 at 08:25</name>
    <author><name>iPhone</name></author>
    <time>2026-08-16T06:25:07Z</time>
    <bounds minlat="45.36118252908641" minlon="3.4874747282090497" maxlat="45.42234503147054" maxlon="3.5318617442498663"/>
  </metadata>
  <trk>
    <trkseg>
      <trkpt lat="45.36824874088098" lon="3.5040937476591871">
        <ele>876</ele>
      </trkpt>
      <trkpt lat="45.368348273889" lon="3.5037268739271319">
        <ele>875</ele>
      </trkpt>
      <trkpt lat="45.36855998474157" lon="3.5031604043486464">
        <ele>877</ele>
      </trkpt>
      <trkpt lat="45.36856666030899" lon="3.5030278466526705">
        <ele>878</ele>
      </trkpt>
      <trkpt lat="45.36845603662026" lon="3.5028704939919804">
        <ele>878</ele>
      </trkpt>
      <trkpt lat="45.36831775700935" lon="3.5027970627503247">
        <ele>877</ele>
      </trkpt>
      <trkpt lat="45.36804024413505" lon="3.5027350753385376">
        <ele>873</ele>
      </trkpt>
      <trkpt lat="45.36778275796301" lon="3.5026120541674524">
        <ele>870</ele>
      </trkpt>
      <trkpt lat="45.36766736601183" lon="3.5025710471104237">
        <ele>868</ele>
      </trkpt>
      <trkpt lat="45.36765961754352" lon="3.5025682935140749">
        <ele>868</ele>
      </trkpt>
      <trkpt lat="45.36784855998474" lon="3.5025529277131322">
        <ele>871</ele>
      </trkpt>
      <trkpt lat="45.36833873736411" lon="3.5022305931718392">
        <ele>882</ele>
      </trkpt>
      <trkpt lat="45.36858668701126" lon="3.5020160213618068">
        <ele>886</ele>
      </trkpt>
      <trkpt lat="45.36882986839596" lon="3.5018758344459187">
        <ele>890</ele>
      </trkpt>
      <trkpt lat="45.36916746137708" lon="3.5015334732023558">
        <ele>898</ele>
      </trkpt>
      <trkpt lat="45.36928094602327" lon="3.5014266641235841">
        <ele>902</ele>
      </trkpt>
      <trkpt lat="45.36928094602327" lon="3.5014266641235841">
        <ele>902</ele>
      </trkpt>
      <trkpt lat="45.36961949265688" lon="3.5011796681289247">
        <ele>911</ele>
      </trkpt>
      <trkpt lat="45.37001144382987" lon="3.500846843410252">
        <ele>920</ele>
      </trkpt>
      <trkpt lat="45.3704262826626" lon="3.5004825481594417">
        <ele>927</ele>
      </trkpt>
      <trkpt lat="45.37111005149724" lon="3.4999999999999911">
        <ele>940</ele>
      </trkpt>
      <trkpt lat="45.37111005149724" lon="3.5000000000000089">
        <ele>940</ele>
      </trkpt>
      <trkpt lat="45.3712178142285" lon="3.4999246614533757">
        <ele>941</ele>
      </trkpt>
      <trkpt lat="45.37192637802785" lon="3.4995269883654485">
        <ele>949</ele>
      </trkpt>
      <trkpt lat="45.37237840930765" lon="3.4992914362006577">
        <ele>956</ele>
      </trkpt>
      <trkpt lat="45.37271790959375" lon="3.4990768643906254">
        <ele>961</ele>
      </trkpt>
      <trkpt lat="45.37332824718673" lon="3.4987545298493319">
        <ele>964</ele>
      </trkpt>
      <trkpt lat="45.3739834064467" lon="3.4986477207705602">
        <ele>962</ele>
      </trkpt>
      <trkpt lat="45.3743305359527" lon="3.4986906351325668">
        <ele>961</ele>
      </trkpt>
      <trkpt lat="45.37462426091933" lon="3.4985933625786854">
        <ele>959</ele>
      </trkpt>
      <trkpt lat="45.37564943734504" lon="3.4983368300591358">
        <ele>957</ele>
      </trkpt>
      <trkpt lat="45.37614629029182" lon="3.4981651726111096">
        <ele>954</ele>
      </trkpt>
      <trkpt lat="45.3766440968911" lon="3.4978218577150577">
        <ele>952</ele>
      </trkpt>
      <trkpt lat="45.37700171657448" lon="3.4975452984932383">
        <ele>951</ele>
      </trkpt>
      <trkpt lat="45.37727350753386" lon="3.4973707800877452">
        <ele>950</ele>
      </trkpt>
      <trkpt lat="45.37727350753386" lon="3.4973707800877452">
        <ele>950</ele>
      </trkpt>
      <trkpt lat="45.37735266069045" lon="3.496906351325586">
        <ele>952</ele>
      </trkpt>
      <trkpt lat="45.37752145718101" lon="3.4964123593362668">
        <ele>953</ele>
      </trkpt>
      <trkpt lat="45.37785142094221" lon="3.4957200076292292">
        <ele>953</ele>
      </trkpt>
      <trkpt lat="45.37797062750334" lon="3.495290864009164">
        <ele>952</ele>
      </trkpt>
      <trkpt lat="45.37801544917033" lon="3.4948455082967858">
        <ele>950</ele>
      </trkpt>
      <trkpt lat="45.37803833683007" lon="3.4943734503147144">
        <ele>946</ele>
      </trkpt>
      <trkpt lat="45.37794201792867" lon="3.4935876406637512">
        <ele>942</ele>
      </trkpt>
      <trkpt lat="45.37785332824719" lon="3.4933005912645525">
        <ele>941</ele>
      </trkpt>
      <trkpt lat="45.37777608239558" lon="3.4929067327865817">
        <ele>935</ele>
      </trkpt>
      <trkpt lat="45.37780850658021" lon="3.4926978828914836">
        <ele>931</ele>
      </trkpt>
      <trkpt lat="45.37796490558841" lon="3.4922763684913307">
        <ele>927</ele>
      </trkpt>
      <trkpt lat="45.37823192828534" lon="3.4925901201602225">
        <ele>928</ele>
      </trkpt>
      <trkpt lat="45.37849227541484" lon="3.4932204844554735">
        <ele>932</ele>
      </trkpt>
      <trkpt lat="45.37874976158688" lon="3.4938718291054829">
        <ele>930</ele>
      </trkpt>
      <trkpt lat="45.37874976158688" lon="3.4938718291054829">
        <ele>930</ele>
      </trkpt>
      <trkpt lat="45.37927045584589" lon="3.4947310699981018">
        <ele>929</ele>
      </trkpt>
      <trkpt lat="45.37993324432577" lon="3.4954014876978921">
        <ele>921</ele>
      </trkpt>
      <trkpt lat="45.38" lon="3.4955063894716858">
        <ele>921</ele>
      </trkpt>
      <trkpt lat="45.38000000000002" lon="3.4955063894716858">
        <ele>921</ele>
      </trkpt>
      <trkpt lat="45.38018024032044" lon="3.4957896242609285">
        <ele>920</ele>
      </trkpt>
      <trkpt lat="45.38038527560558" lon="3.4959374403967285">
        <ele>918</ele>
      </trkpt>
      <trkpt lat="45.38081441922565" lon="3.4961043295823093">
        <ele>912</ele>
      </trkpt>
      <trkpt lat="45.3813580011444" lon="3.4962149532710369">
        <ele>906</ele>
      </trkpt>
      <trkpt lat="45.38249189395385" lon="3.4964886515353895">
        <ele>893</ele>
      </trkpt>
      <trkpt lat="45.38307648292964" lon="3.496472439443076">
        <ele>888</ele>
      </trkpt>
      <trkpt lat="45.38348369254246" lon="3.4963217623498086">
        <ele>882</ele>
      </trkpt>
      <trkpt lat="45.38382223917606" lon="3.4959841693686911">
        <ele>873</ele>
      </trkpt>
      <trkpt lat="45.3841235933626" lon="3.4957324051115863">
        <ele>867</ele>
      </trkpt>
      <trkpt lat="45.38469101659357" lon="3.4954587068472338">
        <ele>859</ele>
      </trkpt>
      <trkpt lat="45.38494182719818" lon="3.4952279229448879">
        <ele>856</ele>
      </trkpt>
      <trkpt lat="45.38494182719818" lon="3.4952279229448879">
        <ele>856</ele>
      </trkpt>
      <trkpt lat="45.3850972725539" lon="3.4955578867060932">
        <ele>853</ele>
      </trkpt>
      <trkpt lat="45.38516021361817" lon="3.4957619683387464">
        <ele>851</ele>
      </trkpt>
      <trkpt lat="45.38511920656114" lon="3.4959908449361143">
        <ele>852</ele>
      </trkpt>
      <trkpt lat="45.38514495517835" lon="3.4961653633416074">
        <ele>851</ele>
      </trkpt>
      <trkpt lat="45.3852441350372" lon="3.4961682242990744">
        <ele>850</ele>
      </trkpt>
      <trkpt lat="45.38536715620829" lon="3.4960270837306977">
        <ele>847</ele>
      </trkpt>
      <trkpt lat="45.38553690635134" lon="3.4958764066374304">
        <ele>843</ele>
      </trkpt>
      <trkpt lat="45.3856971199695" lon="3.4959116917795248">
        <ele>840</ele>
      </trkpt>
      <trkpt lat="45.38582586305552" lon="3.4958621018500948">
        <ele>837</ele>
      </trkpt>
      <trkpt lat="45.38589261872975" lon="3.4957886706084396">
        <ele>838</ele>
      </trkpt>
      <trkpt lat="45.38605283234791" lon="3.4954939919893282">
        <ele>840</ele>
      </trkpt>
      <trkpt lat="45.3861138661072" lon="3.4954300972725632">
        <ele>841</ele>
      </trkpt>
      <trkpt lat="45.38617776082397" lon="3.4953986267404247">
        <ele>841</ele>
      </trkpt>
      <trkpt lat="45.38637802784667" lon="3.4953566660309074">
        <ele>843</ele>
      </trkpt>
      <trkpt lat="45.38657734121688" lon="3.4952794201792958">
        <ele>845</ele>
      </trkpt>
      <trkpt lat="45.38681670799162" lon="3.4951077627312697">
        <ele>847</ele>
      </trkpt>
      <trkpt lat="45.38708563799353" lon="3.4948474156017637">
        <ele>851</ele>
      </trkpt>
      <trkpt lat="45.38739176044251" lon="3.4945985123021264">
        <ele>854</ele>
      </trkpt>
      <trkpt lat="45.38762063703988" lon="3.4945174518405584">
        <ele>858</ele>
      </trkpt>
      <trkpt lat="45.38786000381462" lon="3.4944859813084204">
        <ele>861</ele>
      </trkpt>
      <trkpt lat="45.38811653633417" lon="3.4944859813084204">
        <ele>865</ele>
      </trkpt>
      <trkpt lat="45.38834827388901" lon="3.4944373450314798">
        <ele>869</ele>
      </trkpt>
      <trkpt lat="45.38865153538053" lon="3.4942618729734978">
        <ele>873</ele>
      </trkpt>
      <trkpt lat="45.38865153538053" lon="3.4942618729734978">
        <ele>873</ele>
      </trkpt>
      <trkpt lat="45.38865821094794" lon="3.4940425329010201">
        <ele>874</ele>
      </trkpt>
      <trkpt lat="45.38869444974253" lon="3.4937573908067989">
        <ele>876</ele>
      </trkpt>
      <trkpt lat="45.38875166889187" lon="3.4934274270455936">
        <ele>877</ele>
      </trkpt>
      <trkpt lat="45.388870875453" lon="3.4931489605187962">
        <ele>878</ele>
      </trkpt>
      <trkpt lat="45.3890186915888" lon="3.4928485599847505">
        <ele>879</ele>
      </trkpt>
      <trkpt lat="45.38914743467482" lon="3.4926406637421414">
        <ele>880</ele>
      </trkpt>
      <trkpt lat="45.38926950219341" lon="3.4924690062941157">
        <ele>881</ele>
      </trkpt>
      <trkpt lat="45.38940205988939" lon="3.4923250047682717">
        <ele>882</ele>
      </trkpt>
      <trkpt lat="45.38954510776274" lon="3.4922258249094122">
        <ele>883</ele>
      </trkpt>
      <trkpt lat="45.38971199694833" lon="3.4921428571428663">
        <ele>885</ele>
      </trkpt>
      <trkpt lat="45.38989319092124" lon="3.491959755864972">
        <ele>887</ele>
      </trkpt>
      <trkpt lat="45.39007533854665" lon="3.4911453366393377">
        <ele>885</ele>
      </trkpt>
      <trkpt lat="45.39013732595843" lon="3.4909908449361144">
        <ele>885</ele>
      </trkpt>
      <trkpt lat="45.39026606904446" lon="3.4908029753957748">
        <ele>885</ele>
      </trkpt>
      <trkpt lat="45.39071905397675" lon="3.4902736982643616">
        <ele>891</ele>
      </trkpt>
      <trkpt lat="45.39087831394242" lon="3.4899799732977392">
        <ele>893</ele>
      </trkpt>
      <trkpt lat="45.39104138851804" lon="3.4897415601754811">
        <ele>891</ele>
      </trkpt>
      <trkpt lat="45.39158210947932" lon="3.4892046538241557">
        <ele>884</ele>
      </trkpt>
      <trkpt lat="45.39169368682054" lon="3.4891255006675657">
        <ele>883</ele>
      </trkpt>
      <trkpt lat="45.39176330345224" lon="3.4890854472630264">
        <ele>883</ele>
      </trkpt>
      <trkpt lat="45.39199313370209" lon="3.4890406255960418">
        <ele>883</ele>
      </trkpt>
      <trkpt lat="45.39208373068855" lon="3.4889719626168314">
        <ele>883</ele>
      </trkpt>
      <trkpt lat="45.39215430097274" lon="3.4888622925805928">
        <ele>883</ele>
      </trkpt>
      <trkpt lat="45.39222677856191" lon="3.4886038527560648">
        <ele>883</ele>
      </trkpt>
      <trkpt lat="45.39226587831396" lon="3.4883711615487409">
        <ele>883</ele>
      </trkpt>
      <trkpt lat="45.39225538813658" lon="3.4881966431432478">
        <ele>883</ele>
      </trkpt>
      <trkpt lat="45.39223726873929" lon="3.4880679000572283">
        <ele>883</ele>
      </trkpt>
      <trkpt lat="45.39227446118636" lon="3.4879115010490267">
        <ele>884</ele>
      </trkpt>
      <trkpt lat="45.39227446118636" lon="3.4879115010490267">
        <ele>884</ele>
      </trkpt>
      <trkpt lat="45.39235838260539" lon="3.4879019645241365">
        <ele>885</ele>
      </trkpt>
      <trkpt lat="45.39245279420181" lon="3.4878418844173273">
        <ele>886</ele>
      </trkpt>
      <trkpt lat="45.3927665458707" lon="3.4875691398054638">
        <ele>891</ele>
      </trkpt>
      <trkpt lat="45.39282853328249" lon="3.4875262254434576">
        <ele>891</ele>
      </trkpt>
      <trkpt lat="45.39289147434676" lon="3.4874842647339399">
        <ele>892</ele>
      </trkpt>
      <trkpt lat="45.39296872019838" lon="3.4874747282090497">
        <ele>893</ele>
      </trkpt>
      <trkpt lat="45.39303452222012" lon="3.4875290864009245">
        <ele>893</ele>
      </trkpt>
      <trkpt lat="45.39310127789435" lon="3.4875834445927993">
        <ele>894</ele>
      </trkpt>
      <trkpt lat="45.39319473583828" lon="3.4876978828914833">
        <ele>895</ele>
      </trkpt>
      <trkpt lat="45.39328914743469" lon="3.4878123211901673">
        <ele>896</ele>
      </trkpt>
      <trkpt lat="45.39328914743469" lon="3.4878123211901673">
        <ele>896</ele>
      </trkpt>
      <trkpt lat="45.39345317566281" lon="3.4879963761205506">
        <ele>897</ele>
      </trkpt>
      <trkpt lat="45.39365534999048" lon="3.4881699408735547">
        <ele>899</ele>
      </trkpt>
      <trkpt lat="45.39382605378601" lon="3.488289147434684">
        <ele>902</ele>
      </trkpt>
      <trkpt lat="45.39396910165937" lon="3.488353042151449">
        <ele>903</ele>
      </trkpt>
      <trkpt lat="45.39416078580967" lon="3.4883883272935434">
        <ele>906</ele>
      </trkpt>
      <trkpt lat="45.39426854854093" lon="3.4883883272935434">
        <ele>906</ele>
      </trkpt>
      <trkpt lat="45.39430764829298" lon="3.4883377837116245">
        <ele>906</ele>
      </trkpt>
      <trkpt lat="45.3943078008845" lon="3.4883375864722042">
        <ele>906</ele>
      </trkpt>
      <trkpt lat="45.39435437726494" lon="3.4883625786763393">
        <ele>906</ele>
      </trkpt>
      <trkpt lat="45.39443257676904" lon="3.4883778371161638">
        <ele>906</ele>
      </trkpt>
      <trkpt lat="45.39451172992563" lon="3.4883930955559883">
        <ele>907</ele>
      </trkpt>
      <trkpt lat="45.39458992942973" lon="3.4884150295632361">
        <ele>907</ele>
      </trkpt>
      <trkpt lat="45.39466812893383" lon="3.4884369635704839">
        <ele>907</ele>
      </trkpt>
      <trkpt lat="45.39476730879269" lon="3.4884741560175563">
        <ele>908</ele>
      </trkpt>
      <trkpt lat="45.39486744230404" lon="3.4885123021171176">
        <ele>908</ele>
      </trkpt>
      <trkpt lat="45.39497043677285" lon="3.4885933625786856">
        <ele>909</ele>
      </trkpt>
      <trkpt lat="45.39507343124167" lon="3.4886753766927421">
        <ele>910</ele>
      </trkpt>
      <trkpt lat="45.3951668891856" lon="3.4887697882891566">
        <ele>910</ele>
      </trkpt>
      <trkpt lat="45.39526130078201" lon="3.4888641998855707">
        <ele>911</ele>
      </trkpt>
      <trkpt lat="45.39534140759109" lon="3.4889834064467">
        <ele>911</ele>
      </trkpt>
      <trkpt lat="45.39542151440017" lon="3.4891026130078289">
        <ele>912</ele>
      </trkpt>
      <trkpt lat="45.39563036429526" lon="3.4894802593934862">
        <ele>913</ele>
      </trkpt>
      <trkpt lat="45.3956618348274" lon="3.4895508296776745">
        <ele>913</ele>
      </trkpt>
      <trkpt lat="45.39569425901203" lon="3.4896213999618628">
        <ele>914</ele>
      </trkpt>
      <trkpt lat="45.39569425901203" lon="3.4896213999618628">
        <ele>914</ele>
      </trkpt>
      <trkpt lat="45.39585065802023" lon="3.489971390425338">
        <ele>915</ele>
      </trkpt>
      <trkpt lat="45.39593076482931" lon="3.4902593934770261">
        <ele>916</ele>
      </trkpt>
      <trkpt lat="45.39600705702843" lon="3.4905674232309836">
        <ele>918</ele>
      </trkpt>
      <trkpt lat="45.39610146862485" lon="3.4907905779134176">
        <ele>919</ele>
      </trkpt>
      <trkpt lat="45.39619588022126" lon="3.4909145527369918">
        <ele>920</ele>
      </trkpt>
      <trkpt lat="45.39670799160788" lon="3.4913122258249185">
        <ele>923</ele>
      </trkpt>
      <trkpt lat="45.39683387373643" lon="3.4915601754720669">
        <ele>924</ele>
      </trkpt>
      <trkpt lat="45.39683387373643" lon="3.4915601754720669">
        <ele>924</ele>
      </trkpt>
      <trkpt lat="45.39709898912837" lon="3.4913246233072761">
        <ele>925</ele>
      </trkpt>
      <trkpt lat="45.39709898912837" lon="3.4913246233072761">
        <ele>925</ele>
      </trkpt>
      <trkpt lat="45.39736410452033" lon="3.4916297921037667">
        <ele>929</ele>
      </trkpt>
      <trkpt lat="45.39744993324434" lon="3.4917070379553783">
        <ele>930</ele>
      </trkpt>
      <trkpt lat="45.39776845317568" lon="3.4920617966812983">
        <ele>932</ele>
      </trkpt>
      <trkpt lat="45.3979401106237" lon="3.4923784093076575">
        <ele>934</ele>
      </trkpt>
      <trkpt lat="45.39804215144003" lon="3.4925481594507053">
        <ele>936</ele>
      </trkpt>
      <trkpt lat="45.39804215144003" lon="3.4925481594507053">
        <ele>936</ele>
      </trkpt>
      <trkpt lat="45.39852565325197" lon="3.4935380507343217">
        <ele>942</ele>
      </trkpt>
      <trkpt lat="45.39872019835973" lon="3.4937049399199025">
        <ele>944</ele>
      </trkpt>
      <trkpt lat="45.39904062559605" lon="3.4938861338928184">
        <ele>948</ele>
      </trkpt>
      <trkpt lat="45.3991312225825" lon="3.4940587449933336">
        <ele>950</ele>
      </trkpt>
      <trkpt lat="45.39915887850469" lon="3.494304787335504">
        <ele>952</ele>
      </trkpt>
      <trkpt lat="45.39919511729927" lon="3.4945451077627405">
        <ele>954</ele>
      </trkpt>
      <trkpt lat="45.39922658783141" lon="3.4946357047491983">
        <ele>955</ele>
      </trkpt>
      <trkpt lat="45.39922658783141" lon="3.4946357047491983">
        <ele>955</ele>
      </trkpt>
      <trkpt lat="45.39950505435821" lon="3.4951058554262917">
        <ele>960</ele>
      </trkpt>
      <trkpt lat="45.39963284379174" lon="3.4953633415983307">
        <ele>963</ele>
      </trkpt>
      <trkpt lat="45.39974537478545" lon="3.49555121113867">
        <ele>966</ele>
      </trkpt>
      <trkpt lat="45.40000000000001" lon="3.4958191874880886">
        <ele>969</ele>
      </trkpt>
      <trkpt lat="45.4" lon="3.4958191874880886">
        <ele>969</ele>
      </trkpt>
      <trkpt lat="45.40006389471676" lon="3.4958868968148096">
        <ele>970</ele>
      </trkpt>
      <trkpt lat="45.4004253290101" lon="3.4962082777036141">
        <ele>976</ele>
      </trkpt>
      <trkpt lat="45.40096986458134" lon="3.4966774747282181">
        <ele>983</ele>
      </trkpt>
      <trkpt lat="45.40120732405111" lon="3.4969464047301253">
        <ele>985</ele>
      </trkpt>
      <trkpt lat="45.40149051130034" lon="3.4973487785320527">
        <ele>989</ele>
      </trkpt>
      <trkpt lat="45.40149051119666" lon="3.4973487784479267">
        <ele>989</ele>
      </trkpt>
      <trkpt lat="45.40145432004577" lon="3.4973421705130741">
        <ele>990</ele>
      </trkpt>
      <trkpt lat="45.40111005149723" lon="3.4972334541293244">
        <ele>992</ele>
      </trkpt>
      <trkpt lat="45.40070665649437" lon="3.4970589357238313">
        <ele>993</ele>
      </trkpt>
      <trkpt lat="45.4" lon="3.4969731069998184">
        <ele>991</ele>
      </trkpt>
      <trkpt lat="45.40000000000001" lon="3.4969731069998184">
        <ele>991</ele>
      </trkpt>
      <trkpt lat="45.39991226397103" lon="3.4969626168224388">
        <ele>991</ele>
      </trkpt>
      <trkpt lat="45.39958134655733" lon="3.4969740606523074">
        <ele>991</ele>
      </trkpt>
      <trkpt lat="45.39949074957087" lon="3.4969692923898621">
        <ele>991</ele>
      </trkpt>
      <trkpt lat="45.39938107953463" lon="3.4970150677093357">
        <ele>992</ele>
      </trkpt>
      <trkpt lat="45.3991579248522" lon="3.4972038909021643">
        <ele>995</ele>
      </trkpt>
      <trkpt lat="45.39900629410644" lon="3.4974003433149052">
        <ele>996</ele>
      </trkpt>
      <trkpt lat="45.39886610719056" lon="3.4976368491321854">
        <ele>998</ele>
      </trkpt>
      <trkpt lat="45.39866965477781" lon="3.4980211710852656">
        <ele>1002</ele>
      </trkpt>
      <trkpt lat="45.39851897768455" lon="3.49841121495328">
        <ele>1005</ele>
      </trkpt>
      <trkpt lat="45.39843505626551" lon="3.4987926759488932">
        <ele>1008</ele>
      </trkpt>
      <trkpt lat="45.39836830059128" lon="3.4991789052069517">
        <ele>1012</ele>
      </trkpt>
      <trkpt lat="45.39831489605189" lon="3.4995870684722576">
        <ele>1015</ele>
      </trkpt>
      <trkpt lat="45.39828914743469" lon="3.5000000000000089">
        <ele>1019</ele>
      </trkpt>
      <trkpt lat="45.39828914743469" lon="3.4999999999999911">
        <ele>1019</ele>
      </trkpt>
      <trkpt lat="45.39829105473967" lon="3.5002927713141241">
        <ele>1020</ele>
      </trkpt>
      <trkpt lat="45.3983234789243" lon="3.5005359526988276">
        <ele>1022</ele>
      </trkpt>
      <trkpt lat="45.39836257867635" lon="3.5007095174518317">
        <ele>1023</ele>
      </trkpt>
      <trkpt lat="45.39841693686822" lon="3.500877360289901">
        <ele>1024</ele>
      </trkpt>
      <trkpt lat="45.3984884608049" lon="3.5010423421705039">
        <ele>1024</ele>
      </trkpt>
      <trkpt lat="45.39859240892621" lon="3.5011558268166989">
        <ele>1026</ele>
      </trkpt>
      <trkpt lat="45.39873068853711" lon="3.5012569139805363">
        <ele>1027</ele>
      </trkpt>
      <trkpt lat="45.39888041197789" lon="3.5013427427045491">
        <ele>1029</ele>
      </trkpt>
      <trkpt lat="45.39911501049019" lon="3.5014171275986938">
        <ele>1033</ele>
      </trkpt>
      <trkpt lat="45.39961949265689" lon="3.5014791150104809">
        <ele>1038</ele>
      </trkpt>
      <trkpt lat="45.3998884226588" lon="3.5014905588403495">
        <ele>1041</ele>
      </trkpt>
      <trkpt lat="45.40000000000001" lon="3.5015039099751961">
        <ele>1042</ele>
      </trkpt>
      <trkpt lat="45.4" lon="3.5015039099751961">
        <ele>1042</ele>
      </trkpt>
      <trkpt lat="45.40010871638375" lon="3.5015172611100422">
        <ele>1043</ele>
      </trkpt>
      <trkpt lat="45.40024127407973" lon="3.5015658973869832">
        <ele>1044</ele>
      </trkpt>
      <trkpt lat="45.40033187106618" lon="3.5016259774937923">
        <ele>1045</ele>
      </trkpt>
      <trkpt lat="45.4004520312798" lon="3.5017213427426954">
        <ele>1046</ele>
      </trkpt>
      <trkpt lat="45.40053786000381" lon="3.5018758344459187">
        <ele>1046</ele>
      </trkpt>
      <trkpt lat="45.40062750333778" lon="3.5020865916459951">
        <ele>1046</ele>
      </trkpt>
      <trkpt lat="45.40071810032424" lon="3.5024270455845801">
        <ele>1048</ele>
      </trkpt>
      <trkpt lat="45.40099847415601" lon="3.503239557505236">
        <ele>1054</ele>
      </trkpt>
      <trkpt lat="45.40119206561129" lon="3.5036725157352571">
        <ele>1059</ele>
      </trkpt>
      <trkpt lat="45.40140186915887" lon="3.5041884417318236">
        <ele>1067</ele>
      </trkpt>
      <trkpt lat="45.40155349990463" lon="3.5046042342170423">
        <ele>1070</ele>
      </trkpt>
      <trkpt lat="45.40162979210375" lon="3.505144955178324">
        <ele>1071</ele>
      </trkpt>
      <trkpt lat="45.40166412359336" lon="3.5057438489414365">
        <ele>1070</ele>
      </trkpt>
      <trkpt lat="45.40179286667938" lon="3.5063341598321482">
        <ele>1070</ele>
      </trkpt>
      <trkpt lat="45.40188632462331" lon="3.5069826435246907">
        <ele>1069</ele>
      </trkpt>
      <trkpt lat="45.4018949074957" lon="3.5078027846652589">
        <ele>1064</ele>
      </trkpt>
      <trkpt lat="45.40198741178714" lon="3.5084684341026038">
        <ele>1063</ele>
      </trkpt>
      <trkpt lat="45.40221056646958" lon="3.5094020598893674">
        <ele>1060</ele>
      </trkpt>
      <trkpt lat="45.40221056646958" lon="3.5094020598893674">
        <ele>1060</ele>
      </trkpt>
      <trkpt lat="45.40298970055311" lon="3.5083663932862774">
        <ele>1069</ele>
      </trkpt>
      <trkpt lat="45.40308792675948" lon="3.5082262063703897">
        <ele>1070</ele>
      </trkpt>
      <trkpt lat="45.40331680335685" lon="3.5078218577150397">
        <ele>1075</ele>
      </trkpt>
      <trkpt lat="45.40363150867823" lon="3.5072086591645912">
        <ele>1081</ele>
      </trkpt>
      <trkpt lat="45.40403681098607" lon="3.5065067709326629">
        <ele>1087</ele>
      </trkpt>
      <trkpt lat="45.40429048254816" lon="3.506133892809451">
        <ele>1087</ele>
      </trkpt>
      <trkpt lat="45.40455082967766" lon="3.5057371733740132">
        <ele>1089</ele>
      </trkpt>
      <trkpt lat="45.40499427808506" lon="3.5050238413122168">
        <ele>1094</ele>
      </trkpt>
      <trkpt lat="45.4055388136563" lon="3.5042675948884137">
        <ele>1088</ele>
      </trkpt>
      <trkpt lat="45.40577436582109" lon="3.5039137898149821">
        <ele>1087</ele>
      </trkpt>
      <trkpt lat="45.40623497997329" lon="3.5035714285714197">
        <ele>1088</ele>
      </trkpt>
      <trkpt lat="45.40682338355903" lon="3.5032176234979882">
        <ele>1090</ele>
      </trkpt>
      <trkpt lat="45.40742513827961" lon="3.5030688537096992">
        <ele>1090</ele>
      </trkpt>
      <trkpt lat="45.40804882700743" lon="3.503013541865335">
        <ele>1092</ele>
      </trkpt>
      <trkpt lat="45.40858382605379" lon="3.5030698073621882">
        <ele>1091</ele>
      </trkpt>
      <trkpt lat="45.40910165935533" lon="3.5032471867251482">
        <ele>1088</ele>
      </trkpt>
      <trkpt lat="45.40950028609574" lon="3.5033997711233935">
        <ele>1086</ele>
      </trkpt>
      <trkpt lat="45.40989032996376" lon="3.5035046728971873">
        <ele>1083</ele>
      </trkpt>
      <trkpt lat="45.4108601945451" lon="3.5036467671180529">
        <ele>1090</ele>
      </trkpt>
      <trkpt lat="45.41167366011825" lon="3.5037755102040724">
        <ele>1097</ele>
      </trkpt>
      <trkpt lat="45.41320999427808" lon="3.5047196261682152">
        <ele>1095</ele>
      </trkpt>
      <trkpt lat="45.41398912836162" lon="3.5053166126263497">
        <ele>1101</ele>
      </trkpt>
      <trkpt lat="45.41424566088117" lon="3.5053366393286196">
        <ele>1102</ele>
      </trkpt>
      <trkpt lat="45.41449933244326" lon="3.5052765592218105">
        <ele>1100</ele>
      </trkpt>
      <trkpt lat="45.4149218004959" lon="3.505035285142085">
        <ele>1101</ele>
      </trkpt>
      <trkpt lat="45.41536906351325" lon="3.5046509631890048">
        <ele>1097</ele>
      </trkpt>
      <trkpt lat="45.41574861720389" lon="3.5045784855998385">
        <ele>1093</ele>
      </trkpt>
      <trkpt lat="45.4160776273126" lon="3.5043620064848278">
        <ele>1090</ele>
      </trkpt>
      <trkpt lat="45.41688823192828" lon="3.5041216860575917">
        <ele>1081</ele>
      </trkpt>
      <trkpt lat="45.41746233072668" lon="3.5039290482548067">
        <ele>1076</ele>
      </trkpt>
      <trkpt lat="45.41850944115964" lon="3.5036639328628558">
        <ele>1069</ele>
      </trkpt>
      <trkpt lat="45.41881842456608" lon="3.5035637993515074">
        <ele>1069</ele>
      </trkpt>
      <trkpt lat="45.41881842456608" lon="3.5035637993515074">
        <ele>1069</ele>
      </trkpt>
      <trkpt lat="45.41893667747473" lon="3.503755483501803">
        <ele>1069</ele>
      </trkpt>
      <trkpt lat="45.41893667747473" lon="3.503755483501803">
        <ele>1069</ele>
      </trkpt>
      <trkpt lat="45.41959279038718" lon="3.5040082014113967">
        <ele>1074</ele>
      </trkpt>
      <trkpt lat="45.41999999999999" lon="3.5044335304215055">
        <ele>1073</ele>
      </trkpt>
      <trkpt lat="45.42000000000001" lon="3.5044335304215055">
        <ele>1073</ele>
      </trkpt>
      <trkpt lat="45.420783902346" lon="3.5060566469578394">
        <ele>1074</ele>
      </trkpt>
      <trkpt lat="45.42114438298685" lon="3.5068500858287148">
        <ele>1078</ele>
      </trkpt>
      <trkpt lat="45.42127312607287" lon="3.5076654587068381">
        <ele>1078</ele>
      </trkpt>
      <trkpt lat="45.42175281327485" lon="3.5086419988556079">
        <ele>1087</ele>
      </trkpt>
      <trkpt lat="45.42211520122068" lon="3.5090215525462432">
        <ele>1083</ele>
      </trkpt>
      <trkpt lat="45.42226301735649" lon="3.5092418462712098">
        <ele>1080</ele>
      </trkpt>
      <trkpt lat="45.42234503147054" lon="3.5096109097844654">
        <ele>1077</ele>
      </trkpt>
      <trkpt lat="45.42232500476827" lon="3.5103604806408453">
        <ele>1074</ele>
      </trkpt>
      <trkpt lat="45.42216002288767" lon="3.5106904444020506">
        <ele>1072</ele>
      </trkpt>
      <trkpt lat="45.42162407018883" lon="3.5111748998664796">
        <ele>1063</ele>
      </trkpt>
      <trkpt lat="45.42108239557506" lon="3.5120341407590985">
        <ele>1051</ele>
      </trkpt>
      <trkpt lat="45.420696166317" lon="3.512922944878877">
        <ele>1046</ele>
      </trkpt>
      <trkpt lat="45.42042818996758" lon="3.5136276940682722">
        <ele>1041</ele>
      </trkpt>
      <trkpt lat="45.4202784665268" lon="3.5140825863055412">
        <ele>1038</ele>
      </trkpt>
      <trkpt lat="45.4202784665268" lon="3.5140825863055412">
        <ele>1038</ele>
      </trkpt>
      <trkpt lat="45.42000000000001" lon="3.5144421132939065">
        <ele>1032</ele>
      </trkpt>
      <trkpt lat="45.41999999999999" lon="3.5144421132939065">
        <ele>1032</ele>
      </trkpt>
      <trkpt lat="45.41987125691398" lon="3.5146080488269984">
        <ele>1028</ele>
      </trkpt>
      <trkpt lat="45.41976730879267" lon="3.5148073621972062">
        <ele>1025</ele>
      </trkpt>
      <trkpt lat="45.41958897577722" lon="3.5153356856761304">
        <ele>1019</ele>
      </trkpt>
      <trkpt lat="45.41947167652107" lon="3.515528323478915">
        <ele>1016</ele>
      </trkpt>
      <trkpt lat="45.41896910165935" lon="3.51604615678046">
        <ele>1006</ele>
      </trkpt>
      <trkpt lat="45.41884131222582" lon="3.5162368872782666">
        <ele>1001</ele>
      </trkpt>
      <trkpt lat="45.4184083539958" lon="3.5172668319664222">
        <ele>984</ele>
      </trkpt>
      <trkpt lat="45.41831203509441" lon="3.5175777226778471">
        <ele>980</ele>
      </trkpt>
      <trkpt lat="45.41827102803738" lon="3.5178514209421996">
        <ele>976</ele>
      </trkpt>
      <trkpt lat="45.41821476254053" lon="3.5180278466526707">
        <ele>973</ele>
      </trkpt>
      <trkpt lat="45.41793534236124" lon="3.5185294678619021">
        <ele>961</ele>
      </trkpt>
      <trkpt lat="45.41791722296395" lon="3.5186744230402351">
        <ele>959</ele>
      </trkpt>
      <trkpt lat="45.41797730307076" lon="3.5188918558077344">
        <ele>958</ele>
      </trkpt>
      <trkpt lat="45.41836734693877" lon="3.5193610528323389">
        <ele>956</ele>
      </trkpt>
      <trkpt lat="45.4185905016212" lon="3.5195012397482266">
        <ele>951</ele>
      </trkpt>
      <trkpt lat="45.41877932481403" lon="3.5195575052450794">
        <ele>948</ele>
      </trkpt>
      <trkpt lat="45.41898436009917" lon="3.5195441541102332">
        <ele>947</ele>
      </trkpt>
      <trkpt lat="45.41920656112912" lon="3.5194688155635996">
        <ele>947</ele>
      </trkpt>
      <trkpt lat="45.41931909212283" lon="3.5194630936486653">
        <ele>949</ele>
      </trkpt>
      <trkpt lat="45.41941922563417" lon="3.5195060080106719">
        <ele>950</ele>
      </trkpt>
      <trkpt lat="45.41949074957085" lon="3.5196137707419326">
        <ele>949</ele>
      </trkpt>
      <trkpt lat="45.41952794201792" lon="3.5197968720198269">
        <ele>947</ele>
      </trkpt>
      <trkpt lat="45.41952794201792" lon="3.5197968720198269">
        <ele>947</ele>
      </trkpt>
      <trkpt lat="45.41953557123784" lon="3.5199094030135329">
        <ele>945</ele>
      </trkpt>
      <trkpt lat="45.41951363723059" lon="3.5199999999999907">
        <ele>943</ele>
      </trkpt>
      <trkpt lat="45.41951363723059" lon="3.5200000000000014">
        <ele>943</ele>
      </trkpt>
      <trkpt lat="45.41946404730116" lon="3.5202021743276761">
        <ele>940</ele>
      </trkpt>
      <trkpt lat="45.41936772839977" lon="3.5203852756055705">
        <ele>937</ele>
      </trkpt>
      <trkpt lat="45.4193391188251" lon="3.5205388136563047">
        <ele>934</ele>
      </trkpt>
      <trkpt lat="45.4193391188251" lon="3.520690444402061">
        <ele>933</ele>
      </trkpt>
      <trkpt lat="45.41936677474728" lon="3.5208220484455475">
        <ele>932</ele>
      </trkpt>
      <trkpt lat="45.41948598130841" lon="3.5211348464619503">
        <ele>929</ele>
      </trkpt>
      <trkpt lat="45.41952031279801" lon="3.5213703986267415">
        <ele>926</ele>
      </trkpt>
      <trkpt lat="45.41952603471294" lon="3.5217013160404358">
        <ele>923</ele>
      </trkpt>
      <trkpt lat="45.41947358382605" lon="3.5219311462902931">
        <ele>924</ele>
      </trkpt>
      <trkpt lat="45.41922181956895" lon="3.5221409498378802">
        <ele>924</ele>
      </trkpt>
      <trkpt lat="45.41916650772458" lon="3.5222315468243384">
        <ele>925</ele>
      </trkpt>
      <trkpt lat="45.41899214976119" lon="3.5226879264115616">
        <ele>928</ele>
      </trkpt>
      <trkpt lat="45.418992149743" lon="3.5226879262005637">
        <ele>928</ele>
      </trkpt>
      <trkpt lat="45.41884417318329" lon="3.5224184627121886">
        <ele>924</ele>
      </trkpt>
      <trkpt lat="45.41867633034522" lon="3.5222096128170906">
        <ele>921</ele>
      </trkpt>
      <trkpt lat="45.41845222201029" lon="3.5221266450505446">
        <ele>919</ele>
      </trkpt>
      <trkpt lat="45.41820713332061" lon="3.5220913599084507">
        <ele>918</ele>
      </trkpt>
      <trkpt lat="45.41809841693686" lon="3.5220236505817293">
        <ele>918</ele>
      </trkpt>
      <trkpt lat="45.41790959374404" lon="3.5219912263971018">
        <ele>920</ele>
      </trkpt>
      <trkpt lat="45.41714857905779" lon="3.5222410833492286">
        <ele>925</ele>
      </trkpt>
      <trkpt lat="45.41700457753194" lon="3.5223183292008402">
        <ele>926</ele>
      </trkpt>
      <trkpt lat="45.41655826816708" lon="3.5226387564371553">
        <ele>929</ele>
      </trkpt>
      <trkpt lat="45.41628266259774" lon="3.5226530612244908">
        <ele>934</ele>
      </trkpt>
      <trkpt lat="45.41592504291436" lon="3.5225309937058946">
        <ele>942</ele>
      </trkpt>
      <trkpt lat="45.41548445546442" lon="3.5222677856189217">
        <ele>949</ele>
      </trkpt>
      <trkpt lat="45.41504482166698" lon="3.5219101659355343">
        <ele>958</ele>
      </trkpt>
      <trkpt lat="45.41477207705512" lon="3.5215630364295261">
        <ele>967</ele>
      </trkpt>
      <trkpt lat="45.41457943925234" lon="3.5215687583444604">
        <ele>970</ele>
      </trkpt>
      <trkpt lat="45.4142342170513" lon="3.5216889185580786">
        <ele>973</ele>
      </trkpt>
      <trkpt lat="45.41398149914171" lon="3.5216946404730129">
        <ele>974</ele>
      </trkpt>
      <trkpt lat="45.41359813084112" lon="3.5215859240892629">
        <ele>975</ele>
      </trkpt>
      <trkpt lat="45.41314228495136" lon="3.5212340263208097">
        <ele>984</ele>
      </trkpt>
      <trkpt lat="45.41238031661262" lon="3.5204787335494956">
        <ele>1001</ele>
      </trkpt>
      <trkpt lat="45.41238031661262" lon="3.5204787335494956">
        <ele>1001</ele>
      </trkpt>
      <trkpt lat="45.41176044249475" lon="3.5200000000000014">
        <ele>1006</ele>
      </trkpt>
      <trkpt lat="45.41176044249475" lon="3.5199999999999907">
        <ele>1006</ele>
      </trkpt>
      <trkpt lat="45.41128552355521" lon="3.5192571047110341">
        <ele>1001</ele>
      </trkpt>
      <trkpt lat="45.40934484074003" lon="3.5199999999999907">
        <ele>1014</ele>
      </trkpt>
      <trkpt lat="45.40934484074003" lon="3.5200000000000014">
        <ele>1014</ele>
      </trkpt>
      <trkpt lat="45.40918462712187" lon="3.5200610337592995">
        <ele>1015</ele>
      </trkpt>
      <trkpt lat="45.40789242799924" lon="3.5206036620255592">
        <ele>1016</ele>
      </trkpt>
      <trkpt lat="45.40719721533473" lon="3.5210461567804705">
        <ele>1015</ele>
      </trkpt>
      <trkpt lat="45.40688823192828" lon="3.5215067709326733">
        <ele>1013</ele>
      </trkpt>
      <trkpt lat="45.40670989891283" lon="3.5219816898722116">
        <ele>1010</ele>
      </trkpt>
      <trkpt lat="45.4066173946214" lon="3.5227512874308613">
        <ele>1006</ele>
      </trkpt>
      <trkpt lat="45.40656685103948" lon="3.5234970436772852">
        <ele>1003</ele>
      </trkpt>
      <trkpt lat="45.40643524699599" lon="3.5239214190349046">
        <ele>1004</ele>
      </trkpt>
      <trkpt lat="45.40622067518596" lon="3.5241302689300031">
        <ele>1003</ele>
      </trkpt>
      <trkpt lat="45.40603185199313" lon="3.524248521838643">
        <ele>1001</ele>
      </trkpt>
      <trkpt lat="45.40549494564181" lon="3.5244888422658796">
        <ele>997</ele>
      </trkpt>
      <trkpt lat="45.40549454511499" lon="3.5244890215424234">
        <ele>997</ele>
      </trkpt>
      <trkpt lat="45.40547968720198" lon="3.5245098226206384">
        <ele>997</ele>
      </trkpt>
      <trkpt lat="45.40547968720198" lon="3.5245098226206384">
        <ele>997</ele>
      </trkpt>
      <trkpt lat="45.40533568567614" lon="3.5247520503528524">
        <ele>997</ele>
      </trkpt>
      <trkpt lat="45.40524890329964" lon="3.5249637612054179">
        <ele>999</ele>
      </trkpt>
      <trkpt lat="45.40524890329964" lon="3.5249637612054179">
        <ele>999</ele>
      </trkpt>
      <trkpt lat="45.40483787907686" lon="3.524847415601756">
        <ele>992</ele>
      </trkpt>
      <trkpt lat="45.40415983215716" lon="3.5246109097844758">
        <ele>978</ele>
      </trkpt>
      <trkpt lat="45.40327102803738" lon="3.5242895288956717">
        <ele>963</ele>
      </trkpt>
      <trkpt lat="45.40253290101086" lon="3.5241178714476455">
        <ele>953</ele>
      </trkpt>
      <trkpt lat="45.40181003242418" lon="3.5242037001716584">
        <ele>948</ele>
      </trkpt>
      <trkpt lat="45.40083063131794" lon="3.5244182719816912">
        <ele>934</ele>
      </trkpt>
      <trkpt lat="45.4" lon="3.5245517833301556">
        <ele>921</ele>
      </trkpt>
      <trkpt lat="45.40000000000001" lon="3.5245517833301556">
        <ele>921</ele>
      </trkpt>
      <trkpt lat="45.3998970055312" lon="3.5245679954224691">
        <ele>919</ele>
      </trkpt>
      <trkpt lat="45.39901296967387" lon="3.524879839786383">
        <ele>913</ele>
      </trkpt>
      <trkpt lat="45.39863436963572" lon="3.524943734503148">
        <ele>914</ele>
      </trkpt>
      <trkpt lat="45.39802117108527" lon="3.5249141712759884">
        <ele>914</ele>
      </trkpt>
      <trkpt lat="45.39736505817282" lon="3.5250190730497817">
        <ele>915</ele>
      </trkpt>
      <trkpt lat="45.39421609765403" lon="3.5259202746519178">
        <ele>907</ele>
      </trkpt>
      <trkpt lat="45.39343314896053" lon="3.5263274842647352">
        <ele>902</ele>
      </trkpt>
      <trkpt lat="45.39260347129508" lon="3.5266202555788682">
        <ele>898</ele>
      </trkpt>
      <trkpt lat="45.39202555788672" lon="3.5266555407209625">
        <ele>893</ele>
      </trkpt>
      <trkpt lat="45.39171848178525" lon="3.5266173946214012">
        <ele>889</ele>
      </trkpt>
      <trkpt lat="45.39084875071526" lon="3.5264056837688358">
        <ele>869</ele>
      </trkpt>
      <trkpt lat="45.39036238794585" lon="3.5263169940873555">
        <ele>860</ele>
      </trkpt>
      <trkpt lat="45.38985504482168" lon="3.5262483311081452">
        <ele>852</ele>
      </trkpt>
      <trkpt lat="45.38948598130843" lon="3.5263370207896254">
        <ele>849</ele>
      </trkpt>
      <trkpt lat="45.38917890520695" lon="3.5263198550448229">
        <ele>846</ele>
      </trkpt>
      <trkpt lat="45.38885180240322" lon="3.5263389280946034">
        <ele>846</ele>
      </trkpt>
      <trkpt lat="45.38809841693688" lon="3.5266707991607871">
        <ele>848</ele>
      </trkpt>
      <trkpt lat="45.38779324814039" lon="3.5267194354377276">
        <ele>847</ele>
      </trkpt>
      <trkpt lat="45.38754434484076" lon="3.5267137135227933">
        <ele>847</ele>
      </trkpt>
      <trkpt lat="45.38675281327486" lon="3.5266173946214012">
        <ele>842</ele>
      </trkpt>
      <trkpt lat="45.38646290291819" lon="3.5267356475300411">
        <ele>844</ele>
      </trkpt>
      <trkpt lat="45.38581155826818" lon="3.5274327674995245">
        <ele>845</ele>
      </trkpt>
      <trkpt lat="45.38556265496855" lon="3.5275510204081644">
        <ele>842</ele>
      </trkpt>
      <trkpt lat="45.38487697882893" lon="3.5276473393095569">
        <ele>833</ele>
      </trkpt>
      <trkpt lat="45.38460614152204" lon="3.5276797634941839">
        <ele>828</ele>
      </trkpt>
      <trkpt lat="45.38415315658975" lon="3.5278085065802034">
        <ele>818</ele>
      </trkpt>
      <trkpt lat="45.38375452984934" lon="3.5281518214762553">
        <ele>804</ele>
      </trkpt>
      <trkpt lat="45.38328724012971" lon="3.528517070379555">
        <ele>798</ele>
      </trkpt>
      <trkpt lat="45.38264638565708" lon="3.528806027083732">
        <ele>795</ele>
      </trkpt>
      <trkpt lat="45.38229258058365" lon="3.5295460614152216">
        <ele>797</ele>
      </trkpt>
      <trkpt lat="45.38202841884419" lon="3.5296757581537301">
        <ele>798</ele>
      </trkpt>
      <trkpt lat="45.38171943543774" lon="3.5298149914171288">
        <ele>799</ele>
      </trkpt>
      <trkpt lat="45.38098893763114" lon="3.5305340453938596">
        <ele>808</ele>
      </trkpt>
      <trkpt lat="45.38045393858479" lon="3.5307695975586508">
        <ele>810</ele>
      </trkpt>
      <trkpt lat="45.38000000000002" lon="3.5308249094030146">
        <ele>810</ele>
      </trkpt>
      <trkpt lat="45.38" lon="3.5308249094030146">
        <ele>810</ele>
      </trkpt>
      <trkpt lat="45.37940587449933" lon="3.5308983406446703">
        <ele>817</ele>
      </trkpt>
      <trkpt lat="45.3791045203128" lon="3.5308983406446703">
        <ele>819</ele>
      </trkpt>
      <trkpt lat="45.37849418271982" lon="3.5305340453938596">
        <ele>814</ele>
      </trkpt>
      <trkpt lat="45.37804215144002" lon="3.5303938584779719">
        <ele>814</ele>
      </trkpt>
      <trkpt lat="45.3774613770742" lon="3.5305340453938596">
        <ele>820</ele>
      </trkpt>
      <trkpt lat="45.3770093457944" lon="3.5306618348273902">
        <ele>818</ele>
      </trkpt>
      <trkpt lat="45.37627121876788" lon="3.5309860766736612">
        <ele>816</ele>
      </trkpt>
      <trkpt lat="45.37627048190487" lon="3.5309864003917961">
        <ele>816</ele>
      </trkpt>
      <trkpt lat="45.37559507915316" lon="3.5311138661071917">
        <ele>809</ele>
      </trkpt>
      <trkpt lat="45.37456513446501" lon="3.5313456036620265">
        <ele>801</ele>
      </trkpt>
      <trkpt lat="45.37391855807744" lon="3.5314285714285725">
        <ele>795</ele>
      </trkpt>
      <trkpt lat="45.37373545679954" lon="3.5316765210757213">
        <ele>797</ele>
      </trkpt>
      <trkpt lat="45.37373545679954" lon="3.5316765210757213">
        <ele>797</ele>
      </trkpt>
      <trkpt lat="45.37361243562846" lon="3.5317280183101287">
        <ele>795</ele>
      </trkpt>
      <trkpt lat="45.37341216860577" lon="3.5314514590883093">
        <ele>789</ele>
      </trkpt>
      <trkpt lat="45.37320522601564" lon="3.531329391569713">
        <ele>784</ele>
      </trkpt>
      <trkpt lat="45.37207800877361" lon="3.5317613961472452">
        <ele>772</ele>
      </trkpt>
      <trkpt lat="45.37180717146672" lon="3.531846271218769">
        <ele>769</ele>
      </trkpt>
      <trkpt lat="45.37178950756396" lon="3.5318617442498663">
        <ele>769</ele>
      </trkpt>
      <trkpt lat="45.37178905206943" lon="3.5318615296585936">
        <ele>769</ele>
      </trkpt>
      <trkpt lat="45.37168987221057" lon="3.531814800686631">
        <ele>769</ele>
      </trkpt>
      <trkpt lat="45.37162120923136" lon="3.5317547205798219">
        <ele>768</ele>
      </trkpt>
      <trkpt lat="45.37156399008202" lon="3.5316336067137146">
        <ele>767</ele>
      </trkpt>
      <trkpt lat="45.37150677093268" lon="3.5315134465000964">
        <ele>767</ele>
      </trkpt>
      <trkpt lat="45.37142571047111" lon="3.5314152202937259">
        <ele>766</ele>
      </trkpt>
      <trkpt lat="45.37142571047111" lon="3.5314152202937259">
        <ele>766</ele>
      </trkpt>
      <trkpt lat="45.37144192256342" lon="3.5311729925615118">
        <ele>766</ele>
      </trkpt>
      <trkpt lat="45.37144192256342" lon="3.5311729925615118">
        <ele>766</ele>
      </trkpt>
      <trkpt lat="45.37147243944307" lon="3.5308535189776857">
        <ele>766</ele>
      </trkpt>
      <trkpt lat="45.37147243944307" lon="3.5308535189776857">
        <ele>766</ele>
      </trkpt>
      <trkpt lat="45.37148292962045" lon="3.5307257295441552">
        <ele>767</ele>
      </trkpt>
      <trkpt lat="45.37150772458516" lon="3.5305502574861731">
        <ele>768</ele>
      </trkpt>
      <trkpt lat="45.37152298302499" lon="3.5303652489033008">
        <ele>769</ele>
      </trkpt>
      <trkpt lat="45.37150390997521" lon="3.530230783902347">
        <ele>770</ele>
      </trkpt>
      <trkpt lat="45.37150390997521" lon="3.530230783902347">
        <ele>770</ele>
      </trkpt>
      <trkpt lat="45.37160976540149" lon="3.5301621209231366">
        <ele>770</ele>
      </trkpt>
      <trkpt lat="45.37173374022507" lon="3.5300295632271612">
        <ele>770</ele>
      </trkpt>
      <trkpt lat="45.37193782185772" lon="3.5297825672325018">
        <ele>776</ele>
      </trkpt>
      <trkpt lat="45.372036271942" lon="3.5295952084817994">
        <ele>780</ele>
      </trkpt>
      <trkpt lat="45.372036271942" lon="3.5295952084817994">
        <ele>780</ele>
      </trkpt>
      <trkpt lat="45.37254720579821" lon="3.5294411596414279">
        <ele>779</ele>
      </trkpt>
      <trkpt lat="45.37254720579821" lon="3.5294411596414279">
        <ele>779</ele>
      </trkpt>
      <trkpt lat="45.37244897959184" lon="3.5294430669464059">
        <ele>779</ele>
      </trkpt>
      <trkpt lat="45.37215430097273" lon="3.5293705893572396">
        <ele>784</ele>
      </trkpt>
      <trkpt lat="45.37215430097273" lon="3.5293705893572396">
        <ele>784</ele>
      </trkpt>
      <trkpt lat="45.37232977303071" lon="3.5290625596032816">
        <ele>789</ele>
      </trkpt>
      <trkpt lat="45.37232977303071" lon="3.5290625596032816">
        <ele>789</ele>
      </trkpt>
      <trkpt lat="45.37271028037384" lon="3.5283663932862876">
        <ele>803</ele>
      </trkpt>
      <trkpt lat="45.3728609574671" lon="3.5277436582109489">
        <ele>812</ele>
      </trkpt>
      <trkpt lat="45.3728609574671" lon="3.5277436582109489">
        <ele>812</ele>
      </trkpt>
      <trkpt lat="45.37269502193401" lon="3.527400343314897">
        <ele>822</ele>
      </trkpt>
      <trkpt lat="45.3721218767881" lon="3.5271428571428585">
        <ele>838</ele>
      </trkpt>
      <trkpt lat="45.37145908830823" lon="3.5267785618920477">
        <ele>854</ele>
      </trkpt>
      <trkpt lat="45.37105950791532" lon="3.5266345603662037">
        <ele>859</ele>
      </trkpt>
      <trkpt lat="45.37067995422468" lon="3.5263465573145156">
        <ele>862</ele>
      </trkpt>
      <trkpt lat="45.37030802975396" lon="3.5256284569902738">
        <ele>869</ele>
      </trkpt>
      <trkpt lat="45.36997139042533" lon="3.5245746709898924">
        <ele>889</ele>
      </trkpt>
      <trkpt lat="45.36995136372306" lon="3.5242389853137528">
        <ele>896</ele>
      </trkpt>
      <trkpt lat="45.36988556170132" lon="3.5239710089643346">
        <ele>901</ele>
      </trkpt>
      <trkpt lat="45.36986267404158" lon="3.5236753766927342">
        <ele>906</ele>
      </trkpt>
      <trkpt lat="45.36966717528133" lon="3.5232119015830641">
        <ele>913</ele>
      </trkpt>
      <trkpt lat="45.36921609765402" lon="3.5225939347701707">
        <ele>917</ele>
      </trkpt>
      <trkpt lat="45.36897196261683" lon="3.5218968148006877">
        <ele>928</ele>
      </trkpt>
      <trkpt lat="45.36891092885753" lon="3.5215859240892629">
        <ele>931</ele>
      </trkpt>
      <trkpt lat="45.36905588403586" lon="3.5209221819568959">
        <ele>940</ele>
      </trkpt>
      <trkpt lat="45.36905588403586" lon="3.5209221819568959">
        <ele>940</ele>
      </trkpt>
      <trkpt lat="45.3689223726874" lon="3.5206522983024997">
        <ele>944</ele>
      </trkpt>
      <trkpt lat="45.3688174709136" lon="3.5205884035857347">
        <ele>945</ele>
      </trkpt>
      <trkpt lat="45.36839500286096" lon="3.5206418081251205">
        <ele>943</ele>
      </trkpt>
      <trkpt lat="45.36817661644098" lon="3.5205884035857347">
        <ele>945</ele>
      </trkpt>
      <trkpt lat="45.36798016402823" lon="3.5204482166698465">
        <ele>948</ele>
      </trkpt>
      <trkpt lat="45.36767118062178" lon="3.520319473583827">
        <ele>950</ele>
      </trkpt>
      <trkpt lat="45.36767118062178" lon="3.520319473583827">
        <ele>950</ele>
      </trkpt>
      <trkpt lat="45.36752050352852" lon="3.5200190730497818">
        <ele>954</ele>
      </trkpt>
      <trkpt lat="45.36750238413123" lon="3.5200000000000014">
        <ele>954</ele>
      </trkpt>
      <trkpt lat="45.36750238413123" lon="3.5199999999999907">
        <ele>954</ele>
      </trkpt>
      <trkpt lat="45.36726397100897" lon="3.5197406065229737">
        <ele>951</ele>
      </trkpt>
      <trkpt lat="45.3670608430288" lon="3.5194831203509351">
        <ele>947</ele>
      </trkpt>
      <trkpt lat="45.36681193972917" lon="3.5190749570856288">
        <ele>941</ele>
      </trkpt>
      <trkpt lat="45.36669845508298" lon="3.5187316421895769">
        <ele>939</ele>
      </trkpt>
      <trkpt lat="45.36659355330918" lon="3.5182061796681197">
        <ele>939</ele>
      </trkpt>
      <trkpt lat="45.36659355330918" lon="3.5179267594888333">
        <ele>939</ele>
      </trkpt>
      <trkpt lat="45.36667652107572" lon="3.5174871256913889">
        <ele>942</ele>
      </trkpt>
      <trkpt lat="45.36669845508298" lon="3.51711138661071">
        <ele>945</ele>
      </trkpt>
      <trkpt lat="45.36669845508298" lon="3.5168653442685396">
        <ele>946</ele>
      </trkpt>
      <trkpt lat="45.36651058554263" lon="3.5164676711806129">
        <ele>945</ele>
      </trkpt>
      <trkpt lat="45.36641235933626" lon="3.5162321190158217">
        <ele>945</ele>
      </trkpt>
      <trkpt lat="45.36615582681672" lon="3.5155454892237179">
        <ele>947</ele>
      </trkpt>
      <trkpt lat="45.3659832157162" lon="3.5151058554262735">
        <ele>950</ele>
      </trkpt>
      <trkpt lat="45.36587736028991" lon="3.5147730307076008">
        <ele>949</ele>
      </trkpt>
      <trkpt lat="45.36578676330345" lon="3.5141617394621307">
        <ele>946</ele>
      </trkpt>
      <trkpt lat="45.36564848369255" lon="3.5135657066564852">
        <ele>941</ele>
      </trkpt>
      <trkpt lat="45.36564848369255" lon="3.5135657066564852">
        <ele>941</ele>
      </trkpt>
      <trkpt lat="45.3655302307839" lon="3.5134321953080208">
        <ele>940</ele>
      </trkpt>
      <trkpt lat="45.36495803929049" lon="3.512745565515917">
        <ele>937</ele>
      </trkpt>
      <trkpt lat="45.36446827630199" lon="3.5122595555005081">
        <ele>930</ele>
      </trkpt>
      <trkpt lat="45.36446827630199" lon="3.5122595555005081">
        <ele>930</ele>
      </trkpt>
      <trkpt lat="45.36437688748028" lon="3.5121433051496842">
        <ele>929</ele>
      </trkpt>
      <trkpt lat="45.36437688748028" lon="3.5121433051496842">
        <ele>929</ele>
      </trkpt>
      <trkpt lat="45.36416364676712" lon="3.5118662979210287">
        <ele>924</ele>
      </trkpt>
      <trkpt lat="45.36397005531185" lon="3.511564943734494">
        <ele>921</ele>
      </trkpt>
      <trkpt lat="45.36397005531185" lon="3.511564943734494">
        <ele>921</ele>
      </trkpt>
      <trkpt lat="45.36361625023842" lon="3.5108926187297258">
        <ele>915</ele>
      </trkpt>
      <trkpt lat="45.3635132557696" lon="3.5106561129124456">
        <ele>913</ele>
      </trkpt>
      <trkpt lat="45.36343600991799" lon="3.5104148388327201">
        <ele>910</ele>
      </trkpt>
      <trkpt lat="45.36340453938585" lon="3.5102345985122931">
        <ele>908</ele>
      </trkpt>
      <trkpt lat="45.36339023459852" lon="3.5100905969864491">
        <ele>907</ele>
      </trkpt>
      <trkpt lat="45.36337116154873" lon="3.509979973297721">
        <ele>906</ele>
      </trkpt>
      <trkpt lat="45.36331108144193" lon="3.5098273888994758">
        <ele>903</ele>
      </trkpt>
      <trkpt lat="45.36323765020027" lon="3.5097015067709236">
        <ele>900</ele>
      </trkpt>
      <trkpt lat="45.36296109097845" lon="3.5094144573717245">
        <ele>894</ele>
      </trkpt>
      <trkpt lat="45.36211806217815" lon="3.5083978638184155">
        <ele>877</ele>
      </trkpt>
      <trkpt lat="45.36187488079344" lon="3.5080869731069906">
        <ele>876</ele>
      </trkpt>
      <trkpt lat="45.36172420370018" lon="3.5078533282471778">
        <ele>875</ele>
      </trkpt>
      <trkpt lat="45.36142857142858" lon="3.5073517070379463">
        <ele>874</ele>
      </trkpt>
      <trkpt lat="45.36136467671181" lon="3.5072897196261592">
        <ele>874</ele>
      </trkpt>
      <trkpt lat="45.36128170894526" lon="3.5072820904062469">
        <ele>874</ele>
      </trkpt>
      <trkpt lat="45.36128170894526" lon="3.5072820904062469">
        <ele>874</ele>
      </trkpt>
      <trkpt lat="45.36124547015068" lon="3.5071562082776944">
        <ele>874</ele>
      </trkpt>
      <trkpt lat="45.36118252908641" lon="3.5070169750142957">
        <ele>874</ele>
      </trkpt>
      <trkpt lat="45.36118252908641" lon="3.5070169750142957">
        <ele>874</ele>
      </trkpt>
      <trkpt lat="45.36141331298875" lon="3.5067222963951843">
        <ele>875</ele>
      </trkpt>
      <trkpt lat="45.36161453366394" lon="3.5065153538050642">
        <ele>876</ele>
      </trkpt>
      <trkpt lat="45.36228399771124" lon="3.5058582872401205">
        <ele>876</ele>
      </trkpt>
      <trkpt lat="45.36228399771124" lon="3.5058582872401205">
        <ele>876</ele>
      </trkpt>
      <trkpt lat="45.36222963951936" lon="3.5058058363532236">
        <ele>876</ele>
      </trkpt>
      <trkpt lat="45.36222963951936" lon="3.5058058363532236">
        <ele>876</ele>
      </trkpt>
      <trkpt lat="45.36273030707611" lon="3.505728590501612">
        <ele>876</ele>
      </trkpt>
      <trkpt lat="45.36313751668892" lon="3.5054920846843318">
        <ele>876</ele>
      </trkpt>
      <trkpt lat="45.36339118825101" lon="3.5054482166698362">
        <ele>876</ele>
      </trkpt>
      <trkpt lat="45.36357047491894" lon="3.5053747854281809">
        <ele>876</ele>
      </trkpt>
      <trkpt lat="45.36357047491894" lon="3.5053747854281809">
        <ele>876</ele>
      </trkpt>
      <trkpt lat="45.36381556360863" lon="3.5053204272363061">
        <ele>876</ele>
      </trkpt>
      <trkpt lat="45.364087354568" lon="3.5050419607095082">
        <ele>877</ele>
      </trkpt>
      <trkpt lat="45.36444878886135" lon="3.5046986458134564">
        <ele>873</ele>
      </trkpt>
      <trkpt lat="45.36473488460805" lon="3.5044411596414178">
        <ele>869</ele>
      </trkpt>
      <trkpt lat="45.36510108716384" lon="3.5040902155254536">
        <ele>864</ele>
      </trkpt>
      <trkpt lat="45.36510108716384" lon="3.5040902155254536">
        <ele>864</ele>
      </trkpt>
      <trkpt lat="45.36520503528514" lon="3.503868968147998">
        <ele>862</ele>
      </trkpt>
      <trkpt lat="45.36531851993134" lon="3.5036896814800595">
        <ele>860</ele>
      </trkpt>
      <trkpt lat="45.36563990082015" lon="3.5032958230020887">
        <ele>853</ele>
      </trkpt>
      <trkpt lat="45.3657304978066" lon="3.5031708945260256">
        <ele>852</ele>
      </trkpt>
      <trkpt lat="45.3657304978066" lon="3.5031708945260256">
        <ele>852</ele>
      </trkpt>
      <trkpt lat="45.36578485599848" lon="3.503094602326903">
        <ele>851</ele>
      </trkpt>
      <trkpt lat="45.36583921419035" lon="3.5030192637802693">
        <ele>850</ele>
      </trkpt>
      <trkpt lat="45.36583921419035" lon="3.5030192637802693">
        <ele>850</ele>
      </trkpt>
      <trkpt lat="45.3661224489796" lon="3.5029172229639429">
        <ele>851</ele>
      </trkpt>
      <trkpt lat="45.36634083539958" lon="3.5028313942399301">
        <ele>852</ele>
      </trkpt>
      <trkpt lat="45.36664981880603" lon="3.5027503337783621">
        <ele>854</ele>
      </trkpt>
      <trkpt lat="45.36672515735267" lon="3.5026826244516407">
        <ele>855</ele>
      </trkpt>
      <trkpt lat="45.36682147625406" lon="3.5026149151249193">
        <ele>856</ele>
      </trkpt>
      <trkpt lat="45.36720961281709" lon="3.502573908067891">
        <ele>862</ele>
      </trkpt>
      <trkpt lat="45.36753194735839" lon="3.5025786763303359">
        <ele>866</ele>
      </trkpt>
      <trkpt lat="45.36765961754352" lon="3.5025682935140749">
        <ele>868</ele>
      </trkpt>
      <trkpt lat="45.36766736601183" lon="3.5025710471104237">
        <ele>868</ele>
      </trkpt>
      <trkpt lat="45.36778275796301" lon="3.5026120541674524">
        <ele>870</ele>
      </trkpt>
      <trkpt lat="45.36804024413505" lon="3.5027350753385376">
        <ele>873</ele>
      </trkpt>
      <trkpt lat="45.36831775700935" lon="3.5027970627503247">
        <ele>877</ele>
      </trkpt>
      <trkpt lat="45.36845603662026" lon="3.5028704939919804">
        <ele>878</ele>
      </trkpt>
      <trkpt lat="45.36856666030899" lon="3.5030278466526705">
        <ele>878</ele>
      </trkpt>
      <trkpt lat="45.36855998474157" lon="3.5031604043486464">
        <ele>877</ele>
      </trkpt>
      <trkpt lat="45.368348273889" lon="3.5037268739271319">
        <ele>875</ele>
      </trkpt>
      <trkpt lat="45.36823669658416" lon="3.5041381423400058">
        <ele>876</ele>
      </trkpt>
    </trkseg>
  </trk>
</gpx>