<?xml version="1.0" encoding="UTF-8"?>
<gpx version="1.1" creator="gpx-processor" xmlns="http://www.topografix.com/GPX/1/1">
  <metadata><name>course-des-cretes-26-km</name></metadata>
  <trk>
    <name>course-des-cretes-26-km</name>
    <trkseg>
      <trkpt lat="43.339343" lon="-1.447003"><ele>77.0</ele></trkpt>
      <trkpt lat="43.338813" lon="-1.446673"><ele>78.0</ele></trkpt>
      <trkpt lat="43.337795" lon="-1.446242"><ele>78.0</ele></trkpt>
      <trkpt lat="43.336808" lon="-1.446147"><ele>78.0</ele></trkpt>
      <trkpt lat="43.336002" lon="-1.446182"><ele>81.0</ele></trkpt>
      <trkpt lat="43.334915" lon="-1.445488"><ele>79.0</ele></trkpt>
      <trkpt lat="43.334363" lon="-1.445388"><ele>78.0</ele></trkpt>
      <trkpt lat="43.334050" lon="-1.445703"><ele>81.0</ele></trkpt>
      <trkpt lat="43.333707" lon="-1.446300"><ele>83.0</ele></trkpt>
      <trkpt lat="43.333612" lon="-1.446637"><ele>83.0</ele></trkpt>
      <trkpt lat="43.333292" lon="-1.447028"><ele>80.0</ele></trkpt>
      <trkpt lat="43.333088" lon="-1.447172"><ele>80.0</ele></trkpt>
      <trkpt lat="43.332103" lon="-1.447340"><ele>90.0</ele></trkpt>
      <trkpt lat="43.331610" lon="-1.447657"><ele>90.0</ele></trkpt>
      <trkpt lat="43.331395" lon="-1.448070"><ele>90.0</ele></trkpt>
      <trkpt lat="43.331270" lon="-1.449195"><ele>97.0</ele></trkpt>
      <trkpt lat="43.330923" lon="-1.449667"><ele>94.0</ele></trkpt>
      <trkpt lat="43.330705" lon="-1.449777"><ele>88.0</ele></trkpt>
      <trkpt lat="43.329332" lon="-1.449247"><ele>91.0</ele></trkpt>
      <trkpt lat="43.328412" lon="-1.449322"><ele>97.0</ele></trkpt>
      <trkpt lat="43.327805" lon="-1.449260"><ele>105.0</ele></trkpt>
      <trkpt lat="43.327302" lon="-1.448870"><ele>107.0</ele></trkpt>
      <trkpt lat="43.326655" lon="-1.448100"><ele>101.0</ele></trkpt>
      <trkpt lat="43.326058" lon="-1.447698"><ele>98.0</ele></trkpt>
      <trkpt lat="43.325590" lon="-1.446235"><ele>98.0</ele></trkpt>
      <trkpt lat="43.325373" lon="-1.444843"><ele>109.0</ele></trkpt>
      <trkpt lat="43.324987" lon="-1.443350"><ele>107.0</ele></trkpt>
      <trkpt lat="43.325103" lon="-1.442838"><ele>107.0</ele></trkpt>
      <trkpt lat="43.325167" lon="-1.441763"><ele>112.0</ele></trkpt>
      <trkpt lat="43.325698" lon="-1.439237"><ele>122.0</ele></trkpt>
      <trkpt lat="43.325993" lon="-1.438760"><ele>122.0</ele></trkpt>
      <trkpt lat="43.326765" lon="-1.438002"><ele>131.0</ele></trkpt>
      <trkpt lat="43.327228" lon="-1.436847"><ele>134.0</ele></trkpt>
      <trkpt lat="43.325992" lon="-1.437132"><ele>139.0</ele></trkpt>
      <trkpt lat="43.324917" lon="-1.437892"><ele>161.0</ele></trkpt>
      <trkpt lat="43.324715" lon="-1.438085"><ele>160.0</ele></trkpt>
      <trkpt lat="43.324450" lon="-1.438607"><ele>153.0</ele></trkpt>
      <trkpt lat="43.324175" lon="-1.438747"><ele>153.0</ele></trkpt>
      <trkpt lat="43.324072" lon="-1.438710"><ele>160.0</ele></trkpt>
      <trkpt lat="43.322865" lon="-1.436790"><ele>198.0</ele></trkpt>
      <trkpt lat="43.322243" lon="-1.436402"><ele>218.0</ele></trkpt>
      <trkpt lat="43.321702" lon="-1.435888"><ele>229.0</ele></trkpt>
      <trkpt lat="43.321553" lon="-1.435542"><ele>244.0</ele></trkpt>
      <trkpt lat="43.322235" lon="-1.435495"><ele>237.0</ele></trkpt>
      <trkpt lat="43.322347" lon="-1.435003"><ele>241.0</ele></trkpt>
      <trkpt lat="43.322360" lon="-1.434353"><ele>255.0</ele></trkpt>
      <trkpt lat="43.322152" lon="-1.434540"><ele>255.0</ele></trkpt>
      <trkpt lat="43.321718" lon="-1.434552"><ele>258.0</ele></trkpt>
      <trkpt lat="43.320822" lon="-1.434085"><ele>288.0</ele></trkpt>
      <trkpt lat="43.321372" lon="-1.433090"><ele>300.0</ele></trkpt>
      <trkpt lat="43.321450" lon="-1.432033"><ele>312.0</ele></trkpt>
      <trkpt lat="43.321250" lon="-1.431057"><ele>321.0</ele></trkpt>
      <trkpt lat="43.320792" lon="-1.429892"><ele>337.0</ele></trkpt>
      <trkpt lat="43.320327" lon="-1.429243"><ele>343.0</ele></trkpt>
      <trkpt lat="43.319943" lon="-1.427790"><ele>351.0</ele></trkpt>
      <trkpt lat="43.319962" lon="-1.427005"><ele>349.0</ele></trkpt>
      <trkpt lat="43.319848" lon="-1.426452"><ele>347.0</ele></trkpt>
      <trkpt lat="43.319267" lon="-1.426545"><ele>353.0</ele></trkpt>
      <trkpt lat="43.319093" lon="-1.426685"><ele>361.0</ele></trkpt>
      <trkpt lat="43.318132" lon="-1.426925"><ele>379.0</ele></trkpt>
      <trkpt lat="43.317062" lon="-1.427775"><ele>401.0</ele></trkpt>
      <trkpt lat="43.316740" lon="-1.427888"><ele>404.0</ele></trkpt>
      <trkpt lat="43.315140" lon="-1.427653"><ele>430.0</ele></trkpt>
      <trkpt lat="43.314620" lon="-1.427470"><ele>431.0</ele></trkpt>
      <trkpt lat="43.313842" lon="-1.427495"><ele>441.0</ele></trkpt>
      <trkpt lat="43.313180" lon="-1.427955"><ele>448.0</ele></trkpt>
      <trkpt lat="43.312347" lon="-1.429450"><ele>473.0</ele></trkpt>
      <trkpt lat="43.312135" lon="-1.429622"><ele>475.0</ele></trkpt>
      <trkpt lat="43.311728" lon="-1.429713"><ele>474.0</ele></trkpt>
      <trkpt lat="43.311647" lon="-1.429875"><ele>474.0</ele></trkpt>
      <trkpt lat="43.311573" lon="-1.430537"><ele>480.0</ele></trkpt>
      <trkpt lat="43.311453" lon="-1.430807"><ele>481.0</ele></trkpt>
      <trkpt lat="43.310828" lon="-1.431173"><ele>472.0</ele></trkpt>
      <trkpt lat="43.309438" lon="-1.431752"><ele>478.0</ele></trkpt>
      <trkpt lat="43.309215" lon="-1.431983"><ele>479.0</ele></trkpt>
      <trkpt lat="43.308675" lon="-1.432150"><ele>495.0</ele></trkpt>
      <trkpt lat="43.308257" lon="-1.432118"><ele>512.0</ele></trkpt>
      <trkpt lat="43.308025" lon="-1.431885"><ele>514.0</ele></trkpt>
      <trkpt lat="43.307000" lon="-1.431860"><ele>546.0</ele></trkpt>
      <trkpt lat="43.306203" lon="-1.432028"><ele>576.0</ele></trkpt>
      <trkpt lat="43.305488" lon="-1.431998"><ele>601.0</ele></trkpt>
      <trkpt lat="43.304503" lon="-1.432342"><ele>632.0</ele></trkpt>
      <trkpt lat="43.304288" lon="-1.432362"><ele>637.0</ele></trkpt>
      <trkpt lat="43.304037" lon="-1.432162"><ele>658.0</ele></trkpt>
      <trkpt lat="43.303773" lon="-1.432245"><ele>664.0</ele></trkpt>
      <trkpt lat="43.303325" lon="-1.432593"><ele>683.0</ele></trkpt>
      <trkpt lat="43.303158" lon="-1.432633"><ele>685.0</ele></trkpt>
      <trkpt lat="43.303178" lon="-1.432545"><ele>685.0</ele></trkpt>
      <trkpt lat="43.303008" lon="-1.432627"><ele>686.0</ele></trkpt>
      <trkpt lat="43.302842" lon="-1.432582"><ele>690.0</ele></trkpt>
      <trkpt lat="43.302783" lon="-1.432388"><ele>700.0</ele></trkpt>
      <trkpt lat="43.302695" lon="-1.432353"><ele>702.0</ele></trkpt>
      <trkpt lat="43.302948" lon="-1.431732"><ele>700.0</ele></trkpt>
      <trkpt lat="43.302817" lon="-1.431682"><ele>703.0</ele></trkpt>
      <trkpt lat="43.302732" lon="-1.431725"><ele>706.0</ele></trkpt>
      <trkpt lat="43.302630" lon="-1.432067"><ele>703.0</ele></trkpt>
      <trkpt lat="43.302305" lon="-1.432582"><ele>704.0</ele></trkpt>
      <trkpt lat="43.301690" lon="-1.432688"><ele>709.0</ele></trkpt>
      <trkpt lat="43.301328" lon="-1.432433"><ele>708.0</ele></trkpt>
      <trkpt lat="43.301120" lon="-1.431975"><ele>704.0</ele></trkpt>
      <trkpt lat="43.300938" lon="-1.431925"><ele>701.0</ele></trkpt>
      <trkpt lat="43.299532" lon="-1.431853"><ele>662.0</ele></trkpt>
      <trkpt lat="43.298437" lon="-1.432102"><ele>654.0</ele></trkpt>
      <trkpt lat="43.297965" lon="-1.432612"><ele>645.0</ele></trkpt>
      <trkpt lat="43.296767" lon="-1.432933"><ele>649.0</ele></trkpt>
      <trkpt lat="43.295895" lon="-1.433692"><ele>647.0</ele></trkpt>
      <trkpt lat="43.295457" lon="-1.434273"><ele>643.0</ele></trkpt>
      <trkpt lat="43.294873" lon="-1.434745"><ele>648.0</ele></trkpt>
      <trkpt lat="43.294737" lon="-1.434948"><ele>646.0</ele></trkpt>
      <trkpt lat="43.294177" lon="-1.434995"><ele>640.0</ele></trkpt>
      <trkpt lat="43.293830" lon="-1.434853"><ele>641.0</ele></trkpt>
      <trkpt lat="43.292687" lon="-1.434920"><ele>618.0</ele></trkpt>
      <trkpt lat="43.291187" lon="-1.435360"><ele>585.0</ele></trkpt>
      <trkpt lat="43.290873" lon="-1.435645"><ele>582.0</ele></trkpt>
      <trkpt lat="43.290477" lon="-1.436382"><ele>566.0</ele></trkpt>
      <trkpt lat="43.290272" lon="-1.436508"><ele>565.0</ele></trkpt>
      <trkpt lat="43.289702" lon="-1.437212"><ele>554.0</ele></trkpt>
      <trkpt lat="43.289402" lon="-1.438040"><ele>556.0</ele></trkpt>
      <trkpt lat="43.289187" lon="-1.438290"><ele>558.0</ele></trkpt>
      <trkpt lat="43.288780" lon="-1.438137"><ele>560.0</ele></trkpt>
      <trkpt lat="43.288303" lon="-1.438105"><ele>573.0</ele></trkpt>
      <trkpt lat="43.287923" lon="-1.437863"><ele>570.0</ele></trkpt>
      <trkpt lat="43.287432" lon="-1.438027"><ele>586.0</ele></trkpt>
      <trkpt lat="43.286433" lon="-1.437987"><ele>600.0</ele></trkpt>
      <trkpt lat="43.286175" lon="-1.437848"><ele>600.0</ele></trkpt>
      <trkpt lat="43.285783" lon="-1.437378"><ele>596.0</ele></trkpt>
      <trkpt lat="43.285043" lon="-1.437470"><ele>602.0</ele></trkpt>
      <trkpt lat="43.284372" lon="-1.437178"><ele>599.0</ele></trkpt>
      <trkpt lat="43.283753" lon="-1.437378"><ele>598.0</ele></trkpt>
      <trkpt lat="43.283433" lon="-1.437990"><ele>615.0</ele></trkpt>
      <trkpt lat="43.283333" lon="-1.438037"><ele>610.0</ele></trkpt>
      <trkpt lat="43.283172" lon="-1.437953"><ele>607.0</ele></trkpt>
      <trkpt lat="43.282433" lon="-1.438208"><ele>611.0</ele></trkpt>
      <trkpt lat="43.281988" lon="-1.437997"><ele>606.0</ele></trkpt>
      <trkpt lat="43.281362" lon="-1.438012"><ele>605.0</ele></trkpt>
      <trkpt lat="43.279310" lon="-1.439817"><ele>618.0</ele></trkpt>
      <trkpt lat="43.278732" lon="-1.440028"><ele>633.0</ele></trkpt>
      <trkpt lat="43.278635" lon="-1.440005"><ele>633.0</ele></trkpt>
      <trkpt lat="43.278243" lon="-1.439478"><ele>613.0</ele></trkpt>
      <trkpt lat="43.277712" lon="-1.439515"><ele>613.0</ele></trkpt>
      <trkpt lat="43.276820" lon="-1.440575"><ele>620.0</ele></trkpt>
      <trkpt lat="43.276387" lon="-1.440707"><ele>615.0</ele></trkpt>
      <trkpt lat="43.276033" lon="-1.440535"><ele>612.0</ele></trkpt>
      <trkpt lat="43.275797" lon="-1.440600"><ele>611.0</ele></trkpt>
      <trkpt lat="43.274958" lon="-1.441228"><ele>614.0</ele></trkpt>
      <trkpt lat="43.274198" lon="-1.442113"><ele>631.0</ele></trkpt>
      <trkpt lat="43.273853" lon="-1.442258"><ele>622.0</ele></trkpt>
      <trkpt lat="43.273585" lon="-1.442520"><ele>638.0</ele></trkpt>
      <trkpt lat="43.273287" lon="-1.442407"><ele>624.0</ele></trkpt>
      <trkpt lat="43.272910" lon="-1.442557"><ele>637.0</ele></trkpt>
      <trkpt lat="43.272338" lon="-1.442605"><ele>632.0</ele></trkpt>
      <trkpt lat="43.272170" lon="-1.442808"><ele>633.0</ele></trkpt>
      <trkpt lat="43.271880" lon="-1.443535"><ele>645.0</ele></trkpt>
      <trkpt lat="43.271610" lon="-1.443943"><ele>644.0</ele></trkpt>
      <trkpt lat="43.271215" lon="-1.444215"><ele>655.0</ele></trkpt>
      <trkpt lat="43.270383" lon="-1.444400"><ele>650.0</ele></trkpt>
      <trkpt lat="43.270078" lon="-1.444633"><ele>650.0</ele></trkpt>
      <trkpt lat="43.269847" lon="-1.444993"><ele>645.0</ele></trkpt>
      <trkpt lat="43.269097" lon="-1.445370"><ele>635.0</ele></trkpt>
      <trkpt lat="43.268698" lon="-1.445910"><ele>639.0</ele></trkpt>
      <trkpt lat="43.268438" lon="-1.446558"><ele>641.0</ele></trkpt>
      <trkpt lat="43.268470" lon="-1.446718"><ele>640.0</ele></trkpt>
      <trkpt lat="43.268448" lon="-1.446637"><ele>641.0</ele></trkpt>
      <trkpt lat="43.269907" lon="-1.445660"><ele>651.0</ele></trkpt>
      <trkpt lat="43.272067" lon="-1.445277"><ele>675.0</ele></trkpt>
      <trkpt lat="43.272907" lon="-1.444882"><ele>680.0</ele></trkpt>
      <trkpt lat="43.273877" lon="-1.444078"><ele>669.0</ele></trkpt>
      <trkpt lat="43.276137" lon="-1.442720"><ele>667.0</ele></trkpt>
      <trkpt lat="43.277825" lon="-1.442440"><ele>677.0</ele></trkpt>
      <trkpt lat="43.278898" lon="-1.442450"><ele>679.0</ele></trkpt>
      <trkpt lat="43.279700" lon="-1.441702"><ele>671.0</ele></trkpt>
      <trkpt lat="43.280655" lon="-1.441145"><ele>659.0</ele></trkpt>
      <trkpt lat="43.281507" lon="-1.440247"><ele>653.0</ele></trkpt>
      <trkpt lat="43.281885" lon="-1.440052"><ele>653.0</ele></trkpt>
      <trkpt lat="43.282510" lon="-1.439975"><ele>658.0</ele></trkpt>
      <trkpt lat="43.282955" lon="-1.440078"><ele>651.0</ele></trkpt>
      <trkpt lat="43.283293" lon="-1.439985"><ele>656.0</ele></trkpt>
      <trkpt lat="43.284683" lon="-1.439102"><ele>642.0</ele></trkpt>
      <trkpt lat="43.285277" lon="-1.439135"><ele>638.0</ele></trkpt>
      <trkpt lat="43.285655" lon="-1.438897"><ele>634.0</ele></trkpt>
      <trkpt lat="43.286707" lon="-1.438890"><ele>620.0</ele></trkpt>
      <trkpt lat="43.287807" lon="-1.438585"><ele>597.0</ele></trkpt>
      <trkpt lat="43.288323" lon="-1.438670"><ele>593.0</ele></trkpt>
      <trkpt lat="43.289315" lon="-1.438433"><ele>557.0</ele></trkpt>
      <trkpt lat="43.290353" lon="-1.438538"><ele>535.0</ele></trkpt>
      <trkpt lat="43.290980" lon="-1.438003"><ele>527.0</ele></trkpt>
      <trkpt lat="43.291330" lon="-1.437818"><ele>528.0</ele></trkpt>
      <trkpt lat="43.291860" lon="-1.438295"><ele>514.0</ele></trkpt>
      <trkpt lat="43.291985" lon="-1.438423"><ele>503.0</ele></trkpt>
      <trkpt lat="43.292105" lon="-1.438915"><ele>499.0</ele></trkpt>
      <trkpt lat="43.292302" lon="-1.439305"><ele>489.0</ele></trkpt>
      <trkpt lat="43.292873" lon="-1.439688"><ele>487.0</ele></trkpt>
      <trkpt lat="43.293220" lon="-1.439737"><ele>486.0</ele></trkpt>
      <trkpt lat="43.293953" lon="-1.441003"><ele>465.0</ele></trkpt>
      <trkpt lat="43.294623" lon="-1.441437"><ele>474.0</ele></trkpt>
      <trkpt lat="43.295220" lon="-1.442342"><ele>464.0</ele></trkpt>
      <trkpt lat="43.296763" lon="-1.443978"><ele>434.0</ele></trkpt>
      <trkpt lat="43.297170" lon="-1.444990"><ele>434.0</ele></trkpt>
      <trkpt lat="43.297692" lon="-1.445718"><ele>434.0</ele></trkpt>
      <trkpt lat="43.298738" lon="-1.446773"><ele>430.0</ele></trkpt>
      <trkpt lat="43.298797" lon="-1.447082"><ele>429.0</ele></trkpt>
      <trkpt lat="43.299265" lon="-1.447940"><ele>424.0</ele></trkpt>
      <trkpt lat="43.299350" lon="-1.448402"><ele>430.0</ele></trkpt>
      <trkpt lat="43.299350" lon="-1.449245"><ele>444.0</ele></trkpt>
      <trkpt lat="43.299065" lon="-1.450602"><ele>448.0</ele></trkpt>
      <trkpt lat="43.299405" lon="-1.450883"><ele>465.0</ele></trkpt>
      <trkpt lat="43.299833" lon="-1.451492"><ele>473.0</ele></trkpt>
      <trkpt lat="43.299927" lon="-1.452207"><ele>478.0</ele></trkpt>
      <trkpt lat="43.299822" lon="-1.452703"><ele>491.0</ele></trkpt>
      <trkpt lat="43.299448" lon="-1.453532"><ele>508.0</ele></trkpt>
      <trkpt lat="43.299183" lon="-1.454417"><ele>520.0</ele></trkpt>
      <trkpt lat="43.299162" lon="-1.455062"><ele>507.0</ele></trkpt>
      <trkpt lat="43.299392" lon="-1.455418"><ele>528.0</ele></trkpt>
      <trkpt lat="43.299457" lon="-1.455778"><ele>527.0</ele></trkpt>
      <trkpt lat="43.299363" lon="-1.456377"><ele>534.0</ele></trkpt>
      <trkpt lat="43.299115" lon="-1.457093"><ele>511.0</ele></trkpt>
      <trkpt lat="43.299155" lon="-1.458515"><ele>528.0</ele></trkpt>
      <trkpt lat="43.298852" lon="-1.459678"><ele>531.0</ele></trkpt>
      <trkpt lat="43.299020" lon="-1.460193"><ele>532.0</ele></trkpt>
      <trkpt lat="43.299212" lon="-1.460477"><ele>542.0</ele></trkpt>
      <trkpt lat="43.300028" lon="-1.460958"><ele>540.0</ele></trkpt>
      <trkpt lat="43.300888" lon="-1.461778"><ele>535.0</ele></trkpt>
      <trkpt lat="43.301597" lon="-1.463143"><ele>524.0</ele></trkpt>
      <trkpt lat="43.302090" lon="-1.463740"><ele>517.0</ele></trkpt>
      <trkpt lat="43.302365" lon="-1.465253"><ele>501.0</ele></trkpt>
      <trkpt lat="43.302747" lon="-1.465842"><ele>502.0</ele></trkpt>
      <trkpt lat="43.302767" lon="-1.466128"><ele>502.0</ele></trkpt>
      <trkpt lat="43.302860" lon="-1.466320"><ele>501.0</ele></trkpt>
      <trkpt lat="43.302935" lon="-1.467952"><ele>515.0</ele></trkpt>
      <trkpt lat="43.302887" lon="-1.468452"><ele>525.0</ele></trkpt>
      <trkpt lat="43.303007" lon="-1.468938"><ele>528.0</ele></trkpt>
      <trkpt lat="43.303463" lon="-1.469652"><ele>534.0</ele></trkpt>
      <trkpt lat="43.304040" lon="-1.470300"><ele>540.0</ele></trkpt>
      <trkpt lat="43.304508" lon="-1.471487"><ele>556.0</ele></trkpt>
      <trkpt lat="43.305398" lon="-1.472613"><ele>557.0</ele></trkpt>
      <trkpt lat="43.305948" lon="-1.473837"><ele>549.0</ele></trkpt>
      <trkpt lat="43.306058" lon="-1.474302"><ele>545.0</ele></trkpt>
      <trkpt lat="43.306008" lon="-1.474703"><ele>540.0</ele></trkpt>
      <trkpt lat="43.305717" lon="-1.475297"><ele>514.0</ele></trkpt>
      <trkpt lat="43.305455" lon="-1.476353"><ele>485.0</ele></trkpt>
      <trkpt lat="43.305435" lon="-1.477472"><ele>459.0</ele></trkpt>
      <trkpt lat="43.305102" lon="-1.479737"><ele>405.0</ele></trkpt>
      <trkpt lat="43.305098" lon="-1.480090"><ele>401.0</ele></trkpt>
      <trkpt lat="43.305160" lon="-1.480193"><ele>397.0</ele></trkpt>
      <trkpt lat="43.305255" lon="-1.480170"><ele>396.0</ele></trkpt>
      <trkpt lat="43.305418" lon="-1.479872"><ele>401.0</ele></trkpt>
      <trkpt lat="43.306053" lon="-1.478315"><ele>426.0</ele></trkpt>
      <trkpt lat="43.306285" lon="-1.477932"><ele>431.0</ele></trkpt>
      <trkpt lat="43.307513" lon="-1.478475"><ele>412.0</ele></trkpt>
      <trkpt lat="43.307987" lon="-1.478562"><ele>408.0</ele></trkpt>
      <trkpt lat="43.308693" lon="-1.478545"><ele>407.0</ele></trkpt>
      <trkpt lat="43.309613" lon="-1.478238"><ele>417.0</ele></trkpt>
      <trkpt lat="43.310118" lon="-1.478192"><ele>408.0</ele></trkpt>
      <trkpt lat="43.310372" lon="-1.478018"><ele>409.0</ele></trkpt>
      <trkpt lat="43.310583" lon="-1.477670"><ele>410.0</ele></trkpt>
      <trkpt lat="43.310610" lon="-1.477372"><ele>418.0</ele></trkpt>
      <trkpt lat="43.310450" lon="-1.477085"><ele>422.0</ele></trkpt>
      <trkpt lat="43.311032" lon="-1.475900"><ele>411.0</ele></trkpt>
      <trkpt lat="43.311892" lon="-1.476078"><ele>393.0</ele></trkpt>
      <trkpt lat="43.312678" lon="-1.476090"><ele>375.0</ele></trkpt>
      <trkpt lat="43.313598" lon="-1.475825"><ele>359.0</ele></trkpt>
      <trkpt lat="43.314005" lon="-1.475137"><ele>353.0</ele></trkpt>
      <trkpt lat="43.314222" lon="-1.474458"><ele>341.0</ele></trkpt>
      <trkpt lat="43.314907" lon="-1.473918"><ele>329.0</ele></trkpt>
      <trkpt lat="43.315588" lon="-1.472687"><ele>313.0</ele></trkpt>
      <trkpt lat="43.316123" lon="-1.471895"><ele>303.0</ele></trkpt>
      <trkpt lat="43.316472" lon="-1.470818"><ele>292.0</ele></trkpt>
      <trkpt lat="43.316838" lon="-1.470502"><ele>293.0</ele></trkpt>
      <trkpt lat="43.317152" lon="-1.470470"><ele>293.0</ele></trkpt>
      <trkpt lat="43.317212" lon="-1.470727"><ele>294.0</ele></trkpt>
      <trkpt lat="43.316292" lon="-1.473347"><ele>300.0</ele></trkpt>
      <trkpt lat="43.316078" lon="-1.474303"><ele>301.0</ele></trkpt>
      <trkpt lat="43.315795" lon="-1.475143"><ele>312.0</ele></trkpt>
      <trkpt lat="43.315727" lon="-1.475702"><ele>314.0</ele></trkpt>
      <trkpt lat="43.315505" lon="-1.475973"><ele>319.0</ele></trkpt>
      <trkpt lat="43.315925" lon="-1.476632"><ele>313.0</ele></trkpt>
      <trkpt lat="43.315957" lon="-1.476805"><ele>310.0</ele></trkpt>
      <trkpt lat="43.315765" lon="-1.477722"><ele>306.0</ele></trkpt>
      <trkpt lat="43.315837" lon="-1.478018"><ele>294.0</ele></trkpt>
      <trkpt lat="43.316000" lon="-1.478145"><ele>292.0</ele></trkpt>
      <trkpt lat="43.316423" lon="-1.478027"><ele>289.0</ele></trkpt>
      <trkpt lat="43.317393" lon="-1.478188"><ele>276.0</ele></trkpt>
      <trkpt lat="43.318465" lon="-1.478042"><ele>259.0</ele></trkpt>
      <trkpt lat="43.318678" lon="-1.477927"><ele>258.0</ele></trkpt>
      <trkpt lat="43.319105" lon="-1.477390"><ele>258.0</ele></trkpt>
      <trkpt lat="43.319337" lon="-1.477253"><ele>253.0</ele></trkpt>
      <trkpt lat="43.320642" lon="-1.477130"><ele>244.0</ele></trkpt>
      <trkpt lat="43.322920" lon="-1.475130"><ele>227.0</ele></trkpt>
      <trkpt lat="43.324260" lon="-1.473680"><ele>214.0</ele></trkpt>
      <trkpt lat="43.326502" lon="-1.472230"><ele>192.0</ele></trkpt>
      <trkpt lat="43.327050" lon="-1.470980"><ele>192.0</ele></trkpt>
      <trkpt lat="43.327367" lon="-1.470548"><ele>189.0</ele></trkpt>
      <trkpt lat="43.328107" lon="-1.469843"><ele>185.0</ele></trkpt>
      <trkpt lat="43.328207" lon="-1.469163"><ele>184.0</ele></trkpt>
      <trkpt lat="43.328145" lon="-1.468805"><ele>180.0</ele></trkpt>
      <trkpt lat="43.328040" lon="-1.468718"><ele>178.0</ele></trkpt>
      <trkpt lat="43.328685" lon="-1.468065"><ele>175.0</ele></trkpt>
      <trkpt lat="43.329488" lon="-1.466205"><ele>168.0</ele></trkpt>
      <trkpt lat="43.329513" lon="-1.465595"><ele>173.0</ele></trkpt>
      <trkpt lat="43.329380" lon="-1.465162"><ele>176.0</ele></trkpt>
      <trkpt lat="43.329400" lon="-1.464852"><ele>177.0</ele></trkpt>
      <trkpt lat="43.330217" lon="-1.463950"><ele>168.0</ele></trkpt>
      <trkpt lat="43.330520" lon="-1.463152"><ele>167.0</ele></trkpt>
      <trkpt lat="43.331155" lon="-1.460878"><ele>160.0</ele></trkpt>
      <trkpt lat="43.331813" lon="-1.460143"><ele>145.0</ele></trkpt>
      <trkpt lat="43.332278" lon="-1.459325"><ele>138.0</ele></trkpt>
      <trkpt lat="43.332367" lon="-1.458672"><ele>135.0</ele></trkpt>
      <trkpt lat="43.332302" lon="-1.457928"><ele>129.0</ele></trkpt>
      <trkpt lat="43.332627" lon="-1.456518"><ele>126.0</ele></trkpt>
      <trkpt lat="43.332635" lon="-1.455460"><ele>119.0</ele></trkpt>
      <trkpt lat="43.332970" lon="-1.453823"><ele>108.0</ele></trkpt>
      <trkpt lat="43.333143" lon="-1.453333"><ele>108.0</ele></trkpt>
      <trkpt lat="43.333988" lon="-1.452727"><ele>106.0</ele></trkpt>
      <trkpt lat="43.334777" lon="-1.452365"><ele>103.0</ele></trkpt>
      <trkpt lat="43.335457" lon="-1.452373"><ele>99.0</ele></trkpt>
      <trkpt lat="43.336342" lon="-1.452107"><ele>94.0</ele></trkpt>
      <trkpt lat="43.336703" lon="-1.451902"><ele>88.0</ele></trkpt>
      <trkpt lat="43.337577" lon="-1.451885"><ele>77.0</ele></trkpt>
      <trkpt lat="43.338172" lon="-1.451725"><ele>73.0</ele></trkpt>
      <trkpt lat="43.338410" lon="-1.451788"><ele>70.0</ele></trkpt>
      <trkpt lat="43.338613" lon="-1.451990"><ele>69.0</ele></trkpt>
      <trkpt lat="43.338845" lon="-1.451243"><ele>71.0</ele></trkpt>
      <trkpt lat="43.339208" lon="-1.450848"><ele>68.0</ele></trkpt>
      <trkpt lat="43.339247" lon="-1.450533"><ele>68.0</ele></trkpt>
      <trkpt lat="43.339455" lon="-1.450328"><ele>68.0</ele></trkpt>
      <trkpt lat="43.339872" lon="-1.450478"><ele>67.0</ele></trkpt>
      <trkpt lat="43.339972" lon="-1.450328"><ele>68.0</ele></trkpt>
      <trkpt lat="43.340120" lon="-1.451140"><ele>64.0</ele></trkpt>
      <trkpt lat="43.340255" lon="-1.451230"><ele>64.0</ele></trkpt>
      <trkpt lat="43.340370" lon="-1.451173"><ele>65.0</ele></trkpt>
      <trkpt lat="43.341100" lon="-1.449683"><ele>77.0</ele></trkpt>
      <trkpt lat="43.341137" lon="-1.449335"><ele>77.0</ele></trkpt>
      <trkpt lat="43.341125" lon="-1.449218"><ele>78.0</ele></trkpt>
      <trkpt lat="43.340727" lon="-1.448757"><ele>78.0</ele></trkpt>
      <trkpt lat="43.340653" lon="-1.448353"><ele>79.0</ele></trkpt>
      <trkpt lat="43.340697" lon="-1.448158"><ele>77.0</ele></trkpt>
      <trkpt lat="43.340620" lon="-1.447963"><ele>76.0</ele></trkpt>
      <trkpt lat="43.340072" lon="-1.447133"><ele>74.0</ele></trkpt>
    </trkseg>
  </trk>
</gpx>
