<?xml version="1.0" encoding="UTF-8"?>
<gpx version="1.1" creator="gpx-processor" xmlns="http://www.topografix.com/GPX/1/1">
  <metadata><name>Loudenvielle Trail Running</name></metadata>
  <trk>
    <name>Loudenvielle Trail Running</name>
    <trkseg>
      <trkpt lat="42.745153" lon="0.409298"><ele>1232.6</ele></trkpt>
      <trkpt lat="42.745080" lon="0.409096"><ele>1233.2</ele></trkpt>
      <trkpt lat="42.744972" lon="0.409069"><ele>1234.2</ele></trkpt>
      <trkpt lat="42.744568" lon="0.409177"><ele>1243.6</ele></trkpt>
      <trkpt lat="42.744124" lon="0.409112"><ele>1254.8</ele></trkpt>
      <trkpt lat="42.743819" lon="0.409330"><ele>1261.8</ele></trkpt>
      <trkpt lat="42.743368" lon="0.409356"><ele>1264.4</ele></trkpt>
      <trkpt lat="42.743038" lon="0.409083"><ele>1267.8</ele></trkpt>
      <trkpt lat="42.743027" lon="0.408945"><ele>1269.2</ele></trkpt>
      <trkpt lat="42.743246" lon="0.408551"><ele>1273.6</ele></trkpt>
      <trkpt lat="42.742870" lon="0.408668"><ele>1280.8</ele></trkpt>
      <trkpt lat="42.743131" lon="0.408191"><ele>1283.8</ele></trkpt>
      <trkpt lat="42.742926" lon="0.407743"><ele>1289.4</ele></trkpt>
      <trkpt lat="42.742938" lon="0.407046"><ele>1302.0</ele></trkpt>
      <trkpt lat="42.742728" lon="0.407269"><ele>1308.6</ele></trkpt>
      <trkpt lat="42.742577" lon="0.407258"><ele>1310.8</ele></trkpt>
      <trkpt lat="42.742786" lon="0.406692"><ele>1318.6</ele></trkpt>
      <trkpt lat="42.742273" lon="0.406574"><ele>1333.2</ele></trkpt>
      <trkpt lat="42.742247" lon="0.406477"><ele>1334.4</ele></trkpt>
      <trkpt lat="42.742064" lon="0.406399"><ele>1339.2</ele></trkpt>
      <trkpt lat="42.741957" lon="0.406515"><ele>1341.8</ele></trkpt>
      <trkpt lat="42.741888" lon="0.406355"><ele>1344.2</ele></trkpt>
      <trkpt lat="42.741796" lon="0.406594"><ele>1347.2</ele></trkpt>
      <trkpt lat="42.741408" lon="0.405965"><ele>1356.4</ele></trkpt>
      <trkpt lat="42.741442" lon="0.405598"><ele>1358.4</ele></trkpt>
      <trkpt lat="42.741095" lon="0.404724"><ele>1363.0</ele></trkpt>
      <trkpt lat="42.740832" lon="0.404300"><ele>1367.8</ele></trkpt>
      <trkpt lat="42.741030" lon="0.405329"><ele>1378.0</ele></trkpt>
      <trkpt lat="42.741091" lon="0.406574"><ele>1387.8</ele></trkpt>
      <trkpt lat="42.740582" lon="0.408020"><ele>1397.6</ele></trkpt>
      <trkpt lat="42.740519" lon="0.408676"><ele>1400.0</ele></trkpt>
      <trkpt lat="42.740583" lon="0.409227"><ele>1403.2</ele></trkpt>
      <trkpt lat="42.740823" lon="0.409920"><ele>1409.4</ele></trkpt>
      <trkpt lat="42.740802" lon="0.410513"><ele>1413.2</ele></trkpt>
      <trkpt lat="42.740976" lon="0.410816"><ele>1416.6</ele></trkpt>
      <trkpt lat="42.740908" lon="0.411315"><ele>1421.0</ele></trkpt>
      <trkpt lat="42.740962" lon="0.411638"><ele>1424.2</ele></trkpt>
      <trkpt lat="42.741149" lon="0.411936"><ele>1431.6</ele></trkpt>
      <trkpt lat="42.741187" lon="0.412721"><ele>1446.8</ele></trkpt>
      <trkpt lat="42.741007" lon="0.412950"><ele>1456.2</ele></trkpt>
      <trkpt lat="42.740926" lon="0.412867"><ele>1459.4</ele></trkpt>
      <trkpt lat="42.740908" lon="0.413005"><ele>1464.2</ele></trkpt>
      <trkpt lat="42.740820" lon="0.413004"><ele>1469.4</ele></trkpt>
      <trkpt lat="42.740697" lon="0.413413"><ele>1483.2</ele></trkpt>
      <trkpt lat="42.740497" lon="0.413226"><ele>1489.8</ele></trkpt>
      <trkpt lat="42.740604" lon="0.413241"><ele>1490.0</ele></trkpt>
      <trkpt lat="42.740504" lon="0.413249"><ele>1490.2</ele></trkpt>
      <trkpt lat="42.740584" lon="0.413208"><ele>1490.2</ele></trkpt>
      <trkpt lat="42.740556" lon="0.413127"><ele>1490.8</ele></trkpt>
      <trkpt lat="42.740159" lon="0.414263"><ele>1534.6</ele></trkpt>
      <trkpt lat="42.740101" lon="0.414282"><ele>1537.2</ele></trkpt>
      <trkpt lat="42.739939" lon="0.413306"><ele>1545.4</ele></trkpt>
      <trkpt lat="42.739772" lon="0.414473"><ele>1557.0</ele></trkpt>
      <trkpt lat="42.739629" lon="0.414631"><ele>1559.6</ele></trkpt>
      <trkpt lat="42.739646" lon="0.414174"><ele>1563.0</ele></trkpt>
      <trkpt lat="42.739556" lon="0.414446"><ele>1566.2</ele></trkpt>
      <trkpt lat="42.739497" lon="0.414491"><ele>1567.2</ele></trkpt>
      <trkpt lat="42.739536" lon="0.414245"><ele>1569.6</ele></trkpt>
      <trkpt lat="42.739532" lon="0.414471"><ele>1574.6</ele></trkpt>
      <trkpt lat="42.739344" lon="0.414671"><ele>1577.2</ele></trkpt>
      <trkpt lat="42.739026" lon="0.414742"><ele>1582.4</ele></trkpt>
      <trkpt lat="42.739193" lon="0.414615"><ele>1587.0</ele></trkpt>
      <trkpt lat="42.739049" lon="0.414619"><ele>1590.8</ele></trkpt>
      <trkpt lat="42.739198" lon="0.414547"><ele>1593.4</ele></trkpt>
      <trkpt lat="42.738913" lon="0.414567"><ele>1599.4</ele></trkpt>
      <trkpt lat="42.738695" lon="0.414413"><ele>1604.4</ele></trkpt>
      <trkpt lat="42.738539" lon="0.413911"><ele>1605.0</ele></trkpt>
      <trkpt lat="42.738499" lon="0.413107"><ele>1606.6</ele></trkpt>
      <trkpt lat="42.738308" lon="0.412922"><ele>1608.0</ele></trkpt>
      <trkpt lat="42.738222" lon="0.412652"><ele>1607.4</ele></trkpt>
      <trkpt lat="42.737660" lon="0.412341"><ele>1598.8</ele></trkpt>
      <trkpt lat="42.736946" lon="0.412302"><ele>1596.4</ele></trkpt>
      <trkpt lat="42.736097" lon="0.412657"><ele>1594.4</ele></trkpt>
      <trkpt lat="42.735923" lon="0.413018"><ele>1593.2</ele></trkpt>
      <trkpt lat="42.735740" lon="0.413141"><ele>1593.0</ele></trkpt>
      <trkpt lat="42.735423" lon="0.413125"><ele>1591.6</ele></trkpt>
      <trkpt lat="42.734920" lon="0.413401"><ele>1591.0</ele></trkpt>
      <trkpt lat="42.734651" lon="0.413261"><ele>1589.4</ele></trkpt>
      <trkpt lat="42.734552" lon="0.413462"><ele>1590.4</ele></trkpt>
      <trkpt lat="42.733829" lon="0.413971"><ele>1596.2</ele></trkpt>
      <trkpt lat="42.733441" lon="0.413996"><ele>1602.4</ele></trkpt>
      <trkpt lat="42.732822" lon="0.414231"><ele>1611.0</ele></trkpt>
      <trkpt lat="42.732601" lon="0.414216"><ele>1612.0</ele></trkpt>
      <trkpt lat="42.732514" lon="0.414018"><ele>1611.6</ele></trkpt>
      <trkpt lat="42.731981" lon="0.414107"><ele>1619.2</ele></trkpt>
      <trkpt lat="42.731839" lon="0.414379"><ele>1619.6</ele></trkpt>
      <trkpt lat="42.731334" lon="0.414923"><ele>1624.6</ele></trkpt>
      <trkpt lat="42.731185" lon="0.415273"><ele>1628.4</ele></trkpt>
      <trkpt lat="42.730988" lon="0.415356"><ele>1630.8</ele></trkpt>
      <trkpt lat="42.730715" lon="0.415175"><ele>1633.6</ele></trkpt>
      <trkpt lat="42.730586" lon="0.415583"><ele>1637.4</ele></trkpt>
      <trkpt lat="42.730117" lon="0.415794"><ele>1641.4</ele></trkpt>
      <trkpt lat="42.729376" lon="0.415747"><ele>1641.4</ele></trkpt>
      <trkpt lat="42.728527" lon="0.415440"><ele>1658.2</ele></trkpt>
      <trkpt lat="42.728156" lon="0.415196"><ele>1667.4</ele></trkpt>
      <trkpt lat="42.727353" lon="0.415647"><ele>1670.8</ele></trkpt>
      <trkpt lat="42.727074" lon="0.415399"><ele>1661.8</ele></trkpt>
      <trkpt lat="42.726623" lon="0.416358"><ele>1647.8</ele></trkpt>
      <trkpt lat="42.726334" lon="0.416244"><ele>1644.0</ele></trkpt>
      <trkpt lat="42.726357" lon="0.416483"><ele>1645.8</ele></trkpt>
      <trkpt lat="42.726214" lon="0.416576"><ele>1648.4</ele></trkpt>
      <trkpt lat="42.725921" lon="0.416551"><ele>1653.0</ele></trkpt>
      <trkpt lat="42.725723" lon="0.416671"><ele>1655.6</ele></trkpt>
      <trkpt lat="42.725429" lon="0.416540"><ele>1657.6</ele></trkpt>
      <trkpt lat="42.725037" lon="0.416888"><ele>1661.8</ele></trkpt>
      <trkpt lat="42.724736" lon="0.416919"><ele>1663.8</ele></trkpt>
      <trkpt lat="42.724193" lon="0.417685"><ele>1672.4</ele></trkpt>
      <trkpt lat="42.724103" lon="0.417968"><ele>1673.8</ele></trkpt>
      <trkpt lat="42.723903" lon="0.418149"><ele>1676.0</ele></trkpt>
      <trkpt lat="42.723781" lon="0.418492"><ele>1679.2</ele></trkpt>
      <trkpt lat="42.723441" lon="0.418586"><ele>1682.4</ele></trkpt>
      <trkpt lat="42.723407" lon="0.419087"><ele>1689.2</ele></trkpt>
      <trkpt lat="42.723289" lon="0.419101"><ele>1693.4</ele></trkpt>
      <trkpt lat="42.722939" lon="0.419661"><ele>1702.4</ele></trkpt>
      <trkpt lat="42.722902" lon="0.419807"><ele>1706.2</ele></trkpt>
      <trkpt lat="42.722996" lon="0.420183"><ele>1710.2</ele></trkpt>
      <trkpt lat="42.722812" lon="0.420496"><ele>1716.0</ele></trkpt>
      <trkpt lat="42.722979" lon="0.420932"><ele>1722.8</ele></trkpt>
      <trkpt lat="42.723006" lon="0.421304"><ele>1726.2</ele></trkpt>
      <trkpt lat="42.723139" lon="0.421722"><ele>1732.8</ele></trkpt>
      <trkpt lat="42.723296" lon="0.421765"><ele>1736.8</ele></trkpt>
      <trkpt lat="42.723587" lon="0.421555"><ele>1740.8</ele></trkpt>
      <trkpt lat="42.723633" lon="0.421599"><ele>1742.6</ele></trkpt>
      <trkpt lat="42.723591" lon="0.421865"><ele>1746.2</ele></trkpt>
      <trkpt lat="42.723411" lon="0.421970"><ele>1748.4</ele></trkpt>
      <trkpt lat="42.723555" lon="0.422379"><ele>1753.2</ele></trkpt>
      <trkpt lat="42.723678" lon="0.422478"><ele>1756.0</ele></trkpt>
      <trkpt lat="42.723841" lon="0.423037"><ele>1764.8</ele></trkpt>
      <trkpt lat="42.723660" lon="0.423771"><ele>1770.2</ele></trkpt>
      <trkpt lat="42.723434" lon="0.423991"><ele>1772.6</ele></trkpt>
      <trkpt lat="42.723823" lon="0.424228"><ele>1779.4</ele></trkpt>
      <trkpt lat="42.724242" lon="0.424855"><ele>1792.0</ele></trkpt>
      <trkpt lat="42.724436" lon="0.424722"><ele>1796.2</ele></trkpt>
      <trkpt lat="42.724460" lon="0.425129"><ele>1807.0</ele></trkpt>
      <trkpt lat="42.724741" lon="0.424857"><ele>1812.2</ele></trkpt>
      <trkpt lat="42.725052" lon="0.424754"><ele>1815.8</ele></trkpt>
      <trkpt lat="42.725200" lon="0.423766"><ele>1821.6</ele></trkpt>
      <trkpt lat="42.725267" lon="0.424450"><ele>1824.6</ele></trkpt>
      <trkpt lat="42.725229" lon="0.424884"><ele>1827.0</ele></trkpt>
      <trkpt lat="42.724879" lon="0.425270"><ele>1829.8</ele></trkpt>
      <trkpt lat="42.724269" lon="0.426846"><ele>1848.4</ele></trkpt>
      <trkpt lat="42.724259" lon="0.426929"><ele>1850.6</ele></trkpt>
      <trkpt lat="42.724559" lon="0.426652"><ele>1856.4</ele></trkpt>
      <trkpt lat="42.724680" lon="0.426663"><ele>1859.0</ele></trkpt>
      <trkpt lat="42.724477" lon="0.427383"><ele>1871.0</ele></trkpt>
      <trkpt lat="42.724337" lon="0.427427"><ele>1873.4</ele></trkpt>
      <trkpt lat="42.724218" lon="0.427642"><ele>1876.4</ele></trkpt>
      <trkpt lat="42.724299" lon="0.428651"><ele>1892.4</ele></trkpt>
      <trkpt lat="42.724139" lon="0.428528"><ele>1894.4</ele></trkpt>
      <trkpt lat="42.724126" lon="0.428838"><ele>1902.2</ele></trkpt>
      <trkpt lat="42.723928" lon="0.428994"><ele>1905.0</ele></trkpt>
      <trkpt lat="42.723919" lon="0.429362"><ele>1909.0</ele></trkpt>
      <trkpt lat="42.723701" lon="0.429534"><ele>1911.0</ele></trkpt>
      <trkpt lat="42.723543" lon="0.429812"><ele>1915.0</ele></trkpt>
      <trkpt lat="42.723502" lon="0.430461"><ele>1923.8</ele></trkpt>
      <trkpt lat="42.723601" lon="0.430455"><ele>1928.4</ele></trkpt>
      <trkpt lat="42.723590" lon="0.430670"><ele>1933.8</ele></trkpt>
      <trkpt lat="42.723665" lon="0.430683"><ele>1936.8</ele></trkpt>
      <trkpt lat="42.723787" lon="0.430096"><ele>1941.2</ele></trkpt>
      <trkpt lat="42.723884" lon="0.430459"><ele>1948.6</ele></trkpt>
      <trkpt lat="42.723757" lon="0.431013"><ele>1952.4</ele></trkpt>
      <trkpt lat="42.723800" lon="0.431158"><ele>1953.2</ele></trkpt>
      <trkpt lat="42.723583" lon="0.431437"><ele>1957.6</ele></trkpt>
      <trkpt lat="42.723544" lon="0.431839"><ele>1962.4</ele></trkpt>
      <trkpt lat="42.723414" lon="0.431915"><ele>1965.0</ele></trkpt>
      <trkpt lat="42.723315" lon="0.432319"><ele>1971.6</ele></trkpt>
      <trkpt lat="42.723426" lon="0.432331"><ele>1975.2</ele></trkpt>
      <trkpt lat="42.723421" lon="0.432433"><ele>1980.4</ele></trkpt>
      <trkpt lat="42.723165" lon="0.432979"><ele>1990.2</ele></trkpt>
      <trkpt lat="42.723272" lon="0.432791"><ele>1992.4</ele></trkpt>
      <trkpt lat="42.723521" lon="0.432702"><ele>1995.0</ele></trkpt>
      <trkpt lat="42.723609" lon="0.432579"><ele>1996.4</ele></trkpt>
      <trkpt lat="42.723435" lon="0.432993"><ele>2002.0</ele></trkpt>
      <trkpt lat="42.723412" lon="0.433247"><ele>2010.6</ele></trkpt>
      <trkpt lat="42.723625" lon="0.433139"><ele>2016.4</ele></trkpt>
      <trkpt lat="42.723434" lon="0.433541"><ele>2022.6</ele></trkpt>
      <trkpt lat="42.723168" lon="0.433703"><ele>2026.8</ele></trkpt>
      <trkpt lat="42.723028" lon="0.433938"><ele>2030.6</ele></trkpt>
      <trkpt lat="42.723022" lon="0.434001"><ele>2032.2</ele></trkpt>
      <trkpt lat="42.723377" lon="0.433860"><ele>2038.4</ele></trkpt>
      <trkpt lat="42.722932" lon="0.434714"><ele>2047.8</ele></trkpt>
      <trkpt lat="42.723522" lon="0.434054"><ele>2052.0</ele></trkpt>
      <trkpt lat="42.723240" lon="0.434611"><ele>2058.0</ele></trkpt>
      <trkpt lat="42.723200" lon="0.435017"><ele>2062.6</ele></trkpt>
      <trkpt lat="42.722997" lon="0.435447"><ele>2068.0</ele></trkpt>
      <trkpt lat="42.722891" lon="0.435491"><ele>2068.8</ele></trkpt>
      <trkpt lat="42.723024" lon="0.435527"><ele>2071.6</ele></trkpt>
      <trkpt lat="42.723208" lon="0.435266"><ele>2075.6</ele></trkpt>
      <trkpt lat="42.723107" lon="0.435759"><ele>2081.0</ele></trkpt>
      <trkpt lat="42.722937" lon="0.435886"><ele>2085.6</ele></trkpt>
      <trkpt lat="42.723064" lon="0.436022"><ele>2089.0</ele></trkpt>
      <trkpt lat="42.723250" lon="0.435766"><ele>2093.8</ele></trkpt>
      <trkpt lat="42.723161" lon="0.436121"><ele>2099.0</ele></trkpt>
      <trkpt lat="42.723013" lon="0.436338"><ele>2102.8</ele></trkpt>
      <trkpt lat="42.722902" lon="0.436349"><ele>2104.8</ele></trkpt>
      <trkpt lat="42.722842" lon="0.436633"><ele>2108.8</ele></trkpt>
      <trkpt lat="42.722955" lon="0.436740"><ele>2111.8</ele></trkpt>
      <trkpt lat="42.723173" lon="0.436556"><ele>2115.6</ele></trkpt>
      <trkpt lat="42.723317" lon="0.436566"><ele>2118.2</ele></trkpt>
      <trkpt lat="42.723140" lon="0.436917"><ele>2120.6</ele></trkpt>
      <trkpt lat="42.722969" lon="0.437072"><ele>2120.8</ele></trkpt>
      <trkpt lat="42.722589" lon="0.437077"><ele>2124.6</ele></trkpt>
      <trkpt lat="42.722732" lon="0.437426"><ele>2133.0</ele></trkpt>
      <trkpt lat="42.722713" lon="0.437675"><ele>2139.0</ele></trkpt>
      <trkpt lat="42.722893" lon="0.438264"><ele>2152.8</ele></trkpt>
      <trkpt lat="42.722728" lon="0.438570"><ele>2157.6</ele></trkpt>
      <trkpt lat="42.722563" lon="0.439945"><ele>2158.4</ele></trkpt>
      <trkpt lat="42.722247" lon="0.440867"><ele>2166.6</ele></trkpt>
      <trkpt lat="42.721803" lon="0.441119"><ele>2172.6</ele></trkpt>
      <trkpt lat="42.721722" lon="0.441269"><ele>2174.4</ele></trkpt>
      <trkpt lat="42.721488" lon="0.441302"><ele>2176.6</ele></trkpt>
      <trkpt lat="42.722053" lon="0.441421"><ele>2184.4</ele></trkpt>
      <trkpt lat="42.722041" lon="0.442124"><ele>2194.0</ele></trkpt>
      <trkpt lat="42.721936" lon="0.442435"><ele>2193.6</ele></trkpt>
      <trkpt lat="42.721617" lon="0.442624"><ele>2189.0</ele></trkpt>
      <trkpt lat="42.721349" lon="0.443000"><ele>2184.8</ele></trkpt>
      <trkpt lat="42.721210" lon="0.443370"><ele>2176.4</ele></trkpt>
      <trkpt lat="42.720560" lon="0.443361"><ele>2154.6</ele></trkpt>
      <trkpt lat="42.721139" lon="0.443382"><ele>2154.8</ele></trkpt>
      <trkpt lat="42.721078" lon="0.443269"><ele>2157.6</ele></trkpt>
      <trkpt lat="42.721199" lon="0.442690"><ele>2151.6</ele></trkpt>
      <trkpt lat="42.721093" lon="0.442703"><ele>2149.0</ele></trkpt>
      <trkpt lat="42.721025" lon="0.442549"><ele>2144.4</ele></trkpt>
      <trkpt lat="42.720803" lon="0.442517"><ele>2140.4</ele></trkpt>
      <trkpt lat="42.720794" lon="0.442343"><ele>2138.4</ele></trkpt>
      <trkpt lat="42.721096" lon="0.442145"><ele>2136.0</ele></trkpt>
      <trkpt lat="42.721353" lon="0.441047"><ele>2139.2</ele></trkpt>
      <trkpt lat="42.721552" lon="0.440568"><ele>2139.0</ele></trkpt>
      <trkpt lat="42.721648" lon="0.440571"><ele>2139.0</ele></trkpt>
      <trkpt lat="42.721745" lon="0.440723"><ele>2139.2</ele></trkpt>
      <trkpt lat="42.722160" lon="0.440626"><ele>2139.4</ele></trkpt>
      <trkpt lat="42.722280" lon="0.440447"><ele>2139.6</ele></trkpt>
      <trkpt lat="42.722597" lon="0.439705"><ele>2140.8</ele></trkpt>
      <trkpt lat="42.722807" lon="0.438252"><ele>2137.6</ele></trkpt>
      <trkpt lat="42.722696" lon="0.437385"><ele>2117.6</ele></trkpt>
      <trkpt lat="42.722545" lon="0.437182"><ele>2111.6</ele></trkpt>
      <trkpt lat="42.722574" lon="0.437035"><ele>2107.0</ele></trkpt>
      <trkpt lat="42.722508" lon="0.437036"><ele>2106.8</ele></trkpt>
      <trkpt lat="42.722586" lon="0.437025"><ele>2106.8</ele></trkpt>
      <trkpt lat="42.722660" lon="0.436774"><ele>2100.6</ele></trkpt>
      <trkpt lat="42.722472" lon="0.436884"><ele>2098.2</ele></trkpt>
      <trkpt lat="42.722533" lon="0.436643"><ele>2093.2</ele></trkpt>
      <trkpt lat="42.722470" lon="0.436270"><ele>2083.0</ele></trkpt>
      <trkpt lat="42.722503" lon="0.435844"><ele>2068.0</ele></trkpt>
      <trkpt lat="42.722599" lon="0.435488"><ele>2062.6</ele></trkpt>
      <trkpt lat="42.722373" lon="0.435417"><ele>2063.6</ele></trkpt>
      <trkpt lat="42.722292" lon="0.434458"><ele>2060.8</ele></trkpt>
      <trkpt lat="42.722193" lon="0.434129"><ele>2059.8</ele></trkpt>
      <trkpt lat="42.722477" lon="0.433189"><ele>2059.0</ele></trkpt>
      <trkpt lat="42.722418" lon="0.432414"><ele>2056.6</ele></trkpt>
      <trkpt lat="42.722484" lon="0.432197"><ele>2056.2</ele></trkpt>
      <trkpt lat="42.722461" lon="0.431266"><ele>2054.2</ele></trkpt>
      <trkpt lat="42.722282" lon="0.429666"><ele>2049.8</ele></trkpt>
      <trkpt lat="42.722025" lon="0.428780"><ele>2047.8</ele></trkpt>
      <trkpt lat="42.721734" lon="0.428463"><ele>2047.6</ele></trkpt>
      <trkpt lat="42.721536" lon="0.428027"><ele>2048.2</ele></trkpt>
      <trkpt lat="42.721137" lon="0.427776"><ele>2056.0</ele></trkpt>
      <trkpt lat="42.720942" lon="0.427036"><ele>2051.8</ele></trkpt>
      <trkpt lat="42.720725" lon="0.426787"><ele>2043.0</ele></trkpt>
      <trkpt lat="42.720741" lon="0.426669"><ele>2041.8</ele></trkpt>
      <trkpt lat="42.720558" lon="0.426575"><ele>2041.2</ele></trkpt>
      <trkpt lat="42.720268" lon="0.426648"><ele>2041.6</ele></trkpt>
      <trkpt lat="42.720069" lon="0.426581"><ele>2045.2</ele></trkpt>
      <trkpt lat="42.719095" lon="0.427177"><ele>2066.0</ele></trkpt>
      <trkpt lat="42.718160" lon="0.427459"><ele>2081.6</ele></trkpt>
      <trkpt lat="42.717922" lon="0.427772"><ele>2088.2</ele></trkpt>
      <trkpt lat="42.717435" lon="0.428728"><ele>2100.4</ele></trkpt>
      <trkpt lat="42.717704" lon="0.428475"><ele>2106.6</ele></trkpt>
      <trkpt lat="42.718263" lon="0.428306"><ele>2115.8</ele></trkpt>
      <trkpt lat="42.717965" lon="0.428697"><ele>2124.4</ele></trkpt>
      <trkpt lat="42.717762" lon="0.429247"><ele>2131.6</ele></trkpt>
      <trkpt lat="42.717311" lon="0.429992"><ele>2141.0</ele></trkpt>
      <trkpt lat="42.717007" lon="0.431088"><ele>2151.0</ele></trkpt>
      <trkpt lat="42.716829" lon="0.431287"><ele>2149.6</ele></trkpt>
      <trkpt lat="42.716693" lon="0.431836"><ele>2145.4</ele></trkpt>
      <trkpt lat="42.715860" lon="0.433151"><ele>2143.0</ele></trkpt>
      <trkpt lat="42.715215" lon="0.433946"><ele>2154.4</ele></trkpt>
      <trkpt lat="42.715026" lon="0.434590"><ele>2163.2</ele></trkpt>
      <trkpt lat="42.714168" lon="0.435581"><ele>2170.8</ele></trkpt>
      <trkpt lat="42.713688" lon="0.435779"><ele>2163.6</ele></trkpt>
      <trkpt lat="42.713787" lon="0.436155"><ele>2161.8</ele></trkpt>
      <trkpt lat="42.713949" lon="0.436351"><ele>2160.4</ele></trkpt>
      <trkpt lat="42.713922" lon="0.436864"><ele>2159.8</ele></trkpt>
      <trkpt lat="42.713854" lon="0.436914"><ele>2160.6</ele></trkpt>
      <trkpt lat="42.713721" lon="0.436805"><ele>2162.2</ele></trkpt>
      <trkpt lat="42.713416" lon="0.437924"><ele>2155.6</ele></trkpt>
      <trkpt lat="42.713059" lon="0.438116"><ele>2155.6</ele></trkpt>
      <trkpt lat="42.712711" lon="0.438463"><ele>2150.8</ele></trkpt>
      <trkpt lat="42.712591" lon="0.438705"><ele>2147.6</ele></trkpt>
      <trkpt lat="42.712149" lon="0.438887"><ele>2139.4</ele></trkpt>
      <trkpt lat="42.712152" lon="0.439188"><ele>2137.0</ele></trkpt>
      <trkpt lat="42.712014" lon="0.439253"><ele>2135.4</ele></trkpt>
      <trkpt lat="42.711702" lon="0.439722"><ele>2126.4</ele></trkpt>
      <trkpt lat="42.711648" lon="0.440335"><ele>2122.8</ele></trkpt>
      <trkpt lat="42.711351" lon="0.440557"><ele>2119.4</ele></trkpt>
      <trkpt lat="42.711052" lon="0.441027"><ele>2111.2</ele></trkpt>
      <trkpt lat="42.710448" lon="0.441606"><ele>2097.2</ele></trkpt>
      <trkpt lat="42.710025" lon="0.441578"><ele>2091.4</ele></trkpt>
      <trkpt lat="42.709637" lon="0.441737"><ele>2089.8</ele></trkpt>
      <trkpt lat="42.709099" lon="0.441760"><ele>2085.6</ele></trkpt>
      <trkpt lat="42.708582" lon="0.442172"><ele>2087.0</ele></trkpt>
      <trkpt lat="42.708239" lon="0.442319"><ele>2092.4</ele></trkpt>
      <trkpt lat="42.707626" lon="0.442908"><ele>2103.0</ele></trkpt>
      <trkpt lat="42.707146" lon="0.443090"><ele>2104.0</ele></trkpt>
      <trkpt lat="42.706971" lon="0.443250"><ele>2103.0</ele></trkpt>
      <trkpt lat="42.706620" lon="0.443312"><ele>2097.8</ele></trkpt>
      <trkpt lat="42.706546" lon="0.443444"><ele>2097.0</ele></trkpt>
      <trkpt lat="42.706395" lon="0.443392"><ele>2097.0</ele></trkpt>
      <trkpt lat="42.706283" lon="0.443050"><ele>2101.6</ele></trkpt>
      <trkpt lat="42.706225" lon="0.443167"><ele>2104.4</ele></trkpt>
      <trkpt lat="42.706188" lon="0.443119"><ele>2105.8</ele></trkpt>
      <trkpt lat="42.706165" lon="0.442790"><ele>2111.4</ele></trkpt>
      <trkpt lat="42.706168" lon="0.443113"><ele>2105.6</ele></trkpt>
      <trkpt lat="42.706231" lon="0.443148"><ele>2104.0</ele></trkpt>
      <trkpt lat="42.706293" lon="0.443038"><ele>2101.2</ele></trkpt>
      <trkpt lat="42.706436" lon="0.443469"><ele>2096.4</ele></trkpt>
      <trkpt lat="42.706314" lon="0.444371"><ele>2112.0</ele></trkpt>
      <trkpt lat="42.706352" lon="0.444653"><ele>2114.8</ele></trkpt>
      <trkpt lat="42.706394" lon="0.444692"><ele>2115.8</ele></trkpt>
      <trkpt lat="42.706297" lon="0.444481"><ele>2114.0</ele></trkpt>
      <trkpt lat="42.706334" lon="0.444083"><ele>2110.0</ele></trkpt>
      <trkpt lat="42.706555" lon="0.443516"><ele>2100.6</ele></trkpt>
      <trkpt lat="42.706587" lon="0.443135"><ele>2098.8</ele></trkpt>
      <trkpt lat="42.706718" lon="0.442873"><ele>2097.2</ele></trkpt>
      <trkpt lat="42.706902" lon="0.442821"><ele>2090.8</ele></trkpt>
      <trkpt lat="42.707074" lon="0.442557"><ele>2079.6</ele></trkpt>
      <trkpt lat="42.706984" lon="0.442289"><ele>2071.4</ele></trkpt>
      <trkpt lat="42.707099" lon="0.442251"><ele>2066.2</ele></trkpt>
      <trkpt lat="42.707082" lon="0.442150"><ele>2060.4</ele></trkpt>
      <trkpt lat="42.707313" lon="0.441900"><ele>2046.8</ele></trkpt>
      <trkpt lat="42.707333" lon="0.441745"><ele>2040.0</ele></trkpt>
      <trkpt lat="42.707231" lon="0.441673"><ele>2033.6</ele></trkpt>
      <trkpt lat="42.707338" lon="0.441199"><ele>2019.6</ele></trkpt>
      <trkpt lat="42.707576" lon="0.440971"><ele>2012.4</ele></trkpt>
      <trkpt lat="42.707673" lon="0.441001"><ele>2007.8</ele></trkpt>
      <trkpt lat="42.707706" lon="0.440869"><ele>2001.4</ele></trkpt>
      <trkpt lat="42.707619" lon="0.440801"><ele>1997.4</ele></trkpt>
      <trkpt lat="42.707799" lon="0.440507"><ele>1983.6</ele></trkpt>
      <trkpt lat="42.707729" lon="0.440424"><ele>1978.0</ele></trkpt>
      <trkpt lat="42.707744" lon="0.440261"><ele>1974.0</ele></trkpt>
      <trkpt lat="42.707878" lon="0.440199"><ele>1965.6</ele></trkpt>
      <trkpt lat="42.707787" lon="0.440080"><ele>1959.2</ele></trkpt>
      <trkpt lat="42.707801" lon="0.439850"><ele>1951.8</ele></trkpt>
      <trkpt lat="42.707987" lon="0.439479"><ele>1945.6</ele></trkpt>
      <trkpt lat="42.708170" lon="0.439385"><ele>1944.0</ele></trkpt>
      <trkpt lat="42.708339" lon="0.438993"><ele>1942.0</ele></trkpt>
      <trkpt lat="42.708516" lon="0.438140"><ele>1933.6</ele></trkpt>
      <trkpt lat="42.709473" lon="0.437454"><ele>1933.2</ele></trkpt>
      <trkpt lat="42.709565" lon="0.437075"><ele>1929.2</ele></trkpt>
      <trkpt lat="42.710380" lon="0.435908"><ele>1932.6</ele></trkpt>
      <trkpt lat="42.710667" lon="0.435061"><ele>1919.8</ele></trkpt>
      <trkpt lat="42.710887" lon="0.434607"><ele>1918.4</ele></trkpt>
      <trkpt lat="42.711048" lon="0.434453"><ele>1918.0</ele></trkpt>
      <trkpt lat="42.711345" lon="0.433631"><ele>1917.6</ele></trkpt>
      <trkpt lat="42.711801" lon="0.433174"><ele>1917.4</ele></trkpt>
      <trkpt lat="42.712174" lon="0.433022"><ele>1918.2</ele></trkpt>
      <trkpt lat="42.712202" lon="0.432784"><ele>1920.2</ele></trkpt>
      <trkpt lat="42.712552" lon="0.432433"><ele>1929.2</ele></trkpt>
      <trkpt lat="42.712900" lon="0.431454"><ele>1922.8</ele></trkpt>
      <trkpt lat="42.713566" lon="0.430359"><ele>1910.4</ele></trkpt>
      <trkpt lat="42.713929" lon="0.429435"><ele>1911.4</ele></trkpt>
      <trkpt lat="42.714206" lon="0.429180"><ele>1907.2</ele></trkpt>
      <trkpt lat="42.714616" lon="0.428445"><ele>1903.8</ele></trkpt>
      <trkpt lat="42.715273" lon="0.427988"><ele>1902.2</ele></trkpt>
      <trkpt lat="42.715577" lon="0.427057"><ele>1905.2</ele></trkpt>
      <trkpt lat="42.715731" lon="0.426995"><ele>1908.4</ele></trkpt>
      <trkpt lat="42.715765" lon="0.426748"><ele>1902.8</ele></trkpt>
      <trkpt lat="42.716040" lon="0.426428"><ele>1894.8</ele></trkpt>
      <trkpt lat="42.716159" lon="0.425838"><ele>1878.4</ele></trkpt>
      <trkpt lat="42.716248" lon="0.425712"><ele>1872.6</ele></trkpt>
      <trkpt lat="42.716147" lon="0.425505"><ele>1865.4</ele></trkpt>
      <trkpt lat="42.716371" lon="0.425044"><ele>1849.6</ele></trkpt>
      <trkpt lat="42.716325" lon="0.424993"><ele>1847.6</ele></trkpt>
      <trkpt lat="42.716464" lon="0.424923"><ele>1844.4</ele></trkpt>
      <trkpt lat="42.716480" lon="0.424205"><ele>1826.8</ele></trkpt>
      <trkpt lat="42.716676" lon="0.423611"><ele>1822.0</ele></trkpt>
      <trkpt lat="42.717202" lon="0.422786"><ele>1820.0</ele></trkpt>
      <trkpt lat="42.717809" lon="0.421187"><ele>1817.4</ele></trkpt>
      <trkpt lat="42.717918" lon="0.421027"><ele>1817.2</ele></trkpt>
      <trkpt lat="42.718233" lon="0.421006"><ele>1820.4</ele></trkpt>
      <trkpt lat="42.718542" lon="0.420599"><ele>1826.0</ele></trkpt>
      <trkpt lat="42.718791" lon="0.420615"><ele>1830.6</ele></trkpt>
      <trkpt lat="42.719121" lon="0.420395"><ele>1828.8</ele></trkpt>
      <trkpt lat="42.719388" lon="0.420935"><ele>1813.0</ele></trkpt>
      <trkpt lat="42.719546" lon="0.421094"><ele>1809.2</ele></trkpt>
      <trkpt lat="42.719643" lon="0.420985"><ele>1805.2</ele></trkpt>
      <trkpt lat="42.719669" lon="0.421302"><ele>1798.4</ele></trkpt>
      <trkpt lat="42.719739" lon="0.421002"><ele>1788.4</ele></trkpt>
      <trkpt lat="42.719858" lon="0.420931"><ele>1783.2</ele></trkpt>
      <trkpt lat="42.720042" lon="0.421265"><ele>1775.0</ele></trkpt>
      <trkpt lat="42.720290" lon="0.421447"><ele>1764.8</ele></trkpt>
      <trkpt lat="42.720418" lon="0.421745"><ele>1757.6</ele></trkpt>
      <trkpt lat="42.720627" lon="0.421752"><ele>1753.4</ele></trkpt>
      <trkpt lat="42.720686" lon="0.421888"><ele>1751.0</ele></trkpt>
      <trkpt lat="42.721063" lon="0.422004"><ele>1741.8</ele></trkpt>
      <trkpt lat="42.721584" lon="0.420977"><ele>1718.2</ele></trkpt>
      <trkpt lat="42.721701" lon="0.420893"><ele>1712.8</ele></trkpt>
      <trkpt lat="42.721890" lon="0.420141"><ele>1697.0</ele></trkpt>
      <trkpt lat="42.721759" lon="0.420031"><ele>1696.6</ele></trkpt>
      <trkpt lat="42.721787" lon="0.419687"><ele>1698.6</ele></trkpt>
      <trkpt lat="42.721639" lon="0.419358"><ele>1701.0</ele></trkpt>
      <trkpt lat="42.721731" lon="0.419059"><ele>1701.6</ele></trkpt>
      <trkpt lat="42.721659" lon="0.418422"><ele>1703.0</ele></trkpt>
      <trkpt lat="42.721714" lon="0.418455"><ele>1703.8</ele></trkpt>
      <trkpt lat="42.721812" lon="0.418304"><ele>1705.6</ele></trkpt>
      <trkpt lat="42.722499" lon="0.416580"><ele>1694.4</ele></trkpt>
      <trkpt lat="42.722670" lon="0.416509"><ele>1693.0</ele></trkpt>
      <trkpt lat="42.722751" lon="0.416381"><ele>1690.4</ele></trkpt>
      <trkpt lat="42.722714" lon="0.416276"><ele>1688.6</ele></trkpt>
      <trkpt lat="42.722810" lon="0.416172"><ele>1686.0</ele></trkpt>
      <trkpt lat="42.723131" lon="0.416101"><ele>1673.0</ele></trkpt>
      <trkpt lat="42.723431" lon="0.415641"><ele>1671.6</ele></trkpt>
      <trkpt lat="42.723669" lon="0.415591"><ele>1671.6</ele></trkpt>
      <trkpt lat="42.724043" lon="0.414983"><ele>1672.4</ele></trkpt>
      <trkpt lat="42.724251" lon="0.414909"><ele>1672.4</ele></trkpt>
      <trkpt lat="42.724601" lon="0.414575"><ele>1673.8</ele></trkpt>
      <trkpt lat="42.724797" lon="0.414781"><ele>1674.2</ele></trkpt>
      <trkpt lat="42.725238" lon="0.415005"><ele>1675.6</ele></trkpt>
      <trkpt lat="42.725692" lon="0.414717"><ele>1684.2</ele></trkpt>
      <trkpt lat="42.725769" lon="0.414555"><ele>1687.8</ele></trkpt>
      <trkpt lat="42.726522" lon="0.414544"><ele>1687.0</ele></trkpt>
      <trkpt lat="42.727171" lon="0.414073"><ele>1687.2</ele></trkpt>
      <trkpt lat="42.727669" lon="0.414436"><ele>1688.8</ele></trkpt>
      <trkpt lat="42.727773" lon="0.414406"><ele>1689.2</ele></trkpt>
      <trkpt lat="42.727821" lon="0.414574"><ele>1684.2</ele></trkpt>
      <trkpt lat="42.727933" lon="0.414576"><ele>1690.0</ele></trkpt>
      <trkpt lat="42.727944" lon="0.414459"><ele>1693.4</ele></trkpt>
      <trkpt lat="42.728173" lon="0.414780"><ele>1699.2</ele></trkpt>
      <trkpt lat="42.728276" lon="0.414634"><ele>1705.6</ele></trkpt>
      <trkpt lat="42.728533" lon="0.414571"><ele>1711.2</ele></trkpt>
      <trkpt lat="42.728733" lon="0.414712"><ele>1715.4</ele></trkpt>
      <trkpt lat="42.728885" lon="0.414686"><ele>1722.8</ele></trkpt>
      <trkpt lat="42.728925" lon="0.414810"><ele>1726.2</ele></trkpt>
      <trkpt lat="42.728970" lon="0.414692"><ele>1731.2</ele></trkpt>
      <trkpt lat="42.729344" lon="0.414876"><ele>1735.4</ele></trkpt>
      <trkpt lat="42.729808" lon="0.414711"><ele>1737.8</ele></trkpt>
      <trkpt lat="42.730036" lon="0.414446"><ele>1735.8</ele></trkpt>
      <trkpt lat="42.729925" lon="0.414412"><ele>1736.8</ele></trkpt>
      <trkpt lat="42.730554" lon="0.414133"><ele>1735.0</ele></trkpt>
      <trkpt lat="42.730624" lon="0.413898"><ele>1738.8</ele></trkpt>
      <trkpt lat="42.730789" lon="0.413996"><ele>1743.4</ele></trkpt>
      <trkpt lat="42.730947" lon="0.413968"><ele>1748.4</ele></trkpt>
      <trkpt lat="42.731452" lon="0.413284"><ele>1751.2</ele></trkpt>
      <trkpt lat="42.733001" lon="0.412071"><ele>1737.8</ele></trkpt>
      <trkpt lat="42.733500" lon="0.411991"><ele>1741.4</ele></trkpt>
      <trkpt lat="42.733801" lon="0.411708"><ele>1741.8</ele></trkpt>
      <trkpt lat="42.734047" lon="0.411787"><ele>1743.6</ele></trkpt>
      <trkpt lat="42.734608" lon="0.411653"><ele>1750.6</ele></trkpt>
      <trkpt lat="42.734888" lon="0.411449"><ele>1752.8</ele></trkpt>
      <trkpt lat="42.735195" lon="0.411576"><ele>1753.6</ele></trkpt>
      <trkpt lat="42.735409" lon="0.411481"><ele>1751.4</ele></trkpt>
      <trkpt lat="42.736033" lon="0.411457"><ele>1743.0</ele></trkpt>
      <trkpt lat="42.737228" lon="0.410523"><ele>1739.2</ele></trkpt>
      <trkpt lat="42.737676" lon="0.410386"><ele>1731.6</ele></trkpt>
      <trkpt lat="42.738318" lon="0.410719"><ele>1708.6</ele></trkpt>
      <trkpt lat="42.738263" lon="0.410732"><ele>1708.2</ele></trkpt>
      <trkpt lat="42.738250" lon="0.410927"><ele>1704.0</ele></trkpt>
      <trkpt lat="42.738343" lon="0.410908"><ele>1701.4</ele></trkpt>
      <trkpt lat="42.738381" lon="0.411035"><ele>1699.0</ele></trkpt>
      <trkpt lat="42.738228" lon="0.411167"><ele>1697.8</ele></trkpt>
      <trkpt lat="42.738308" lon="0.411174"><ele>1695.4</ele></trkpt>
      <trkpt lat="42.738243" lon="0.411192"><ele>1695.4</ele></trkpt>
      <trkpt lat="42.738305" lon="0.411423"><ele>1695.6</ele></trkpt>
      <trkpt lat="42.738358" lon="0.411508"><ele>1693.2</ele></trkpt>
      <trkpt lat="42.738411" lon="0.411352"><ele>1687.4</ele></trkpt>
      <trkpt lat="42.738543" lon="0.411413"><ele>1678.6</ele></trkpt>
      <trkpt lat="42.738529" lon="0.411612"><ele>1672.0</ele></trkpt>
      <trkpt lat="42.738603" lon="0.411515"><ele>1667.6</ele></trkpt>
      <trkpt lat="42.738579" lon="0.411697"><ele>1663.6</ele></trkpt>
      <trkpt lat="42.738894" lon="0.412553"><ele>1645.0</ele></trkpt>
      <trkpt lat="42.739050" lon="0.413684"><ele>1627.6</ele></trkpt>
      <trkpt lat="42.738971" lon="0.413690"><ele>1623.6</ele></trkpt>
      <trkpt lat="42.739017" lon="0.413970"><ele>1611.8</ele></trkpt>
      <trkpt lat="42.738916" lon="0.414010"><ele>1610.4</ele></trkpt>
      <trkpt lat="42.738576" lon="0.413594"><ele>1591.8</ele></trkpt>
      <trkpt lat="42.738587" lon="0.413949"><ele>1589.2</ele></trkpt>
      <trkpt lat="42.738753" lon="0.414374"><ele>1588.2</ele></trkpt>
      <trkpt lat="42.738867" lon="0.414524"><ele>1586.6</ele></trkpt>
      <trkpt lat="42.739218" lon="0.414503"><ele>1578.4</ele></trkpt>
      <trkpt lat="42.739064" lon="0.414600"><ele>1575.2</ele></trkpt>
      <trkpt lat="42.739217" lon="0.414619"><ele>1572.4</ele></trkpt>
      <trkpt lat="42.739062" lon="0.414713"><ele>1567.2</ele></trkpt>
      <trkpt lat="42.739219" lon="0.414722"><ele>1563.2</ele></trkpt>
      <trkpt lat="42.739468" lon="0.414472"><ele>1557.6</ele></trkpt>
      <trkpt lat="42.739523" lon="0.414227"><ele>1553.0</ele></trkpt>
      <trkpt lat="42.739529" lon="0.414476"><ele>1550.6</ele></trkpt>
      <trkpt lat="42.739618" lon="0.414145"><ele>1547.0</ele></trkpt>
      <trkpt lat="42.739605" lon="0.414572"><ele>1544.2</ele></trkpt>
      <trkpt lat="42.739770" lon="0.414187"><ele>1538.4</ele></trkpt>
      <trkpt lat="42.739842" lon="0.413322"><ele>1532.0</ele></trkpt>
      <trkpt lat="42.739900" lon="0.413348"><ele>1531.0</ele></trkpt>
      <trkpt lat="42.740059" lon="0.414195"><ele>1524.6</ele></trkpt>
      <trkpt lat="42.739980" lon="0.413741"><ele>1521.4</ele></trkpt>
      <trkpt lat="42.740060" lon="0.413137"><ele>1517.0</ele></trkpt>
      <trkpt lat="42.740166" lon="0.413210"><ele>1512.6</ele></trkpt>
      <trkpt lat="42.740202" lon="0.413384"><ele>1509.6</ele></trkpt>
      <trkpt lat="42.740232" lon="0.413167"><ele>1506.4</ele></trkpt>
      <trkpt lat="42.740158" lon="0.412804"><ele>1503.6</ele></trkpt>
      <trkpt lat="42.739955" lon="0.412420"><ele>1498.0</ele></trkpt>
      <trkpt lat="42.739923" lon="0.412178"><ele>1495.6</ele></trkpt>
      <trkpt lat="42.740058" lon="0.412396"><ele>1493.8</ele></trkpt>
      <trkpt lat="42.739852" lon="0.411677"><ele>1488.2</ele></trkpt>
      <trkpt lat="42.740400" lon="0.412682"><ele>1486.0</ele></trkpt>
      <trkpt lat="42.740605" lon="0.413397"><ele>1482.2</ele></trkpt>
      <trkpt lat="42.740756" lon="0.412941"><ele>1465.8</ele></trkpt>
      <trkpt lat="42.740837" lon="0.412952"><ele>1462.6</ele></trkpt>
      <trkpt lat="42.740868" lon="0.412808"><ele>1458.4</ele></trkpt>
      <trkpt lat="42.741019" lon="0.412829"><ele>1452.0</ele></trkpt>
      <trkpt lat="42.741138" lon="0.412587"><ele>1444.2</ele></trkpt>
      <trkpt lat="42.741102" lon="0.412033"><ele>1432.4</ele></trkpt>
      <trkpt lat="42.740870" lon="0.411501"><ele>1424.0</ele></trkpt>
      <trkpt lat="42.740928" lon="0.410848"><ele>1419.2</ele></trkpt>
      <trkpt lat="42.740772" lon="0.410399"><ele>1415.0</ele></trkpt>
      <trkpt lat="42.740775" lon="0.409896"><ele>1412.4</ele></trkpt>
      <trkpt lat="42.740499" lon="0.409240"><ele>1406.4</ele></trkpt>
      <trkpt lat="42.740458" lon="0.408852"><ele>1404.4</ele></trkpt>
      <trkpt lat="42.740606" lon="0.407720"><ele>1400.2</ele></trkpt>
      <trkpt lat="42.741025" lon="0.406437"><ele>1390.6</ele></trkpt>
      <trkpt lat="42.741009" lon="0.405501"><ele>1383.8</ele></trkpt>
      <trkpt lat="42.740765" lon="0.404285"><ele>1373.4</ele></trkpt>
      <trkpt lat="42.741049" lon="0.404620"><ele>1369.0</ele></trkpt>
      <trkpt lat="42.741383" lon="0.405509"><ele>1364.6</ele></trkpt>
      <trkpt lat="42.741413" lon="0.405882"><ele>1362.8</ele></trkpt>
      <trkpt lat="42.741712" lon="0.406577"><ele>1354.6</ele></trkpt>
      <trkpt lat="42.741831" lon="0.406308"><ele>1350.6</ele></trkpt>
      <trkpt lat="42.742674" lon="0.406661"><ele>1326.4</ele></trkpt>
      <trkpt lat="42.742864" lon="0.406627"><ele>1322.4</ele></trkpt>
      <trkpt lat="42.742819" lon="0.407075"><ele>1312.6</ele></trkpt>
      <trkpt lat="42.742924" lon="0.407051"><ele>1308.6</ele></trkpt>
      <trkpt lat="42.742953" lon="0.407755"><ele>1296.2</ele></trkpt>
      <trkpt lat="42.743144" lon="0.408172"><ele>1290.4</ele></trkpt>
      <trkpt lat="42.742847" lon="0.408652"><ele>1285.8</ele></trkpt>
      <trkpt lat="42.743230" lon="0.408572"><ele>1279.0</ele></trkpt>
      <trkpt lat="42.743034" lon="0.408918"><ele>1273.8</ele></trkpt>
      <trkpt lat="42.743064" lon="0.409116"><ele>1271.0</ele></trkpt>
      <trkpt lat="42.743419" lon="0.409374"><ele>1267.4</ele></trkpt>
      <trkpt lat="42.743487" lon="0.409296"><ele>1266.8</ele></trkpt>
      <trkpt lat="42.743751" lon="0.409309"><ele>1265.8</ele></trkpt>
      <trkpt lat="42.744100" lon="0.409087"><ele>1258.2</ele></trkpt>
      <trkpt lat="42.745034" lon="0.409085"><ele>1240.8</ele></trkpt>
      <trkpt lat="42.745352" lon="0.409575"><ele>1236.2</ele></trkpt>
    </trkseg>
  </trk>
</gpx>
