<?xml version="1.0" encoding="UTF-8"?>
<gpx version="1.1" creator="gpx-processor" xmlns="http://www.topografix.com/GPX/1/1">
  <metadata><name>Vesuvio Running &amp;#x1f30b;&amp;#x1f3c3;</name></metadata>
  <trk>
    <name>Vesuvio Running &amp;#x1f30b;&amp;#x1f3c3;</name>
    <trkseg>
      <trkpt lat="40.814193" lon="14.339361"><ele>31.2</ele></trkpt>
      <trkpt lat="40.814117" lon="14.339348"><ele>31.6</ele></trkpt>
      <trkpt lat="40.813896" lon="14.339580"><ele>32.2</ele></trkpt>
      <trkpt lat="40.814101" lon="14.339921"><ele>35.6</ele></trkpt>
      <trkpt lat="40.814138" lon="14.340224"><ele>37.2</ele></trkpt>
      <trkpt lat="40.814370" lon="14.340453"><ele>38.8</ele></trkpt>
      <trkpt lat="40.814415" lon="14.341039"><ele>42.2</ele></trkpt>
      <trkpt lat="40.814321" lon="14.341682"><ele>44.8</ele></trkpt>
      <trkpt lat="40.814387" lon="14.342041"><ele>46.2</ele></trkpt>
      <trkpt lat="40.814964" lon="14.344003"><ele>56.4</ele></trkpt>
      <trkpt lat="40.815881" lon="14.345721"><ele>68.4</ele></trkpt>
      <trkpt lat="40.815930" lon="14.345983"><ele>69.8</ele></trkpt>
      <trkpt lat="40.815859" lon="14.346537"><ele>71.8</ele></trkpt>
      <trkpt lat="40.815968" lon="14.347158"><ele>73.4</ele></trkpt>
      <trkpt lat="40.816679" lon="14.348792"><ele>78.6</ele></trkpt>
      <trkpt lat="40.816906" lon="14.350340"><ele>87.2</ele></trkpt>
      <trkpt lat="40.817166" lon="14.350898"><ele>90.8</ele></trkpt>
      <trkpt lat="40.817074" lon="14.351173"><ele>91.4</ele></trkpt>
      <trkpt lat="40.816639" lon="14.351475"><ele>93.2</ele></trkpt>
      <trkpt lat="40.815889" lon="14.351535"><ele>95.0</ele></trkpt>
      <trkpt lat="40.815647" lon="14.351637"><ele>95.0</ele></trkpt>
      <trkpt lat="40.814554" lon="14.352690"><ele>96.8</ele></trkpt>
      <trkpt lat="40.814485" lon="14.353335"><ele>98.6</ele></trkpt>
      <trkpt lat="40.813410" lon="14.353603"><ele>93.2</ele></trkpt>
      <trkpt lat="40.812783" lon="14.354136"><ele>92.8</ele></trkpt>
      <trkpt lat="40.812741" lon="14.354263"><ele>92.8</ele></trkpt>
      <trkpt lat="40.813237" lon="14.355000"><ele>99.2</ele></trkpt>
      <trkpt lat="40.813372" lon="14.355843"><ele>105.2</ele></trkpt>
      <trkpt lat="40.813489" lon="14.356119"><ele>106.8</ele></trkpt>
      <trkpt lat="40.813410" lon="14.357060"><ele>112.6</ele></trkpt>
      <trkpt lat="40.813452" lon="14.357589"><ele>117.2</ele></trkpt>
      <trkpt lat="40.814240" lon="14.359286"><ele>129.0</ele></trkpt>
      <trkpt lat="40.814396" lon="14.360330"><ele>135.2</ele></trkpt>
      <trkpt lat="40.815328" lon="14.362403"><ele>149.6</ele></trkpt>
      <trkpt lat="40.816013" lon="14.365844"><ele>176.0</ele></trkpt>
      <trkpt lat="40.816126" lon="14.365987"><ele>177.8</ele></trkpt>
      <trkpt lat="40.816242" lon="14.366632"><ele>184.4</ele></trkpt>
      <trkpt lat="40.816072" lon="14.367519"><ele>190.6</ele></trkpt>
      <trkpt lat="40.816327" lon="14.368644"><ele>199.4</ele></trkpt>
      <trkpt lat="40.816456" lon="14.369611"><ele>207.2</ele></trkpt>
      <trkpt lat="40.816813" lon="14.370111"><ele>213.8</ele></trkpt>
      <trkpt lat="40.817037" lon="14.372114"><ele>233.4</ele></trkpt>
      <trkpt lat="40.816990" lon="14.373799"><ele>249.4</ele></trkpt>
      <trkpt lat="40.817034" lon="14.374472"><ele>255.4</ele></trkpt>
      <trkpt lat="40.817408" lon="14.375927"><ele>266.8</ele></trkpt>
      <trkpt lat="40.817253" lon="14.378140"><ele>278.4</ele></trkpt>
      <trkpt lat="40.817272" lon="14.378690"><ele>283.4</ele></trkpt>
      <trkpt lat="40.817145" lon="14.379310"><ele>292.2</ele></trkpt>
      <trkpt lat="40.817230" lon="14.379807"><ele>299.0</ele></trkpt>
      <trkpt lat="40.817836" lon="14.381376"><ele>324.8</ele></trkpt>
      <trkpt lat="40.817398" lon="14.381718"><ele>330.2</ele></trkpt>
      <trkpt lat="40.817534" lon="14.382814"><ele>346.0</ele></trkpt>
      <trkpt lat="40.817631" lon="14.382883"><ele>347.2</ele></trkpt>
      <trkpt lat="40.819234" lon="14.382789"><ele>354.2</ele></trkpt>
      <trkpt lat="40.819426" lon="14.382889"><ele>355.8</ele></trkpt>
      <trkpt lat="40.819959" lon="14.382923"><ele>359.0</ele></trkpt>
      <trkpt lat="40.820253" lon="14.383090"><ele>363.0</ele></trkpt>
      <trkpt lat="40.820260" lon="14.383470"><ele>366.8</ele></trkpt>
      <trkpt lat="40.820564" lon="14.383916"><ele>371.6</ele></trkpt>
      <trkpt lat="40.820924" lon="14.383923"><ele>375.8</ele></trkpt>
      <trkpt lat="40.821495" lon="14.384233"><ele>378.6</ele></trkpt>
      <trkpt lat="40.821883" lon="14.384084"><ele>381.4</ele></trkpt>
      <trkpt lat="40.822202" lon="14.383820"><ele>383.6</ele></trkpt>
      <trkpt lat="40.822697" lon="14.384188"><ele>386.6</ele></trkpt>
      <trkpt lat="40.822896" lon="14.384472"><ele>387.8</ele></trkpt>
      <trkpt lat="40.822812" lon="14.385155"><ele>392.4</ele></trkpt>
      <trkpt lat="40.823062" lon="14.385780"><ele>395.4</ele></trkpt>
      <trkpt lat="40.823454" lon="14.386224"><ele>396.6</ele></trkpt>
      <trkpt lat="40.823890" lon="14.386418"><ele>398.8</ele></trkpt>
      <trkpt lat="40.823959" lon="14.386612"><ele>400.6</ele></trkpt>
      <trkpt lat="40.823797" lon="14.386800"><ele>402.4</ele></trkpt>
      <trkpt lat="40.823688" lon="14.386722"><ele>403.6</ele></trkpt>
      <trkpt lat="40.823522" lon="14.386760"><ele>405.6</ele></trkpt>
      <trkpt lat="40.823159" lon="14.387238"><ele>412.4</ele></trkpt>
      <trkpt lat="40.822568" lon="14.386679"><ele>419.2</ele></trkpt>
      <trkpt lat="40.822460" lon="14.386726"><ele>420.4</ele></trkpt>
      <trkpt lat="40.822461" lon="14.386869"><ele>421.2</ele></trkpt>
      <trkpt lat="40.822910" lon="14.387552"><ele>428.6</ele></trkpt>
      <trkpt lat="40.823428" lon="14.388001"><ele>435.4</ele></trkpt>
      <trkpt lat="40.824213" lon="14.389078"><ele>447.8</ele></trkpt>
      <trkpt lat="40.824089" lon="14.389223"><ele>449.4</ele></trkpt>
      <trkpt lat="40.823912" lon="14.388955"><ele>451.2</ele></trkpt>
      <trkpt lat="40.823686" lon="14.388889"><ele>452.6</ele></trkpt>
      <trkpt lat="40.823096" lon="14.388321"><ele>456.0</ele></trkpt>
      <trkpt lat="40.822946" lon="14.388287"><ele>457.0</ele></trkpt>
      <trkpt lat="40.822899" lon="14.388373"><ele>457.4</ele></trkpt>
      <trkpt lat="40.822950" lon="14.388490"><ele>458.0</ele></trkpt>
      <trkpt lat="40.823201" lon="14.388590"><ele>459.8</ele></trkpt>
      <trkpt lat="40.823461" lon="14.389035"><ele>464.4</ele></trkpt>
      <trkpt lat="40.823843" lon="14.389343"><ele>467.8</ele></trkpt>
      <trkpt lat="40.823895" lon="14.389493"><ele>469.2</ele></trkpt>
      <trkpt lat="40.823784" lon="14.389589"><ele>470.4</ele></trkpt>
      <trkpt lat="40.823576" lon="14.389317"><ele>471.4</ele></trkpt>
      <trkpt lat="40.823287" lon="14.389265"><ele>474.2</ele></trkpt>
      <trkpt lat="40.823202" lon="14.389377"><ele>474.8</ele></trkpt>
      <trkpt lat="40.823064" lon="14.389986"><ele>479.6</ele></trkpt>
      <trkpt lat="40.822772" lon="14.390174"><ele>483.2</ele></trkpt>
      <trkpt lat="40.822756" lon="14.390328"><ele>484.2</ele></trkpt>
      <trkpt lat="40.823465" lon="14.390686"><ele>488.6</ele></trkpt>
      <trkpt lat="40.824108" lon="14.391893"><ele>496.4</ele></trkpt>
      <trkpt lat="40.824277" lon="14.391910"><ele>497.8</ele></trkpt>
      <trkpt lat="40.824581" lon="14.391616"><ele>502.2</ele></trkpt>
      <trkpt lat="40.824758" lon="14.391595"><ele>504.2</ele></trkpt>
      <trkpt lat="40.825105" lon="14.391947"><ele>508.2</ele></trkpt>
      <trkpt lat="40.825354" lon="14.392435"><ele>510.8</ele></trkpt>
      <trkpt lat="40.825716" lon="14.392711"><ele>516.0</ele></trkpt>
      <trkpt lat="40.825734" lon="14.392848"><ele>517.4</ele></trkpt>
      <trkpt lat="40.825495" lon="14.392936"><ele>519.4</ele></trkpt>
      <trkpt lat="40.825443" lon="14.393416"><ele>523.0</ele></trkpt>
      <trkpt lat="40.825321" lon="14.393779"><ele>525.6</ele></trkpt>
      <trkpt lat="40.825467" lon="14.393886"><ele>527.0</ele></trkpt>
      <trkpt lat="40.825735" lon="14.393660"><ele>530.4</ele></trkpt>
      <trkpt lat="40.826521" lon="14.393978"><ele>538.8</ele></trkpt>
      <trkpt lat="40.826543" lon="14.394109"><ele>539.8</ele></trkpt>
      <trkpt lat="40.826322" lon="14.394464"><ele>543.8</ele></trkpt>
      <trkpt lat="40.826445" lon="14.395058"><ele>546.8</ele></trkpt>
      <trkpt lat="40.826598" lon="14.395395"><ele>549.8</ele></trkpt>
      <trkpt lat="40.826820" lon="14.395356"><ele>551.8</ele></trkpt>
      <trkpt lat="40.826904" lon="14.395218"><ele>552.6</ele></trkpt>
      <trkpt lat="40.826873" lon="14.394573"><ele>555.6</ele></trkpt>
      <trkpt lat="40.826942" lon="14.394363"><ele>557.2</ele></trkpt>
      <trkpt lat="40.827705" lon="14.393908"><ele>562.2</ele></trkpt>
      <trkpt lat="40.828012" lon="14.394019"><ele>564.2</ele></trkpt>
      <trkpt lat="40.828271" lon="14.394926"><ele>569.4</ele></trkpt>
      <trkpt lat="40.828426" lon="14.394910"><ele>569.6</ele></trkpt>
      <trkpt lat="40.828829" lon="14.394607"><ele>572.8</ele></trkpt>
      <trkpt lat="40.829163" lon="14.394615"><ele>574.8</ele></trkpt>
      <trkpt lat="40.829296" lon="14.394714"><ele>576.4</ele></trkpt>
      <trkpt lat="40.829230" lon="14.394978"><ele>578.6</ele></trkpt>
      <trkpt lat="40.828357" lon="14.395226"><ele>582.0</ele></trkpt>
      <trkpt lat="40.828174" lon="14.395197"><ele>583.4</ele></trkpt>
      <trkpt lat="40.827968" lon="14.395021"><ele>585.0</ele></trkpt>
      <trkpt lat="40.827819" lon="14.395035"><ele>586.0</ele></trkpt>
      <trkpt lat="40.827557" lon="14.395426"><ele>589.0</ele></trkpt>
      <trkpt lat="40.827505" lon="14.395865"><ele>591.2</ele></trkpt>
      <trkpt lat="40.827498" lon="14.395537"><ele>588.2</ele></trkpt>
      <trkpt lat="40.827643" lon="14.395216"><ele>585.6</ele></trkpt>
      <trkpt lat="40.827813" lon="14.395052"><ele>584.4</ele></trkpt>
      <trkpt lat="40.827993" lon="14.395043"><ele>583.8</ele></trkpt>
      <trkpt lat="40.828342" lon="14.395220"><ele>582.0</ele></trkpt>
      <trkpt lat="40.828979" lon="14.395006"><ele>578.4</ele></trkpt>
      <trkpt lat="40.829188" lon="14.395037"><ele>577.0</ele></trkpt>
      <trkpt lat="40.828860" lon="14.396579"><ele>577.6</ele></trkpt>
      <trkpt lat="40.828880" lon="14.396864"><ele>578.6</ele></trkpt>
      <trkpt lat="40.829755" lon="14.398191"><ele>585.4</ele></trkpt>
      <trkpt lat="40.830519" lon="14.400776"><ele>605.8</ele></trkpt>
      <trkpt lat="40.830512" lon="14.401117"><ele>609.0</ele></trkpt>
      <trkpt lat="40.830361" lon="14.401352"><ele>612.4</ele></trkpt>
      <trkpt lat="40.829176" lon="14.401911"><ele>624.8</ele></trkpt>
      <trkpt lat="40.828367" lon="14.401882"><ele>632.4</ele></trkpt>
      <trkpt lat="40.827620" lon="14.401556"><ele>638.8</ele></trkpt>
      <trkpt lat="40.827374" lon="14.401572"><ele>641.0</ele></trkpt>
      <trkpt lat="40.827188" lon="14.401915"><ele>642.4</ele></trkpt>
      <trkpt lat="40.827282" lon="14.402230"><ele>644.4</ele></trkpt>
      <trkpt lat="40.827170" lon="14.402102"><ele>642.6</ele></trkpt>
      <trkpt lat="40.827348" lon="14.402304"><ele>642.0</ele></trkpt>
      <trkpt lat="40.828177" lon="14.402738"><ele>648.4</ele></trkpt>
      <trkpt lat="40.828581" lon="14.403634"><ele>656.8</ele></trkpt>
      <trkpt lat="40.829060" lon="14.403936"><ele>662.4</ele></trkpt>
      <trkpt lat="40.829798" lon="14.404903"><ele>672.6</ele></trkpt>
      <trkpt lat="40.830123" lon="14.405587"><ele>678.6</ele></trkpt>
      <trkpt lat="40.830505" lon="14.405875"><ele>681.8</ele></trkpt>
      <trkpt lat="40.830449" lon="14.406072"><ele>683.0</ele></trkpt>
      <trkpt lat="40.830359" lon="14.406062"><ele>683.6</ele></trkpt>
      <trkpt lat="40.829392" lon="14.405138"><ele>689.8</ele></trkpt>
      <trkpt lat="40.828908" lon="14.405170"><ele>693.2</ele></trkpt>
      <trkpt lat="40.828770" lon="14.405123"><ele>694.2</ele></trkpt>
      <trkpt lat="40.828519" lon="14.404814"><ele>697.6</ele></trkpt>
      <trkpt lat="40.828382" lon="14.404876"><ele>698.4</ele></trkpt>
      <trkpt lat="40.828380" lon="14.404997"><ele>699.0</ele></trkpt>
      <trkpt lat="40.828542" lon="14.405260"><ele>700.8</ele></trkpt>
      <trkpt lat="40.829137" lon="14.405617"><ele>706.6</ele></trkpt>
      <trkpt lat="40.829417" lon="14.406157"><ele>712.2</ele></trkpt>
      <trkpt lat="40.829907" lon="14.406772"><ele>719.4</ele></trkpt>
      <trkpt lat="40.830076" lon="14.406907"><ele>721.4</ele></trkpt>
      <trkpt lat="40.830463" lon="14.406943"><ele>724.4</ele></trkpt>
      <trkpt lat="40.830519" lon="14.407066"><ele>725.0</ele></trkpt>
      <trkpt lat="40.830458" lon="14.407140"><ele>725.8</ele></trkpt>
      <trkpt lat="40.830227" lon="14.407099"><ele>728.0</ele></trkpt>
      <trkpt lat="40.829636" lon="14.406891"><ele>732.4</ele></trkpt>
      <trkpt lat="40.829204" lon="14.406693"><ele>735.2</ele></trkpt>
      <trkpt lat="40.828817" lon="14.406371"><ele>738.4</ele></trkpt>
      <trkpt lat="40.828404" lon="14.406294"><ele>740.6</ele></trkpt>
      <trkpt lat="40.828323" lon="14.406371"><ele>741.0</ele></trkpt>
      <trkpt lat="40.828318" lon="14.406554"><ele>741.6</ele></trkpt>
      <trkpt lat="40.828798" lon="14.406668"><ele>745.2</ele></trkpt>
      <trkpt lat="40.829170" lon="14.407309"><ele>752.6</ele></trkpt>
      <trkpt lat="40.830504" lon="14.408397"><ele>767.8</ele></trkpt>
      <trkpt lat="40.830858" lon="14.409025"><ele>774.2</ele></trkpt>
      <trkpt lat="40.831126" lon="14.409336"><ele>776.8</ele></trkpt>
      <trkpt lat="40.831225" lon="14.409677"><ele>779.2</ele></trkpt>
      <trkpt lat="40.831170" lon="14.410474"><ele>785.8</ele></trkpt>
      <trkpt lat="40.831236" lon="14.411060"><ele>790.8</ele></trkpt>
      <trkpt lat="40.831085" lon="14.411921"><ele>797.2</ele></trkpt>
      <trkpt lat="40.830905" lon="14.412230"><ele>799.8</ele></trkpt>
      <trkpt lat="40.830709" lon="14.412923"><ele>806.0</ele></trkpt>
      <trkpt lat="40.829935" lon="14.414004"><ele>817.8</ele></trkpt>
      <trkpt lat="40.829447" lon="14.414166"><ele>822.8</ele></trkpt>
      <trkpt lat="40.828225" lon="14.414921"><ele>834.8</ele></trkpt>
      <trkpt lat="40.828108" lon="14.415591"><ele>838.8</ele></trkpt>
      <trkpt lat="40.828113" lon="14.416424"><ele>844.8</ele></trkpt>
      <trkpt lat="40.828367" lon="14.417931"><ele>857.6</ele></trkpt>
      <trkpt lat="40.829852" lon="14.420565"><ele>885.4</ele></trkpt>
      <trkpt lat="40.829827" lon="14.420847"><ele>888.2</ele></trkpt>
      <trkpt lat="40.829626" lon="14.421319"><ele>894.2</ele></trkpt>
      <trkpt lat="40.829620" lon="14.421635"><ele>897.4</ele></trkpt>
      <trkpt lat="40.829938" lon="14.422195"><ele>903.6</ele></trkpt>
      <trkpt lat="40.830483" lon="14.422711"><ele>909.4</ele></trkpt>
      <trkpt lat="40.830810" lon="14.423299"><ele>915.4</ele></trkpt>
      <trkpt lat="40.831123" lon="14.425241"><ele>932.8</ele></trkpt>
      <trkpt lat="40.830928" lon="14.426614"><ele>944.2</ele></trkpt>
      <trkpt lat="40.830705" lon="14.426998"><ele>947.2</ele></trkpt>
      <trkpt lat="40.830366" lon="14.427135"><ele>953.0</ele></trkpt>
      <trkpt lat="40.830191" lon="14.428090"><ele>960.0</ele></trkpt>
      <trkpt lat="40.829769" lon="14.428444"><ele>964.8</ele></trkpt>
      <trkpt lat="40.829723" lon="14.428596"><ele>966.0</ele></trkpt>
      <trkpt lat="40.829776" lon="14.429144"><ele>969.2</ele></trkpt>
      <trkpt lat="40.829383" lon="14.430150"><ele>976.4</ele></trkpt>
      <trkpt lat="40.829144" lon="14.430145"><ele>976.8</ele></trkpt>
      <trkpt lat="40.829162" lon="14.429211"><ele>981.4</ele></trkpt>
      <trkpt lat="40.828884" lon="14.428440"><ele>987.4</ele></trkpt>
      <trkpt lat="40.828871" lon="14.427868"><ele>992.0</ele></trkpt>
      <trkpt lat="40.828794" lon="14.427604"><ele>994.4</ele></trkpt>
      <trkpt lat="40.828426" lon="14.426976"><ele>998.8</ele></trkpt>
      <trkpt lat="40.828249" lon="14.426076"><ele>1007.6</ele></trkpt>
      <trkpt lat="40.828063" lon="14.425530"><ele>1012.6</ele></trkpt>
      <trkpt lat="40.827582" lon="14.425345"><ele>1023.2</ele></trkpt>
      <trkpt lat="40.827609" lon="14.425843"><ele>1033.6</ele></trkpt>
      <trkpt lat="40.827370" lon="14.425612"><ele>1040.4</ele></trkpt>
      <trkpt lat="40.827421" lon="14.425966"><ele>1045.8</ele></trkpt>
      <trkpt lat="40.827280" lon="14.426609"><ele>1057.2</ele></trkpt>
      <trkpt lat="40.826845" lon="14.425682"><ele>1071.0</ele></trkpt>
      <trkpt lat="40.826286" lon="14.424977"><ele>1085.8</ele></trkpt>
      <trkpt lat="40.825727" lon="14.424067"><ele>1102.4</ele></trkpt>
      <trkpt lat="40.824921" lon="14.423135"><ele>1119.8</ele></trkpt>
      <trkpt lat="40.824625" lon="14.422918"><ele>1124.8</ele></trkpt>
      <trkpt lat="40.823065" lon="14.422455"><ele>1155.2</ele></trkpt>
      <trkpt lat="40.822615" lon="14.422548"><ele>1158.6</ele></trkpt>
      <trkpt lat="40.822220" lon="14.422399"><ele>1161.6</ele></trkpt>
      <trkpt lat="40.821419" lon="14.422602"><ele>1171.6</ele></trkpt>
      <trkpt lat="40.820737" lon="14.422956"><ele>1174.4</ele></trkpt>
      <trkpt lat="40.820693" lon="14.423097"><ele>1175.2</ele></trkpt>
      <trkpt lat="40.820307" lon="14.423287"><ele>1172.0</ele></trkpt>
      <trkpt lat="40.820082" lon="14.423633"><ele>1167.6</ele></trkpt>
      <trkpt lat="40.819642" lon="14.423943"><ele>1169.8</ele></trkpt>
      <trkpt lat="40.819190" lon="14.424598"><ele>1163.2</ele></trkpt>
      <trkpt lat="40.818796" lon="14.425473"><ele>1169.8</ele></trkpt>
      <trkpt lat="40.818761" lon="14.426472"><ele>1163.8</ele></trkpt>
      <trkpt lat="40.818851" lon="14.427256"><ele>1158.2</ele></trkpt>
      <trkpt lat="40.818796" lon="14.427538"><ele>1157.0</ele></trkpt>
      <trkpt lat="40.818841" lon="14.427404"><ele>1157.2</ele></trkpt>
      <trkpt lat="40.818760" lon="14.426384"><ele>1159.0</ele></trkpt>
      <trkpt lat="40.818784" lon="14.425482"><ele>1164.4</ele></trkpt>
      <trkpt lat="40.819181" lon="14.424603"><ele>1154.4</ele></trkpt>
      <trkpt lat="40.819642" lon="14.423972"><ele>1161.4</ele></trkpt>
      <trkpt lat="40.820088" lon="14.423609"><ele>1159.4</ele></trkpt>
      <trkpt lat="40.820419" lon="14.423191"><ele>1166.2</ele></trkpt>
      <trkpt lat="40.821385" lon="14.422598"><ele>1162.6</ele></trkpt>
      <trkpt lat="40.822192" lon="14.422406"><ele>1150.6</ele></trkpt>
      <trkpt lat="40.822643" lon="14.422511"><ele>1146.0</ele></trkpt>
      <trkpt lat="40.823082" lon="14.422431"><ele>1141.8</ele></trkpt>
      <trkpt lat="40.824518" lon="14.422881"><ele>1118.6</ele></trkpt>
      <trkpt lat="40.824972" lon="14.423188"><ele>1109.2</ele></trkpt>
      <trkpt lat="40.825722" lon="14.424039"><ele>1093.6</ele></trkpt>
      <trkpt lat="40.826180" lon="14.424802"><ele>1080.8</ele></trkpt>
      <trkpt lat="40.826872" lon="14.425669"><ele>1061.6</ele></trkpt>
      <trkpt lat="40.827145" lon="14.426152"><ele>1054.2</ele></trkpt>
      <trkpt lat="40.827279" lon="14.426610"><ele>1046.6</ele></trkpt>
      <trkpt lat="40.827353" lon="14.426541"><ele>1045.0</ele></trkpt>
      <trkpt lat="40.827359" lon="14.425575"><ele>1029.0</ele></trkpt>
      <trkpt lat="40.827619" lon="14.425846"><ele>1022.6</ele></trkpt>
      <trkpt lat="40.827567" lon="14.425291"><ele>1013.8</ele></trkpt>
      <trkpt lat="40.828052" lon="14.425483"><ele>1003.4</ele></trkpt>
      <trkpt lat="40.828425" lon="14.426868"><ele>990.0</ele></trkpt>
      <trkpt lat="40.828891" lon="14.427788"><ele>983.6</ele></trkpt>
      <trkpt lat="40.828922" lon="14.428547"><ele>977.6</ele></trkpt>
      <trkpt lat="40.829179" lon="14.429217"><ele>971.6</ele></trkpt>
      <trkpt lat="40.829151" lon="14.430099"><ele>965.2</ele></trkpt>
      <trkpt lat="40.829229" lon="14.430237"><ele>964.4</ele></trkpt>
      <trkpt lat="40.829350" lon="14.430258"><ele>963.8</ele></trkpt>
      <trkpt lat="40.829815" lon="14.429136"><ele>956.4</ele></trkpt>
      <trkpt lat="40.829794" lon="14.428490"><ele>952.2</ele></trkpt>
      <trkpt lat="40.830199" lon="14.428116"><ele>947.2</ele></trkpt>
      <trkpt lat="40.830320" lon="14.427165"><ele>940.4</ele></trkpt>
      <trkpt lat="40.830695" lon="14.426986"><ele>934.8</ele></trkpt>
      <trkpt lat="40.830923" lon="14.426627"><ele>931.2</ele></trkpt>
      <trkpt lat="40.831112" lon="14.425465"><ele>921.0</ele></trkpt>
      <trkpt lat="40.831101" lon="14.425004"><ele>916.8</ele></trkpt>
      <trkpt lat="40.830794" lon="14.423286"><ele>901.8</ele></trkpt>
      <trkpt lat="40.830447" lon="14.422692"><ele>896.0</ele></trkpt>
      <trkpt lat="40.829979" lon="14.422286"><ele>890.4</ele></trkpt>
      <trkpt lat="40.829600" lon="14.421606"><ele>883.4</ele></trkpt>
      <trkpt lat="40.829633" lon="14.421271"><ele>880.6</ele></trkpt>
      <trkpt lat="40.829876" lon="14.420799"><ele>874.8</ele></trkpt>
      <trkpt lat="40.829872" lon="14.420546"><ele>872.4</ele></trkpt>
      <trkpt lat="40.828372" lon="14.417846"><ele>843.2</ele></trkpt>
      <trkpt lat="40.828171" lon="14.416694"><ele>834.0</ele></trkpt>
      <trkpt lat="40.828140" lon="14.415631"><ele>826.4</ele></trkpt>
      <trkpt lat="40.828257" lon="14.415145"><ele>823.2</ele></trkpt>
      <trkpt lat="40.828421" lon="14.414891"><ele>821.2</ele></trkpt>
      <trkpt lat="40.829415" lon="14.414235"><ele>812.0</ele></trkpt>
      <trkpt lat="40.829889" lon="14.414082"><ele>808.4</ele></trkpt>
      <trkpt lat="40.830720" lon="14.412977"><ele>797.0</ele></trkpt>
      <trkpt lat="40.830950" lon="14.412252"><ele>791.4</ele></trkpt>
      <trkpt lat="40.831154" lon="14.411860"><ele>788.6</ele></trkpt>
      <trkpt lat="40.831135" lon="14.411397"><ele>785.8</ele></trkpt>
      <trkpt lat="40.831285" lon="14.411051"><ele>783.8</ele></trkpt>
      <trkpt lat="40.831207" lon="14.410506"><ele>779.2</ele></trkpt>
      <trkpt lat="40.831276" lon="14.409605"><ele>771.4</ele></trkpt>
      <trkpt lat="40.831204" lon="14.409340"><ele>769.4</ele></trkpt>
      <trkpt lat="40.830918" lon="14.409044"><ele>766.2</ele></trkpt>
      <trkpt lat="40.830529" lon="14.408360"><ele>759.8</ele></trkpt>
      <trkpt lat="40.829181" lon="14.407294"><ele>744.0</ele></trkpt>
      <trkpt lat="40.828822" lon="14.406623"><ele>737.4</ele></trkpt>
      <trkpt lat="40.828372" lon="14.406556"><ele>733.8</ele></trkpt>
      <trkpt lat="40.828351" lon="14.406421"><ele>733.0</ele></trkpt>
      <trkpt lat="40.828408" lon="14.406374"><ele>732.4</ele></trkpt>
      <trkpt lat="40.828809" lon="14.406425"><ele>730.6</ele></trkpt>
      <trkpt lat="40.829214" lon="14.406747"><ele>727.4</ele></trkpt>
      <trkpt lat="40.830057" lon="14.407110"><ele>721.6</ele></trkpt>
      <trkpt lat="40.830403" lon="14.407184"><ele>719.2</ele></trkpt>
      <trkpt lat="40.830556" lon="14.407045"><ele>718.0</ele></trkpt>
      <trkpt lat="40.830486" lon="14.406908"><ele>717.2</ele></trkpt>
      <trkpt lat="40.830121" lon="14.406902"><ele>714.4</ele></trkpt>
      <trkpt lat="40.829960" lon="14.406810"><ele>712.8</ele></trkpt>
      <trkpt lat="40.829422" lon="14.406128"><ele>705.0</ele></trkpt>
      <trkpt lat="40.829165" lon="14.405617"><ele>699.8</ele></trkpt>
      <trkpt lat="40.828648" lon="14.405328"><ele>694.0</ele></trkpt>
      <trkpt lat="40.828422" lon="14.405076"><ele>691.6</ele></trkpt>
      <trkpt lat="40.828385" lon="14.404932"><ele>690.6</ele></trkpt>
      <trkpt lat="40.828484" lon="14.404853"><ele>690.0</ele></trkpt>
      <trkpt lat="40.828802" lon="14.405212"><ele>687.4</ele></trkpt>
      <trkpt lat="40.829370" lon="14.405163"><ele>683.0</ele></trkpt>
      <trkpt lat="40.830313" lon="14.406069"><ele>677.8</ele></trkpt>
      <trkpt lat="40.830453" lon="14.406091"><ele>677.0</ele></trkpt>
      <trkpt lat="40.830516" lon="14.405993"><ele>676.6</ele></trkpt>
      <trkpt lat="40.830471" lon="14.405816"><ele>675.6</ele></trkpt>
      <trkpt lat="40.830127" lon="14.405549"><ele>672.0</ele></trkpt>
      <trkpt lat="40.829788" lon="14.404864"><ele>666.4</ele></trkpt>
      <trkpt lat="40.829139" lon="14.403998"><ele>657.8</ele></trkpt>
      <trkpt lat="40.828609" lon="14.403632"><ele>651.8</ele></trkpt>
      <trkpt lat="40.828197" lon="14.402741"><ele>645.0</ele></trkpt>
      <trkpt lat="40.827332" lon="14.402278"><ele>639.4</ele></trkpt>
      <trkpt lat="40.827224" lon="14.401972"><ele>638.0</ele></trkpt>
      <trkpt lat="40.827322" lon="14.401660"><ele>636.0</ele></trkpt>
      <trkpt lat="40.827488" lon="14.401519"><ele>633.8</ele></trkpt>
      <trkpt lat="40.828479" lon="14.401944"><ele>624.2</ele></trkpt>
      <trkpt lat="40.829170" lon="14.401928"><ele>618.4</ele></trkpt>
      <trkpt lat="40.830396" lon="14.401324"><ele>606.8</ele></trkpt>
      <trkpt lat="40.830520" lon="14.401151"><ele>605.0</ele></trkpt>
      <trkpt lat="40.830557" lon="14.400914"><ele>602.4</ele></trkpt>
      <trkpt lat="40.829838" lon="14.398351"><ele>580.8</ele></trkpt>
      <trkpt lat="40.829016" lon="14.397164"><ele>573.0</ele></trkpt>
      <trkpt lat="40.828853" lon="14.396815"><ele>571.6</ele></trkpt>
      <trkpt lat="40.828972" lon="14.395949"><ele>571.4</ele></trkpt>
      <trkpt lat="40.829347" lon="14.394836"><ele>570.4</ele></trkpt>
      <trkpt lat="40.829298" lon="14.394660"><ele>569.8</ele></trkpt>
      <trkpt lat="40.828719" lon="14.394561"><ele>565.8</ele></trkpt>
      <trkpt lat="40.828310" lon="14.394857"><ele>563.4</ele></trkpt>
      <trkpt lat="40.828204" lon="14.394754"><ele>562.6</ele></trkpt>
      <trkpt lat="40.828019" lon="14.394098"><ele>559.2</ele></trkpt>
      <trkpt lat="40.827883" lon="14.393943"><ele>558.0</ele></trkpt>
      <trkpt lat="40.827693" lon="14.393928"><ele>557.2</ele></trkpt>
      <trkpt lat="40.826970" lon="14.394261"><ele>553.2</ele></trkpt>
      <trkpt lat="40.826827" lon="14.394529"><ele>551.6</ele></trkpt>
      <trkpt lat="40.826843" lon="14.395256"><ele>548.6</ele></trkpt>
      <trkpt lat="40.826700" lon="14.395396"><ele>547.6</ele></trkpt>
      <trkpt lat="40.826592" lon="14.395366"><ele>546.8</ele></trkpt>
      <trkpt lat="40.826348" lon="14.394481"><ele>540.6</ele></trkpt>
      <trkpt lat="40.826396" lon="14.394300"><ele>539.4</ele></trkpt>
      <trkpt lat="40.826550" lon="14.394130"><ele>537.4</ele></trkpt>
      <trkpt lat="40.826546" lon="14.393973"><ele>536.4</ele></trkpt>
      <trkpt lat="40.825723" lon="14.393610"><ele>528.2</ele></trkpt>
      <trkpt lat="40.825469" lon="14.393834"><ele>524.8</ele></trkpt>
      <trkpt lat="40.825391" lon="14.393800"><ele>523.8</ele></trkpt>
      <trkpt lat="40.825522" lon="14.392972"><ele>516.2</ele></trkpt>
      <trkpt lat="40.825731" lon="14.392882"><ele>514.8</ele></trkpt>
      <trkpt lat="40.825718" lon="14.392740"><ele>513.8</ele></trkpt>
      <trkpt lat="40.825300" lon="14.392407"><ele>507.2</ele></trkpt>
      <trkpt lat="40.825091" lon="14.391965"><ele>504.4</ele></trkpt>
      <trkpt lat="40.824762" lon="14.391623"><ele>500.0</ele></trkpt>
      <trkpt lat="40.824572" lon="14.391618"><ele>498.0</ele></trkpt>
      <trkpt lat="40.824256" lon="14.391864"><ele>493.4</ele></trkpt>
      <trkpt lat="40.824114" lon="14.391862"><ele>492.2</ele></trkpt>
      <trkpt lat="40.823478" lon="14.390630"><ele>483.0</ele></trkpt>
      <trkpt lat="40.822801" lon="14.390335"><ele>478.6</ele></trkpt>
      <trkpt lat="40.822820" lon="14.390214"><ele>477.2</ele></trkpt>
      <trkpt lat="40.823113" lon="14.389958"><ele>473.2</ele></trkpt>
      <trkpt lat="40.823301" lon="14.389302"><ele>467.6</ele></trkpt>
      <trkpt lat="40.823583" lon="14.389336"><ele>464.0</ele></trkpt>
      <trkpt lat="40.823762" lon="14.389555"><ele>462.8</ele></trkpt>
      <trkpt lat="40.823891" lon="14.389457"><ele>462.6</ele></trkpt>
      <trkpt lat="40.823852" lon="14.389344"><ele>461.8</ele></trkpt>
      <trkpt lat="40.823503" lon="14.389088"><ele>458.2</ele></trkpt>
      <trkpt lat="40.823132" lon="14.388543"><ele>452.0</ele></trkpt>
      <trkpt lat="40.822973" lon="14.388458"><ele>450.2</ele></trkpt>
      <trkpt lat="40.822973" lon="14.388350"><ele>449.2</ele></trkpt>
      <trkpt lat="40.823928" lon="14.388983"><ele>443.2</ele></trkpt>
      <trkpt lat="40.824049" lon="14.389144"><ele>441.8</ele></trkpt>
      <trkpt lat="40.824175" lon="14.389139"><ele>441.2</ele></trkpt>
      <trkpt lat="40.824212" lon="14.389038"><ele>440.4</ele></trkpt>
      <trkpt lat="40.822465" lon="14.386834"><ele>416.0</ele></trkpt>
      <trkpt lat="40.822514" lon="14.386712"><ele>414.4</ele></trkpt>
      <trkpt lat="40.822589" lon="14.386729"><ele>413.2</ele></trkpt>
      <trkpt lat="40.823133" lon="14.387258"><ele>408.6</ele></trkpt>
      <trkpt lat="40.823542" lon="14.386750"><ele>402.0</ele></trkpt>
      <trkpt lat="40.823856" lon="14.386744"><ele>398.4</ele></trkpt>
      <trkpt lat="40.823948" lon="14.386581"><ele>396.6</ele></trkpt>
      <trkpt lat="40.823881" lon="14.386371"><ele>394.8</ele></trkpt>
      <trkpt lat="40.823500" lon="14.386204"><ele>392.0</ele></trkpt>
      <trkpt lat="40.823114" lon="14.385821"><ele>390.6</ele></trkpt>
      <trkpt lat="40.822883" lon="14.385247"><ele>390.0</ele></trkpt>
      <trkpt lat="40.822862" lon="14.384401"><ele>384.2</ele></trkpt>
      <trkpt lat="40.822216" lon="14.383868"><ele>380.6</ele></trkpt>
      <trkpt lat="40.821461" lon="14.384259"><ele>375.0</ele></trkpt>
      <trkpt lat="40.820931" lon="14.383972"><ele>372.2</ele></trkpt>
      <trkpt lat="40.820560" lon="14.383946"><ele>368.6</ele></trkpt>
      <trkpt lat="40.820253" lon="14.383517"><ele>364.2</ele></trkpt>
      <trkpt lat="40.820286" lon="14.383095"><ele>359.4</ele></trkpt>
      <trkpt lat="40.819945" lon="14.382868"><ele>354.2</ele></trkpt>
      <trkpt lat="40.817517" lon="14.382961"><ele>341.8</ele></trkpt>
      <trkpt lat="40.817556" lon="14.382705"><ele>340.4</ele></trkpt>
      <trkpt lat="40.817392" lon="14.381734"><ele>325.8</ele></trkpt>
      <trkpt lat="40.817703" lon="14.381472"><ele>321.4</ele></trkpt>
      <trkpt lat="40.817758" lon="14.381311"><ele>320.0</ele></trkpt>
      <trkpt lat="40.817120" lon="14.379443"><ele>289.4</ele></trkpt>
      <trkpt lat="40.817124" lon="14.379096"><ele>285.2</ele></trkpt>
      <trkpt lat="40.817263" lon="14.378666"><ele>278.8</ele></trkpt>
      <trkpt lat="40.817237" lon="14.378159"><ele>273.4</ele></trkpt>
      <trkpt lat="40.817398" lon="14.376072"><ele>262.2</ele></trkpt>
      <trkpt lat="40.817019" lon="14.374543"><ele>251.0</ele></trkpt>
      <trkpt lat="40.816968" lon="14.373610"><ele>243.2</ele></trkpt>
      <trkpt lat="40.817019" lon="14.372158"><ele>230.0</ele></trkpt>
      <trkpt lat="40.816828" lon="14.370201"><ele>209.4</ele></trkpt>
      <trkpt lat="40.816424" lon="14.369627"><ele>202.2</ele></trkpt>
      <trkpt lat="40.816018" lon="14.367422"><ele>184.6</ele></trkpt>
      <trkpt lat="40.816218" lon="14.366671"><ele>181.0</ele></trkpt>
      <trkpt lat="40.815865" lon="14.365349"><ele>167.6</ele></trkpt>
      <trkpt lat="40.815302" lon="14.362509"><ele>147.0</ele></trkpt>
      <trkpt lat="40.814352" lon="14.360409"><ele>131.6</ele></trkpt>
      <trkpt lat="40.814243" lon="14.359532"><ele>126.8</ele></trkpt>
      <trkpt lat="40.813427" lon="14.357641"><ele>114.8</ele></trkpt>
      <trkpt lat="40.813480" lon="14.356266"><ele>102.2</ele></trkpt>
      <trkpt lat="40.813111" lon="14.354937"><ele>94.4</ele></trkpt>
      <trkpt lat="40.812712" lon="14.354358"><ele>88.4</ele></trkpt>
      <trkpt lat="40.812730" lon="14.354194"><ele>87.8</ele></trkpt>
      <trkpt lat="40.812894" lon="14.353974"><ele>87.8</ele></trkpt>
      <trkpt lat="40.813517" lon="14.353427"><ele>87.4</ele></trkpt>
      <trkpt lat="40.813932" lon="14.353455"><ele>89.2</ele></trkpt>
      <trkpt lat="40.814284" lon="14.353282"><ele>92.0</ele></trkpt>
      <trkpt lat="40.814525" lon="14.352646"><ele>92.4</ele></trkpt>
      <trkpt lat="40.815550" lon="14.351557"><ele>90.8</ele></trkpt>
      <trkpt lat="40.816561" lon="14.351402"><ele>89.6</ele></trkpt>
      <trkpt lat="40.817116" lon="14.351018"><ele>87.0</ele></trkpt>
      <trkpt lat="40.816841" lon="14.350545"><ele>83.6</ele></trkpt>
      <trkpt lat="40.816678" lon="14.349077"><ele>76.2</ele></trkpt>
      <trkpt lat="40.816037" lon="14.347537"><ele>71.4</ele></trkpt>
      <trkpt lat="40.815804" lon="14.346691"><ele>68.8</ele></trkpt>
      <trkpt lat="40.815904" lon="14.345965"><ele>66.8</ele></trkpt>
      <trkpt lat="40.815859" lon="14.345737"><ele>65.8</ele></trkpt>
      <trkpt lat="40.815675" lon="14.345326"><ele>63.8</ele></trkpt>
      <trkpt lat="40.814976" lon="14.344291"><ele>55.0</ele></trkpt>
      <trkpt lat="40.814177" lon="14.341864"><ele>43.8</ele></trkpt>
      <trkpt lat="40.814358" lon="14.341107"><ele>41.0</ele></trkpt>
      <trkpt lat="40.814355" lon="14.340816"><ele>40.2</ele></trkpt>
      <trkpt lat="40.813864" lon="14.339703"><ele>33.0</ele></trkpt>
      <trkpt lat="40.814194" lon="14.339278"><ele>30.8</ele></trkpt>
      <trkpt lat="40.814260" lon="14.338903"><ele>29.8</ele></trkpt>
    </trkseg>
  </trk>
</gpx>
