<?xml version="1.0" encoding="UTF-8"?>
<gpx version="1.1" creator="gpx-processor" xmlns="http://www.topografix.com/GPX/1/1">
  <metadata><name>Amsterdam Running</name></metadata>
  <trk>
    <name>Amsterdam Running</name>
    <trkseg>
      <trkpt lat="52.343644" lon="4.853393"><ele>5.0</ele></trkpt>
      <trkpt lat="52.343975" lon="4.853356"><ele>4.0</ele></trkpt>
      <trkpt lat="52.344150" lon="4.853575"><ele>3.0</ele></trkpt>
      <trkpt lat="52.344263" lon="4.853946"><ele>2.8</ele></trkpt>
      <trkpt lat="52.344182" lon="4.854441"><ele>3.6</ele></trkpt>
      <trkpt lat="52.343782" lon="4.854767"><ele>5.2</ele></trkpt>
      <trkpt lat="52.343633" lon="4.855032"><ele>4.0</ele></trkpt>
      <trkpt lat="52.343995" lon="4.856605"><ele>4.0</ele></trkpt>
      <trkpt lat="52.344636" lon="4.856270"><ele>5.4</ele></trkpt>
      <trkpt lat="52.344906" lon="4.856336"><ele>2.6</ele></trkpt>
      <trkpt lat="52.345139" lon="4.856732"><ele>2.2</ele></trkpt>
      <trkpt lat="52.345289" lon="4.857732"><ele>4.2</ele></trkpt>
      <trkpt lat="52.345495" lon="4.857912"><ele>5.0</ele></trkpt>
      <trkpt lat="52.346476" lon="4.857593"><ele>4.0</ele></trkpt>
      <trkpt lat="52.346838" lon="4.857607"><ele>6.4</ele></trkpt>
      <trkpt lat="52.347091" lon="4.857788"><ele>8.4</ele></trkpt>
      <trkpt lat="52.347370" lon="4.857826"><ele>9.0</ele></trkpt>
      <trkpt lat="52.347650" lon="4.857779"><ele>8.4</ele></trkpt>
      <trkpt lat="52.347983" lon="4.857555"><ele>6.2</ele></trkpt>
      <trkpt lat="52.348364" lon="4.857709"><ele>4.4</ele></trkpt>
      <trkpt lat="52.349163" lon="4.857556"><ele>2.8</ele></trkpt>
      <trkpt lat="52.349440" lon="4.857712"><ele>2.8</ele></trkpt>
      <trkpt lat="52.349638" lon="4.858003"><ele>4.4</ele></trkpt>
      <trkpt lat="52.350225" lon="4.857147"><ele>2.4</ele></trkpt>
      <trkpt lat="52.351067" lon="4.856879"><ele>4.4</ele></trkpt>
      <trkpt lat="52.351680" lon="4.856441"><ele>5.6</ele></trkpt>
      <trkpt lat="52.352514" lon="4.856209"><ele>3.0</ele></trkpt>
      <trkpt lat="52.354129" lon="4.855422"><ele>6.8</ele></trkpt>
      <trkpt lat="52.354891" lon="4.855597"><ele>4.0</ele></trkpt>
      <trkpt lat="52.355150" lon="4.856752"><ele>4.0</ele></trkpt>
      <trkpt lat="52.355199" lon="4.857488"><ele>3.2</ele></trkpt>
      <trkpt lat="52.355144" lon="4.858313"><ele>0.2</ele></trkpt>
      <trkpt lat="52.355223" lon="4.859009"><ele>0.2</ele></trkpt>
      <trkpt lat="52.356006" lon="4.861742"><ele>3.2</ele></trkpt>
      <trkpt lat="52.356142" lon="4.862814"><ele>5.0</ele></trkpt>
      <trkpt lat="52.356191" lon="4.865329"><ele>0.8</ele></trkpt>
      <trkpt lat="52.356384" lon="4.866373"><ele>0.2</ele></trkpt>
      <trkpt lat="52.356969" lon="4.868273"><ele>2.6</ele></trkpt>
      <trkpt lat="52.357438" lon="4.869339"><ele>5.0</ele></trkpt>
      <trkpt lat="52.357417" lon="4.869936"><ele>3.6</ele></trkpt>
      <trkpt lat="52.357488" lon="4.870395"><ele>2.0</ele></trkpt>
      <trkpt lat="52.357656" lon="4.871068"><ele>1.2</ele></trkpt>
      <trkpt lat="52.358017" lon="4.871896"><ele>3.0</ele></trkpt>
      <trkpt lat="52.358369" lon="4.873689"><ele>3.4</ele></trkpt>
      <trkpt lat="52.358707" lon="4.874311"><ele>2.2</ele></trkpt>
      <trkpt lat="52.358966" lon="4.874589"><ele>3.8</ele></trkpt>
      <trkpt lat="52.359555" lon="4.874831"><ele>2.4</ele></trkpt>
      <trkpt lat="52.360337" lon="4.876087"><ele>1.8</ele></trkpt>
      <trkpt lat="52.360657" lon="4.877371"><ele>2.6</ele></trkpt>
      <trkpt lat="52.360779" lon="4.878725"><ele>4.2</ele></trkpt>
      <trkpt lat="52.360993" lon="4.879621"><ele>3.8</ele></trkpt>
      <trkpt lat="52.361731" lon="4.881845"><ele>6.8</ele></trkpt>
      <trkpt lat="52.361664" lon="4.882222"><ele>5.2</ele></trkpt>
      <trkpt lat="52.361736" lon="4.883427"><ele>4.6</ele></trkpt>
      <trkpt lat="52.361653" lon="4.883915"><ele>5.2</ele></trkpt>
      <trkpt lat="52.361265" lon="4.884467"><ele>5.4</ele></trkpt>
      <trkpt lat="52.360574" lon="4.885942"><ele>8.6</ele></trkpt>
      <trkpt lat="52.360231" lon="4.885574"><ele>14.4</ele></trkpt>
      <trkpt lat="52.359600" lon="4.883887"><ele>5.0</ele></trkpt>
      <trkpt lat="52.359715" lon="4.883979"><ele>5.8</ele></trkpt>
      <trkpt lat="52.359469" lon="4.884457"><ele>7.6</ele></trkpt>
      <trkpt lat="52.359140" lon="4.884170"><ele>2.2</ele></trkpt>
      <trkpt lat="52.359123" lon="4.884496"><ele>2.8</ele></trkpt>
      <trkpt lat="52.358921" lon="4.884974"><ele>4.6</ele></trkpt>
      <trkpt lat="52.358842" lon="4.886011"><ele>6.0</ele></trkpt>
      <trkpt lat="52.358725" lon="4.886308"><ele>5.6</ele></trkpt>
      <trkpt lat="52.357732" lon="4.886295"><ele>5.2</ele></trkpt>
      <trkpt lat="52.357479" lon="4.886391"><ele>5.4</ele></trkpt>
      <trkpt lat="52.355898" lon="4.886295"><ele>12.8</ele></trkpt>
      <trkpt lat="52.354051" lon="4.886619"><ele>3.2</ele></trkpt>
      <trkpt lat="52.353505" lon="4.886581"><ele>-0.4</ele></trkpt>
      <trkpt lat="52.352985" lon="4.886307"><ele>1.6</ele></trkpt>
      <trkpt lat="52.352401" lon="4.886219"><ele>4.6</ele></trkpt>
      <trkpt lat="52.352092" lon="4.885981"><ele>4.0</ele></trkpt>
      <trkpt lat="52.350084" lon="4.885945"><ele>3.4</ele></trkpt>
      <trkpt lat="52.349920" lon="4.885670"><ele>1.8</ele></trkpt>
      <trkpt lat="52.349766" lon="4.885092"><ele>0.0</ele></trkpt>
      <trkpt lat="52.348812" lon="4.883313"><ele>6.0</ele></trkpt>
      <trkpt lat="52.348440" lon="4.882390"><ele>9.4</ele></trkpt>
      <trkpt lat="52.347137" lon="4.879815"><ele>4.8</ele></trkpt>
      <trkpt lat="52.346980" lon="4.879262"><ele>5.2</ele></trkpt>
      <trkpt lat="52.346958" lon="4.877693"><ele>7.2</ele></trkpt>
      <trkpt lat="52.346781" lon="4.876808"><ele>6.0</ele></trkpt>
      <trkpt lat="52.344993" lon="4.876705"><ele>7.0</ele></trkpt>
      <trkpt lat="52.344771" lon="4.876589"><ele>7.6</ele></trkpt>
      <trkpt lat="52.343861" lon="4.876618"><ele>6.0</ele></trkpt>
      <trkpt lat="52.343045" lon="4.876770"><ele>3.2</ele></trkpt>
      <trkpt lat="52.341727" lon="4.876792"><ele>3.8</ele></trkpt>
      <trkpt lat="52.340304" lon="4.877112"><ele>11.0</ele></trkpt>
      <trkpt lat="52.339662" lon="4.876769"><ele>8.8</ele></trkpt>
      <trkpt lat="52.339362" lon="4.876789"><ele>6.0</ele></trkpt>
      <trkpt lat="52.339428" lon="4.876391"><ele>8.0</ele></trkpt>
      <trkpt lat="52.339232" lon="4.876453"><ele>6.6</ele></trkpt>
      <trkpt lat="52.338954" lon="4.876337"><ele>5.4</ele></trkpt>
      <trkpt lat="52.338310" lon="4.876421"><ele>-0.6</ele></trkpt>
      <trkpt lat="52.337799" lon="4.876678"><ele>1.8</ele></trkpt>
      <trkpt lat="52.336861" lon="4.876898"><ele>28.4</ele></trkpt>
      <trkpt lat="52.336793" lon="4.876818"><ele>29.6</ele></trkpt>
      <trkpt lat="52.336731" lon="4.875808"><ele>22.8</ele></trkpt>
      <trkpt lat="52.336792" lon="4.874105"><ele>7.2</ele></trkpt>
      <trkpt lat="52.336659" lon="4.873424"><ele>4.0</ele></trkpt>
      <trkpt lat="52.336539" lon="4.873311"><ele>2.4</ele></trkpt>
      <trkpt lat="52.336050" lon="4.873435"><ele>0.0</ele></trkpt>
      <trkpt lat="52.335390" lon="4.873408"><ele>3.4</ele></trkpt>
      <trkpt lat="52.335194" lon="4.873541"><ele>4.4</ele></trkpt>
      <trkpt lat="52.335097" lon="4.874038"><ele>5.4</ele></trkpt>
      <trkpt lat="52.335197" lon="4.875444"><ele>2.8</ele></trkpt>
      <trkpt lat="52.335123" lon="4.877722"><ele>3.6</ele></trkpt>
      <trkpt lat="52.335145" lon="4.877971"><ele>3.4</ele></trkpt>
      <trkpt lat="52.335254" lon="4.878106"><ele>3.2</ele></trkpt>
      <trkpt lat="52.335531" lon="4.878074"><ele>4.6</ele></trkpt>
      <trkpt lat="52.335893" lon="4.877533"><ele>5.2</ele></trkpt>
      <trkpt lat="52.336169" lon="4.877458"><ele>4.2</ele></trkpt>
      <trkpt lat="52.336607" lon="4.876957"><ele>24.2</ele></trkpt>
      <trkpt lat="52.337714" lon="4.876201"><ele>4.4</ele></trkpt>
      <trkpt lat="52.338005" lon="4.876387"><ele>0.8</ele></trkpt>
      <trkpt lat="52.338564" lon="4.876419"><ele>1.2</ele></trkpt>
      <trkpt lat="52.339324" lon="4.876866"><ele>6.4</ele></trkpt>
      <trkpt lat="52.340537" lon="4.876717"><ele>5.0</ele></trkpt>
      <trkpt lat="52.341829" lon="4.876883"><ele>4.4</ele></trkpt>
      <trkpt lat="52.345478" lon="4.876498"><ele>5.2</ele></trkpt>
      <trkpt lat="52.346604" lon="4.876688"><ele>7.0</ele></trkpt>
      <trkpt lat="52.346825" lon="4.876966"><ele>6.2</ele></trkpt>
      <trkpt lat="52.346932" lon="4.877748"><ele>7.2</ele></trkpt>
      <trkpt lat="52.346894" lon="4.878142"><ele>7.0</ele></trkpt>
      <trkpt lat="52.347020" lon="4.879551"><ele>4.4</ele></trkpt>
      <trkpt lat="52.347159" lon="4.880060"><ele>5.0</ele></trkpt>
      <trkpt lat="52.347525" lon="4.880622"><ele>5.0</ele></trkpt>
      <trkpt lat="52.348056" lon="4.881899"><ele>6.0</ele></trkpt>
      <trkpt lat="52.348694" lon="4.882860"><ele>7.2</ele></trkpt>
      <trkpt lat="52.348504" lon="4.883281"><ele>8.0</ele></trkpt>
      <trkpt lat="52.347476" lon="4.884698"><ele>1.0</ele></trkpt>
      <trkpt lat="52.347381" lon="4.885008"><ele>1.0</ele></trkpt>
      <trkpt lat="52.347339" lon="4.886436"><ele>1.4</ele></trkpt>
      <trkpt lat="52.347186" lon="4.887459"><ele>10.4</ele></trkpt>
      <trkpt lat="52.347202" lon="4.888894"><ele>4.0</ele></trkpt>
      <trkpt lat="52.347127" lon="4.890322"><ele>5.8</ele></trkpt>
      <trkpt lat="52.346921" lon="4.891607"><ele>6.4</ele></trkpt>
      <trkpt lat="52.347004" lon="4.892699"><ele>8.0</ele></trkpt>
      <trkpt lat="52.346904" lon="4.894866"><ele>4.8</ele></trkpt>
      <trkpt lat="52.346707" lon="4.896480"><ele>5.6</ele></trkpt>
      <trkpt lat="52.346718" lon="4.897305"><ele>7.0</ele></trkpt>
      <trkpt lat="52.346457" lon="4.900687"><ele>6.6</ele></trkpt>
      <trkpt lat="52.346518" lon="4.902962"><ele>2.8</ele></trkpt>
      <trkpt lat="52.346472" lon="4.903194"><ele>4.0</ele></trkpt>
      <trkpt lat="52.346135" lon="4.903827"><ele>4.0</ele></trkpt>
      <trkpt lat="52.346229" lon="4.905126"><ele>3.8</ele></trkpt>
      <trkpt lat="52.346138" lon="4.905312"><ele>4.4</ele></trkpt>
      <trkpt lat="52.345380" lon="4.905538"><ele>5.0</ele></trkpt>
      <trkpt lat="52.344448" lon="4.906023"><ele>7.8</ele></trkpt>
      <trkpt lat="52.343208" lon="4.906484"><ele>6.0</ele></trkpt>
      <trkpt lat="52.341971" lon="4.906855"><ele>4.0</ele></trkpt>
      <trkpt lat="52.341116" lon="4.907287"><ele>4.0</ele></trkpt>
      <trkpt lat="52.340375" lon="4.907247"><ele>2.0</ele></trkpt>
      <trkpt lat="52.340219" lon="4.906348"><ele>0.8</ele></trkpt>
      <trkpt lat="52.340222" lon="4.905891"><ele>2.2</ele></trkpt>
      <trkpt lat="52.340721" lon="4.894667"><ele>3.0</ele></trkpt>
      <trkpt lat="52.340756" lon="4.895599"><ele>4.6</ele></trkpt>
      <trkpt lat="52.340688" lon="4.896731"><ele>8.2</ele></trkpt>
      <trkpt lat="52.340555" lon="4.897597"><ele>3.0</ele></trkpt>
      <trkpt lat="52.340599" lon="4.898506"><ele>3.4</ele></trkpt>
      <trkpt lat="52.340500" lon="4.899552"><ele>5.0</ele></trkpt>
      <trkpt lat="52.340466" lon="4.901616"><ele>7.6</ele></trkpt>
      <trkpt lat="52.339951" lon="4.901747"><ele>5.0</ele></trkpt>
      <trkpt lat="52.338576" lon="4.901494"><ele>8.0</ele></trkpt>
      <trkpt lat="52.338268" lon="4.901544"><ele>7.6</ele></trkpt>
      <trkpt lat="52.338052" lon="4.901754"><ele>7.0</ele></trkpt>
      <trkpt lat="52.336856" lon="4.905084"><ele>4.8</ele></trkpt>
      <trkpt lat="52.336778" lon="4.906085"><ele>6.6</ele></trkpt>
      <trkpt lat="52.336673" lon="4.906158"><ele>6.2</ele></trkpt>
      <trkpt lat="52.336038" lon="4.905988"><ele>5.6</ele></trkpt>
      <trkpt lat="52.335351" lon="4.905495"><ele>5.8</ele></trkpt>
      <trkpt lat="52.334682" lon="4.904898"><ele>9.0</ele></trkpt>
      <trkpt lat="52.334133" lon="4.904158"><ele>5.4</ele></trkpt>
      <trkpt lat="52.333971" lon="4.903732"><ele>5.0</ele></trkpt>
      <trkpt lat="52.333869" lon="4.903155"><ele>4.8</ele></trkpt>
      <trkpt lat="52.333832" lon="4.901809"><ele>3.8</ele></trkpt>
      <trkpt lat="52.333980" lon="4.900288"><ele>3.4</ele></trkpt>
      <trkpt lat="52.333762" lon="4.899117"><ele>3.2</ele></trkpt>
      <trkpt lat="52.333168" lon="4.898246"><ele>4.2</ele></trkpt>
      <trkpt lat="52.332641" lon="4.897745"><ele>3.6</ele></trkpt>
      <trkpt lat="52.331836" lon="4.897821"><ele>2.0</ele></trkpt>
      <trkpt lat="52.330438" lon="4.898411"><ele>5.6</ele></trkpt>
      <trkpt lat="52.330069" lon="4.898372"><ele>8.8</ele></trkpt>
      <trkpt lat="52.329677" lon="4.898146"><ele>8.8</ele></trkpt>
      <trkpt lat="52.329062" lon="4.897457"><ele>6.8</ele></trkpt>
      <trkpt lat="52.327922" lon="4.896472"><ele>9.2</ele></trkpt>
      <trkpt lat="52.325645" lon="4.895393"><ele>7.0</ele></trkpt>
      <trkpt lat="52.324313" lon="4.894522"><ele>0.4</ele></trkpt>
      <trkpt lat="52.323465" lon="4.894687"><ele>2.6</ele></trkpt>
      <trkpt lat="52.322719" lon="4.895101"><ele>1.0</ele></trkpt>
      <trkpt lat="52.322126" lon="4.895778"><ele>0.4</ele></trkpt>
      <trkpt lat="52.321701" lon="4.896432"><ele>0.2</ele></trkpt>
      <trkpt lat="52.321457" lon="4.897009"><ele>0.4</ele></trkpt>
      <trkpt lat="52.321270" lon="4.897959"><ele>-1.6</ele></trkpt>
      <trkpt lat="52.321171" lon="4.899533"><ele>-1.0</ele></trkpt>
      <trkpt lat="52.321188" lon="4.900823"><ele>-3.0</ele></trkpt>
      <trkpt lat="52.320982" lon="4.902118"><ele>0.0</ele></trkpt>
      <trkpt lat="52.319665" lon="4.905737"><ele>-3.8</ele></trkpt>
      <trkpt lat="52.319161" lon="4.907664"><ele>0.2</ele></trkpt>
      <trkpt lat="52.318767" lon="4.908399"><ele>1.6</ele></trkpt>
      <trkpt lat="52.318505" lon="4.908572"><ele>5.2</ele></trkpt>
      <trkpt lat="52.318076" lon="4.908419"><ele>5.2</ele></trkpt>
      <trkpt lat="52.317742" lon="4.908087"><ele>5.6</ele></trkpt>
      <trkpt lat="52.317530" lon="4.907629"><ele>4.0</ele></trkpt>
      <trkpt lat="52.316907" lon="4.905547"><ele>0.0</ele></trkpt>
      <trkpt lat="52.316488" lon="4.904977"><ele>1.4</ele></trkpt>
      <trkpt lat="52.316163" lon="4.904810"><ele>1.2</ele></trkpt>
      <trkpt lat="52.315753" lon="4.904814"><ele>0.0</ele></trkpt>
      <trkpt lat="52.314571" lon="4.905436"><ele>3.2</ele></trkpt>
      <trkpt lat="52.314021" lon="4.905489"><ele>3.6</ele></trkpt>
      <trkpt lat="52.313676" lon="4.905442"><ele>3.2</ele></trkpt>
      <trkpt lat="52.312125" lon="4.904670"><ele>-0.4</ele></trkpt>
      <trkpt lat="52.311302" lon="4.904528"><ele>-1.0</ele></trkpt>
      <trkpt lat="52.310938" lon="4.904585"><ele>-1.0</ele></trkpt>
      <trkpt lat="52.309782" lon="4.905073"><ele>-1.0</ele></trkpt>
      <trkpt lat="52.307601" lon="4.907256"><ele>-1.8</ele></trkpt>
      <trkpt lat="52.307237" lon="4.907342"><ele>0.2</ele></trkpt>
      <trkpt lat="52.306641" lon="4.907189"><ele>1.2</ele></trkpt>
      <trkpt lat="52.306290" lon="4.906933"><ele>0.2</ele></trkpt>
      <trkpt lat="52.305636" lon="4.906176"><ele>1.4</ele></trkpt>
      <trkpt lat="52.302519" lon="4.901533"><ele>2.8</ele></trkpt>
      <trkpt lat="52.301527" lon="4.899648"><ele>2.6</ele></trkpt>
      <trkpt lat="52.300648" lon="4.898571"><ele>3.0</ele></trkpt>
      <trkpt lat="52.300296" lon="4.898287"><ele>1.2</ele></trkpt>
      <trkpt lat="52.299377" lon="4.898022"><ele>1.6</ele></trkpt>
      <trkpt lat="52.299098" lon="4.898119"><ele>1.2</ele></trkpt>
      <trkpt lat="52.298503" lon="4.898698"><ele>0.4</ele></trkpt>
      <trkpt lat="52.298546" lon="4.898955"><ele>0.0</ele></trkpt>
      <trkpt lat="52.298959" lon="4.899858"><ele>1.6</ele></trkpt>
      <trkpt lat="52.299187" lon="4.899777"><ele>1.8</ele></trkpt>
      <trkpt lat="52.299441" lon="4.899328"><ele>1.2</ele></trkpt>
      <trkpt lat="52.299670" lon="4.899135"><ele>3.0</ele></trkpt>
      <trkpt lat="52.300009" lon="4.899196"><ele>2.6</ele></trkpt>
      <trkpt lat="52.300453" lon="4.899635"><ele>-0.8</ele></trkpt>
      <trkpt lat="52.300932" lon="4.900391"><ele>1.0</ele></trkpt>
      <trkpt lat="52.301317" lon="4.900810"><ele>0.0</ele></trkpt>
      <trkpt lat="52.302432" lon="4.902871"><ele>1.0</ele></trkpt>
      <trkpt lat="52.304019" lon="4.905272"><ele>1.0</ele></trkpt>
      <trkpt lat="52.304997" lon="4.906418"><ele>1.6</ele></trkpt>
      <trkpt lat="52.305489" lon="4.907287"><ele>1.2</ele></trkpt>
      <trkpt lat="52.306738" lon="4.908392"><ele>-1.8</ele></trkpt>
      <trkpt lat="52.307289" lon="4.908278"><ele>1.0</ele></trkpt>
      <trkpt lat="52.307995" lon="4.907842"><ele>6.8</ele></trkpt>
      <trkpt lat="52.309253" lon="4.906497"><ele>4.0</ele></trkpt>
      <trkpt lat="52.310874" lon="4.905744"><ele>4.0</ele></trkpt>
      <trkpt lat="52.311539" lon="4.905699"><ele>2.2</ele></trkpt>
      <trkpt lat="52.312373" lon="4.905856"><ele>0.0</ele></trkpt>
      <trkpt lat="52.313894" lon="4.906727"><ele>0.6</ele></trkpt>
      <trkpt lat="52.314685" lon="4.906536"><ele>3.0</ele></trkpt>
      <trkpt lat="52.315755" lon="4.906052"><ele>-2.8</ele></trkpt>
      <trkpt lat="52.316245" lon="4.906376"><ele>-1.4</ele></trkpt>
      <trkpt lat="52.316589" lon="4.906881"><ele>2.8</ele></trkpt>
      <trkpt lat="52.316966" lon="4.908249"><ele>-2.4</ele></trkpt>
      <trkpt lat="52.317448" lon="4.909383"><ele>1.6</ele></trkpt>
      <trkpt lat="52.317929" lon="4.910002"><ele>0.8</ele></trkpt>
      <trkpt lat="52.318473" lon="4.910307"><ele>-0.4</ele></trkpt>
      <trkpt lat="52.319030" lon="4.909749"><ele>2.0</ele></trkpt>
      <trkpt lat="52.319351" lon="4.909209"><ele>3.2</ele></trkpt>
      <trkpt lat="52.320530" lon="4.905280"><ele>1.4</ele></trkpt>
      <trkpt lat="52.321354" lon="4.903423"><ele>-3.0</ele></trkpt>
      <trkpt lat="52.321778" lon="4.901857"><ele>3.0</ele></trkpt>
      <trkpt lat="52.321860" lon="4.901311"><ele>2.8</ele></trkpt>
      <trkpt lat="52.321897" lon="4.898402"><ele>1.8</ele></trkpt>
      <trkpt lat="52.322602" lon="4.896834"><ele>1.2</ele></trkpt>
      <trkpt lat="52.322982" lon="4.896211"><ele>-1.0</ele></trkpt>
      <trkpt lat="52.323890" lon="4.895918"><ele>2.0</ele></trkpt>
      <trkpt lat="52.324731" lon="4.896095"><ele>5.6</ele></trkpt>
      <trkpt lat="52.325613" lon="4.896711"><ele>2.4</ele></trkpt>
      <trkpt lat="52.326722" lon="4.897191"><ele>0.6</ele></trkpt>
      <trkpt lat="52.327920" lon="4.897941"><ele>4.6</ele></trkpt>
      <trkpt lat="52.329289" lon="4.899411"><ele>1.2</ele></trkpt>
      <trkpt lat="52.329866" lon="4.899686"><ele>4.4</ele></trkpt>
      <trkpt lat="52.330888" lon="4.899809"><ele>1.0</ele></trkpt>
      <trkpt lat="52.331820" lon="4.899372"><ele>5.0</ele></trkpt>
      <trkpt lat="52.332593" lon="4.899825"><ele>4.4</ele></trkpt>
      <trkpt lat="52.332675" lon="4.900249"><ele>3.6</ele></trkpt>
      <trkpt lat="52.332955" lon="4.900761"><ele>-2.6</ele></trkpt>
      <trkpt lat="52.333069" lon="4.901181"><ele>-3.2</ele></trkpt>
      <trkpt lat="52.332861" lon="4.902975"><ele>2.0</ele></trkpt>
      <trkpt lat="52.332980" lon="4.905238"><ele>5.6</ele></trkpt>
      <trkpt lat="52.333249" lon="4.906297"><ele>4.6</ele></trkpt>
      <trkpt lat="52.333679" lon="4.907363"><ele>4.4</ele></trkpt>
      <trkpt lat="52.334360" lon="4.908612"><ele>3.2</ele></trkpt>
      <trkpt lat="52.334922" lon="4.909178"><ele>2.4</ele></trkpt>
      <trkpt lat="52.335880" lon="4.909373"><ele>3.6</ele></trkpt>
      <trkpt lat="52.337321" lon="4.909016"><ele>4.0</ele></trkpt>
      <trkpt lat="52.337662" lon="4.909036"><ele>3.2</ele></trkpt>
      <trkpt lat="52.338131" lon="4.909610"><ele>1.8</ele></trkpt>
      <trkpt lat="52.338448" lon="4.910278"><ele>3.0</ele></trkpt>
      <trkpt lat="52.338566" lon="4.910952"><ele>5.0</ele></trkpt>
      <trkpt lat="52.338469" lon="4.911553"><ele>3.0</ele></trkpt>
      <trkpt lat="52.338010" lon="4.912154"><ele>3.0</ele></trkpt>
      <trkpt lat="52.337263" lon="4.912445"><ele>8.2</ele></trkpt>
      <trkpt lat="52.336853" lon="4.912783"><ele>6.8</ele></trkpt>
      <trkpt lat="52.335791" lon="4.912958"><ele>0.2</ele></trkpt>
      <trkpt lat="52.335037" lon="4.913263"><ele>0.4</ele></trkpt>
      <trkpt lat="52.334569" lon="4.913209"><ele>1.2</ele></trkpt>
      <trkpt lat="52.333425" lon="4.913349"><ele>4.4</ele></trkpt>
      <trkpt lat="52.332206" lon="4.913602"><ele>3.6</ele></trkpt>
      <trkpt lat="52.331941" lon="4.913753"><ele>4.0</ele></trkpt>
      <trkpt lat="52.331236" lon="4.914250"><ele>5.0</ele></trkpt>
      <trkpt lat="52.329222" lon="4.916109"><ele>1.6</ele></trkpt>
      <trkpt lat="52.328560" lon="4.916955"><ele>3.0</ele></trkpt>
      <trkpt lat="52.328038" lon="4.917217"><ele>0.2</ele></trkpt>
      <trkpt lat="52.327504" lon="4.917661"><ele>0.4</ele></trkpt>
      <trkpt lat="52.325432" lon="4.919664"><ele>1.6</ele></trkpt>
      <trkpt lat="52.325350" lon="4.919899"><ele>1.2</ele></trkpt>
      <trkpt lat="52.326482" lon="4.923413"><ele>3.6</ele></trkpt>
      <trkpt lat="52.327732" lon="4.926775"><ele>2.0</ele></trkpt>
      <trkpt lat="52.328545" lon="4.929220"><ele>2.4</ele></trkpt>
      <trkpt lat="52.329044" lon="4.930736"><ele>3.0</ele></trkpt>
      <trkpt lat="52.329141" lon="4.931356"><ele>2.4</ele></trkpt>
      <trkpt lat="52.329737" lon="4.932585"><ele>2.8</ele></trkpt>
      <trkpt lat="52.330024" lon="4.933576"><ele>3.8</ele></trkpt>
      <trkpt lat="52.330056" lon="4.933830"><ele>4.4</ele></trkpt>
      <trkpt lat="52.329684" lon="4.937211"><ele>3.0</ele></trkpt>
      <trkpt lat="52.329416" lon="4.938468"><ele>5.2</ele></trkpt>
      <trkpt lat="52.329346" lon="4.939678"><ele>5.2</ele></trkpt>
      <trkpt lat="52.329191" lon="4.940685"><ele>3.8</ele></trkpt>
      <trkpt lat="52.329212" lon="4.941155"><ele>4.0</ele></trkpt>
      <trkpt lat="52.329404" lon="4.941916"><ele>2.6</ele></trkpt>
      <trkpt lat="52.330597" lon="4.945314"><ele>1.4</ele></trkpt>
      <trkpt lat="52.330720" lon="4.945852"><ele>0.8</ele></trkpt>
      <trkpt lat="52.331360" lon="4.947676"><ele>0.8</ele></trkpt>
      <trkpt lat="52.331568" lon="4.948019"><ele>-0.2</ele></trkpt>
      <trkpt lat="52.332244" lon="4.947555"><ele>0.2</ele></trkpt>
      <trkpt lat="52.333137" lon="4.947559"><ele>-0.8</ele></trkpt>
      <trkpt lat="52.333518" lon="4.947134"><ele>1.6</ele></trkpt>
      <trkpt lat="52.334123" lon="4.946175"><ele>-1.2</ele></trkpt>
      <trkpt lat="52.334863" lon="4.946974"><ele>2.0</ele></trkpt>
      <trkpt lat="52.335009" lon="4.946945"><ele>1.2</ele></trkpt>
      <trkpt lat="52.335626" lon="4.945440"><ele>2.8</ele></trkpt>
      <trkpt lat="52.336652" lon="4.944042"><ele>1.8</ele></trkpt>
      <trkpt lat="52.337563" lon="4.942492"><ele>5.0</ele></trkpt>
      <trkpt lat="52.337729" lon="4.941930"><ele>6.6</ele></trkpt>
      <trkpt lat="52.338279" lon="4.940765"><ele>0.4</ele></trkpt>
      <trkpt lat="52.339107" lon="4.939373"><ele>1.0</ele></trkpt>
      <trkpt lat="52.339520" lon="4.938924"><ele>-3.2</ele></trkpt>
      <trkpt lat="52.339752" lon="4.938351"><ele>-2.6</ele></trkpt>
      <trkpt lat="52.340863" lon="4.936580"><ele>0.8</ele></trkpt>
      <trkpt lat="52.342282" lon="4.934475"><ele>4.6</ele></trkpt>
      <trkpt lat="52.342937" lon="4.933618"><ele>-1.2</ele></trkpt>
      <trkpt lat="52.343383" lon="4.933298"><ele>-0.4</ele></trkpt>
      <trkpt lat="52.343768" lon="4.933518"><ele>1.8</ele></trkpt>
      <trkpt lat="52.344286" lon="4.934260"><ele>-1.2</ele></trkpt>
      <trkpt lat="52.344428" lon="4.934308"><ele>-2.0</ele></trkpt>
      <trkpt lat="52.344560" lon="4.934193"><ele>-2.0</ele></trkpt>
      <trkpt lat="52.346871" lon="4.930255"><ele>-1.4</ele></trkpt>
      <trkpt lat="52.347578" lon="4.929326"><ele>-1.2</ele></trkpt>
      <trkpt lat="52.348922" lon="4.931629"><ele>-1.8</ele></trkpt>
      <trkpt lat="52.349758" lon="4.933276"><ele>2.0</ele></trkpt>
      <trkpt lat="52.350967" lon="4.935120"><ele>0.4</ele></trkpt>
      <trkpt lat="52.352180" lon="4.937471"><ele>0.4</ele></trkpt>
      <trkpt lat="52.352861" lon="4.938423"><ele>0.6</ele></trkpt>
      <trkpt lat="52.353185" lon="4.939100"><ele>-1.6</ele></trkpt>
      <trkpt lat="52.354550" lon="4.941257"><ele>0.0</ele></trkpt>
      <trkpt lat="52.354758" lon="4.941147"><ele>-0.2</ele></trkpt>
      <trkpt lat="52.355716" lon="4.939535"><ele>1.2</ele></trkpt>
      <trkpt lat="52.355957" lon="4.939280"><ele>1.4</ele></trkpt>
      <trkpt lat="52.356461" lon="4.939805"><ele>-0.6</ele></trkpt>
      <trkpt lat="52.356862" lon="4.940002"><ele>-0.2</ele></trkpt>
      <trkpt lat="52.357234" lon="4.940767"><ele>0.4</ele></trkpt>
      <trkpt lat="52.357801" lon="4.941042"><ele>1.4</ele></trkpt>
      <trkpt lat="52.359155" lon="4.940605"><ele>3.2</ele></trkpt>
      <trkpt lat="52.359831" lon="4.940207"><ele>7.6</ele></trkpt>
      <trkpt lat="52.361370" lon="4.939605"><ele>4.0</ele></trkpt>
      <trkpt lat="52.361682" lon="4.939690"><ele>3.0</ele></trkpt>
      <trkpt lat="52.362110" lon="4.939455"><ele>3.8</ele></trkpt>
      <trkpt lat="52.362962" lon="4.939415"><ele>6.8</ele></trkpt>
      <trkpt lat="52.363773" lon="4.939530"><ele>3.6</ele></trkpt>
      <trkpt lat="52.364657" lon="4.939297"><ele>6.6</ele></trkpt>
      <trkpt lat="52.365962" lon="4.939355"><ele>3.8</ele></trkpt>
      <trkpt lat="52.366124" lon="4.939208"><ele>3.2</ele></trkpt>
      <trkpt lat="52.366048" lon="4.935013"><ele>6.8</ele></trkpt>
      <trkpt lat="52.366107" lon="4.933866"><ele>3.2</ele></trkpt>
      <trkpt lat="52.365967" lon="4.931703"><ele>5.0</ele></trkpt>
      <trkpt lat="52.366030" lon="4.931260"><ele>4.0</ele></trkpt>
      <trkpt lat="52.365888" lon="4.929371"><ele>6.4</ele></trkpt>
      <trkpt lat="52.365887" lon="4.927657"><ele>6.6</ele></trkpt>
      <trkpt lat="52.365784" lon="4.926609"><ele>6.4</ele></trkpt>
      <trkpt lat="52.364804" lon="4.924511"><ele>8.8</ele></trkpt>
      <trkpt lat="52.363298" lon="4.922272"><ele>4.8</ele></trkpt>
      <trkpt lat="52.363160" lon="4.921845"><ele>3.0</ele></trkpt>
      <trkpt lat="52.363000" lon="4.920338"><ele>7.0</ele></trkpt>
      <trkpt lat="52.362427" lon="4.919587"><ele>7.0</ele></trkpt>
      <trkpt lat="52.362075" lon="4.918926"><ele>7.4</ele></trkpt>
      <trkpt lat="52.361942" lon="4.918484"><ele>5.0</ele></trkpt>
      <trkpt lat="52.361823" lon="4.917889"><ele>4.6</ele></trkpt>
      <trkpt lat="52.361756" lon="4.916122"><ele>3.0</ele></trkpt>
      <trkpt lat="52.361207" lon="4.914123"><ele>4.6</ele></trkpt>
      <trkpt lat="52.360962" lon="4.911953"><ele>2.2</ele></trkpt>
      <trkpt lat="52.360478" lon="4.910963"><ele>1.2</ele></trkpt>
      <trkpt lat="52.360317" lon="4.910457"><ele>2.8</ele></trkpt>
      <trkpt lat="52.360182" lon="4.908391"><ele>5.4</ele></trkpt>
      <trkpt lat="52.359328" lon="4.906580"><ele>3.2</ele></trkpt>
      <trkpt lat="52.357645" lon="4.898296"><ele>4.4</ele></trkpt>
      <trkpt lat="52.357826" lon="4.893075"><ele>10.4</ele></trkpt>
      <trkpt lat="52.357958" lon="4.892197"><ele>8.0</ele></trkpt>
      <trkpt lat="52.357997" lon="4.890849"><ele>6.4</ele></trkpt>
      <trkpt lat="52.358179" lon="4.889764"><ele>8.6</ele></trkpt>
      <trkpt lat="52.358402" lon="4.889169"><ele>7.6</ele></trkpt>
      <trkpt lat="52.359003" lon="4.888125"><ele>4.8</ele></trkpt>
      <trkpt lat="52.360017" lon="4.887002"><ele>4.8</ele></trkpt>
      <trkpt lat="52.360777" lon="4.885158"><ele>6.4</ele></trkpt>
      <trkpt lat="52.361473" lon="4.884042"><ele>5.4</ele></trkpt>
      <trkpt lat="52.361683" lon="4.883142"><ele>3.8</ele></trkpt>
      <trkpt lat="52.361686" lon="4.881739"><ele>7.8</ele></trkpt>
      <trkpt lat="52.360707" lon="4.878852"><ele>4.6</ele></trkpt>
      <trkpt lat="52.360548" lon="4.877134"><ele>2.2</ele></trkpt>
      <trkpt lat="52.360286" lon="4.876100"><ele>1.8</ele></trkpt>
      <trkpt lat="52.360099" lon="4.875696"><ele>1.0</ele></trkpt>
      <trkpt lat="52.359567" lon="4.874953"><ele>2.4</ele></trkpt>
      <trkpt lat="52.358871" lon="4.874553"><ele>4.0</ele></trkpt>
      <trkpt lat="52.358365" lon="4.873780"><ele>3.4</ele></trkpt>
      <trkpt lat="52.358129" lon="4.872901"><ele>1.2</ele></trkpt>
      <trkpt lat="52.357998" lon="4.871806"><ele>3.0</ele></trkpt>
      <trkpt lat="52.357478" lon="4.870459"><ele>1.8</ele></trkpt>
      <trkpt lat="52.357376" lon="4.869139"><ele>5.4</ele></trkpt>
      <trkpt lat="52.356936" lon="4.868161"><ele>2.0</ele></trkpt>
      <trkpt lat="52.356510" lon="4.866905"><ele>0.6</ele></trkpt>
      <trkpt lat="52.356200" lon="4.864998"><ele>1.6</ele></trkpt>
      <trkpt lat="52.356106" lon="4.863162"><ele>3.2</ele></trkpt>
      <trkpt lat="52.355988" lon="4.862216"><ele>4.6</ele></trkpt>
      <trkpt lat="52.355131" lon="4.858818"><ele>0.0</ele></trkpt>
      <trkpt lat="52.355081" lon="4.858120"><ele>1.2</ele></trkpt>
      <trkpt lat="52.355139" lon="4.856802"><ele>4.0</ele></trkpt>
      <trkpt lat="52.354963" lon="4.855945"><ele>4.0</ele></trkpt>
      <trkpt lat="52.354839" lon="4.855633"><ele>4.0</ele></trkpt>
      <trkpt lat="52.354419" lon="4.855572"><ele>5.0</ele></trkpt>
      <trkpt lat="52.353808" lon="4.856024"><ele>5.8</ele></trkpt>
      <trkpt lat="52.352203" lon="4.856456"><ele>4.0</ele></trkpt>
      <trkpt lat="52.350161" lon="4.857446"><ele>3.6</ele></trkpt>
      <trkpt lat="52.349949" lon="4.857981"><ele>5.4</ele></trkpt>
      <trkpt lat="52.349745" lon="4.858152"><ele>5.2</ele></trkpt>
      <trkpt lat="52.349586" lon="4.858131"><ele>5.0</ele></trkpt>
      <trkpt lat="52.349387" lon="4.857829"><ele>3.8</ele></trkpt>
      <trkpt lat="52.349176" lon="4.857766"><ele>4.0</ele></trkpt>
      <trkpt lat="52.348506" lon="4.857956"><ele>3.8</ele></trkpt>
      <trkpt lat="52.347058" lon="4.857892"><ele>8.0</ele></trkpt>
      <trkpt lat="52.345473" lon="4.858064"><ele>4.8</ele></trkpt>
      <trkpt lat="52.345258" lon="4.857910"><ele>4.0</ele></trkpt>
      <trkpt lat="52.345113" lon="4.856855"><ele>2.8</ele></trkpt>
      <trkpt lat="52.344981" lon="4.856583"><ele>2.2</ele></trkpt>
      <trkpt lat="52.344480" lon="4.856585"><ele>6.4</ele></trkpt>
      <trkpt lat="52.344073" lon="4.856786"><ele>4.6</ele></trkpt>
      <trkpt lat="52.343904" lon="4.856695"><ele>3.4</ele></trkpt>
      <trkpt lat="52.343734" lon="4.855988"><ele>2.0</ele></trkpt>
      <trkpt lat="52.343635" lon="4.854943"><ele>4.4</ele></trkpt>
      <trkpt lat="52.343760" lon="4.854663"><ele>5.4</ele></trkpt>
      <trkpt lat="52.344085" lon="4.854364"><ele>4.2</ele></trkpt>
      <trkpt lat="52.344203" lon="4.854083"><ele>3.4</ele></trkpt>
      <trkpt lat="52.344115" lon="4.853575"><ele>3.0</ele></trkpt>
      <trkpt lat="52.343877" lon="4.853403"><ele>4.8</ele></trkpt>
      <trkpt lat="52.342915" lon="4.853702"><ele>4.0</ele></trkpt>
    </trkseg>
  </trk>
</gpx>
