<?xml version="1.0" encoding="UTF-8"?>
<gpx version="1.1" creator="gpx-processor" xmlns="http://www.topografix.com/GPX/1/1">
  <metadata><name>Trail de Côté Sauvage</name></metadata>
  <trk>
    <name>Trail de Côté Sauvage</name>
    <trkseg>
      <trkpt lat="45.799570" lon="-1.165632"><ele>2.2</ele></trkpt>
      <trkpt lat="45.798876" lon="-1.166847"><ele>2.6</ele></trkpt>
      <trkpt lat="45.797750" lon="-1.168426"><ele>2.8</ele></trkpt>
      <trkpt lat="45.795773" lon="-1.171080"><ele>3.8</ele></trkpt>
      <trkpt lat="45.795347" lon="-1.171460"><ele>5.4</ele></trkpt>
      <trkpt lat="45.795192" lon="-1.170575"><ele>7.2</ele></trkpt>
      <trkpt lat="45.795194" lon="-1.169755"><ele>6.2</ele></trkpt>
      <trkpt lat="45.794628" lon="-1.168672"><ele>7.0</ele></trkpt>
      <trkpt lat="45.793895" lon="-1.167633"><ele>8.4</ele></trkpt>
      <trkpt lat="45.793240" lon="-1.162219"><ele>9.2</ele></trkpt>
      <trkpt lat="45.793037" lon="-1.161918"><ele>9.2</ele></trkpt>
      <trkpt lat="45.792909" lon="-1.161849"><ele>9.6</ele></trkpt>
      <trkpt lat="45.792748" lon="-1.161960"><ele>10.8</ele></trkpt>
      <trkpt lat="45.792501" lon="-1.162592"><ele>15.0</ele></trkpt>
      <trkpt lat="45.792349" lon="-1.162742"><ele>16.0</ele></trkpt>
      <trkpt lat="45.791127" lon="-1.162358"><ele>16.6</ele></trkpt>
      <trkpt lat="45.790869" lon="-1.162444"><ele>16.4</ele></trkpt>
      <trkpt lat="45.789036" lon="-1.163984"><ele>23.6</ele></trkpt>
      <trkpt lat="45.787664" lon="-1.164680"><ele>20.0</ele></trkpt>
      <trkpt lat="45.787471" lon="-1.165003"><ele>20.2</ele></trkpt>
      <trkpt lat="45.787335" lon="-1.165628"><ele>19.4</ele></trkpt>
      <trkpt lat="45.787273" lon="-1.165485"><ele>19.4</ele></trkpt>
      <trkpt lat="45.787239" lon="-1.164483"><ele>16.2</ele></trkpt>
      <trkpt lat="45.787130" lon="-1.164348"><ele>13.2</ele></trkpt>
      <trkpt lat="45.787007" lon="-1.164378"><ele>10.6</ele></trkpt>
      <trkpt lat="45.786186" lon="-1.165510"><ele>11.2</ele></trkpt>
      <trkpt lat="45.785879" lon="-1.166365"><ele>11.6</ele></trkpt>
      <trkpt lat="45.784916" lon="-1.166721"><ele>10.6</ele></trkpt>
      <trkpt lat="45.784186" lon="-1.167689"><ele>10.8</ele></trkpt>
      <trkpt lat="45.783370" lon="-1.170439"><ele>11.0</ele></trkpt>
      <trkpt lat="45.782625" lon="-1.171731"><ele>10.2</ele></trkpt>
      <trkpt lat="45.782175" lon="-1.172200"><ele>10.8</ele></trkpt>
      <trkpt lat="45.782035" lon="-1.172457"><ele>10.6</ele></trkpt>
      <trkpt lat="45.781440" lon="-1.174923"><ele>12.0</ele></trkpt>
      <trkpt lat="45.780531" lon="-1.177801"><ele>9.4</ele></trkpt>
      <trkpt lat="45.779513" lon="-1.178452"><ele>9.0</ele></trkpt>
      <trkpt lat="45.778462" lon="-1.179484"><ele>8.6</ele></trkpt>
      <trkpt lat="45.778143" lon="-1.179482"><ele>8.0</ele></trkpt>
      <trkpt lat="45.777611" lon="-1.179120"><ele>8.6</ele></trkpt>
      <trkpt lat="45.777154" lon="-1.179422"><ele>9.6</ele></trkpt>
      <trkpt lat="45.775558" lon="-1.179462"><ele>9.6</ele></trkpt>
      <trkpt lat="45.775425" lon="-1.174552"><ele>9.0</ele></trkpt>
      <trkpt lat="45.775387" lon="-1.174352"><ele>8.6</ele></trkpt>
      <trkpt lat="45.775291" lon="-1.174283"><ele>8.4</ele></trkpt>
      <trkpt lat="45.771534" lon="-1.174413"><ele>8.8</ele></trkpt>
      <trkpt lat="45.770203" lon="-1.175609"><ele>10.6</ele></trkpt>
      <trkpt lat="45.769957" lon="-1.175706"><ele>10.2</ele></trkpt>
      <trkpt lat="45.769226" lon="-1.175651"><ele>9.4</ele></trkpt>
      <trkpt lat="45.768465" lon="-1.175313"><ele>10.2</ele></trkpt>
      <trkpt lat="45.767933" lon="-1.174839"><ele>12.0</ele></trkpt>
      <trkpt lat="45.767801" lon="-1.174874"><ele>12.2</ele></trkpt>
      <trkpt lat="45.767267" lon="-1.176587"><ele>10.2</ele></trkpt>
      <trkpt lat="45.766924" lon="-1.179334"><ele>11.2</ele></trkpt>
      <trkpt lat="45.766760" lon="-1.180127"><ele>13.2</ele></trkpt>
      <trkpt lat="45.766526" lon="-1.180793"><ele>12.2</ele></trkpt>
      <trkpt lat="45.766287" lon="-1.182231"><ele>13.2</ele></trkpt>
      <trkpt lat="45.766250" lon="-1.182826"><ele>12.8</ele></trkpt>
      <trkpt lat="45.766365" lon="-1.184275"><ele>10.6</ele></trkpt>
      <trkpt lat="45.766353" lon="-1.184998"><ele>10.8</ele></trkpt>
      <trkpt lat="45.765948" lon="-1.186002"><ele>10.0</ele></trkpt>
      <trkpt lat="45.765322" lon="-1.186634"><ele>10.4</ele></trkpt>
      <trkpt lat="45.764997" lon="-1.188025"><ele>10.6</ele></trkpt>
      <trkpt lat="45.764928" lon="-1.188845"><ele>11.0</ele></trkpt>
      <trkpt lat="45.765121" lon="-1.189611"><ele>10.2</ele></trkpt>
      <trkpt lat="45.765181" lon="-1.190229"><ele>10.4</ele></trkpt>
      <trkpt lat="45.765134" lon="-1.191093"><ele>10.2</ele></trkpt>
      <trkpt lat="45.765481" lon="-1.192604"><ele>9.2</ele></trkpt>
      <trkpt lat="45.765445" lon="-1.192805"><ele>9.2</ele></trkpt>
      <trkpt lat="45.763867" lon="-1.192915"><ele>10.6</ele></trkpt>
      <trkpt lat="45.763698" lon="-1.192804"><ele>11.0</ele></trkpt>
      <trkpt lat="45.763478" lon="-1.195473"><ele>17.4</ele></trkpt>
      <trkpt lat="45.761651" lon="-1.196424"><ele>12.8</ele></trkpt>
      <trkpt lat="45.760852" lon="-1.196989"><ele>11.2</ele></trkpt>
      <trkpt lat="45.757095" lon="-1.199215"><ele>12.4</ele></trkpt>
      <trkpt lat="45.756519" lon="-1.199494"><ele>12.4</ele></trkpt>
      <trkpt lat="45.755313" lon="-1.199602"><ele>11.0</ele></trkpt>
      <trkpt lat="45.755219" lon="-1.199731"><ele>11.4</ele></trkpt>
      <trkpt lat="45.755337" lon="-1.200654"><ele>18.6</ele></trkpt>
      <trkpt lat="45.755293" lon="-1.201272"><ele>22.0</ele></trkpt>
      <trkpt lat="45.755593" lon="-1.209274"><ele>27.0</ele></trkpt>
      <trkpt lat="45.755673" lon="-1.215763"><ele>19.0</ele></trkpt>
      <trkpt lat="45.755747" lon="-1.217012"><ele>13.6</ele></trkpt>
      <trkpt lat="45.755852" lon="-1.217105"><ele>13.2</ele></trkpt>
      <trkpt lat="45.757118" lon="-1.217079"><ele>19.6</ele></trkpt>
      <trkpt lat="45.757543" lon="-1.216927"><ele>21.4</ele></trkpt>
      <trkpt lat="45.757414" lon="-1.209749"><ele>27.2</ele></trkpt>
      <trkpt lat="45.757328" lon="-1.208634"><ele>15.0</ele></trkpt>
      <trkpt lat="45.757377" lon="-1.208399"><ele>14.8</ele></trkpt>
      <trkpt lat="45.758717" lon="-1.208198"><ele>10.8</ele></trkpt>
      <trkpt lat="45.759214" lon="-1.208780"><ele>15.2</ele></trkpt>
      <trkpt lat="45.759545" lon="-1.209529"><ele>23.6</ele></trkpt>
      <trkpt lat="45.759816" lon="-1.209924"><ele>24.2</ele></trkpt>
      <trkpt lat="45.760428" lon="-1.210365"><ele>22.6</ele></trkpt>
      <trkpt lat="45.760861" lon="-1.210340"><ele>22.2</ele></trkpt>
      <trkpt lat="45.760990" lon="-1.209548"><ele>24.6</ele></trkpt>
      <trkpt lat="45.761776" lon="-1.209692"><ele>26.4</ele></trkpt>
      <trkpt lat="45.762186" lon="-1.209513"><ele>29.4</ele></trkpt>
      <trkpt lat="45.762731" lon="-1.209511"><ele>32.8</ele></trkpt>
      <trkpt lat="45.762575" lon="-1.205371"><ele>26.2</ele></trkpt>
      <trkpt lat="45.762551" lon="-1.201913"><ele>27.0</ele></trkpt>
      <trkpt lat="45.762431" lon="-1.199423"><ele>13.0</ele></trkpt>
      <trkpt lat="45.762881" lon="-1.199556"><ele>13.6</ele></trkpt>
      <trkpt lat="45.764343" lon="-1.199123"><ele>20.8</ele></trkpt>
      <trkpt lat="45.764776" lon="-1.199177"><ele>18.2</ele></trkpt>
      <trkpt lat="45.765893" lon="-1.199648"><ele>11.6</ele></trkpt>
      <trkpt lat="45.765994" lon="-1.200022"><ele>11.6</ele></trkpt>
      <trkpt lat="45.766063" lon="-1.202302"><ele>20.6</ele></trkpt>
      <trkpt lat="45.766153" lon="-1.202334"><ele>20.6</ele></trkpt>
      <trkpt lat="45.766435" lon="-1.201973"><ele>15.4</ele></trkpt>
      <trkpt lat="45.766588" lon="-1.201910"><ele>13.4</ele></trkpt>
      <trkpt lat="45.766839" lon="-1.202029"><ele>13.6</ele></trkpt>
      <trkpt lat="45.767153" lon="-1.202394"><ele>11.6</ele></trkpt>
      <trkpt lat="45.767436" lon="-1.202428"><ele>11.2</ele></trkpt>
      <trkpt lat="45.767599" lon="-1.202567"><ele>11.4</ele></trkpt>
      <trkpt lat="45.768118" lon="-1.203384"><ele>18.6</ele></trkpt>
      <trkpt lat="45.768298" lon="-1.204023"><ele>38.8</ele></trkpt>
      <trkpt lat="45.768706" lon="-1.204858"><ele>45.2</ele></trkpt>
      <trkpt lat="45.769765" lon="-1.206546"><ele>43.8</ele></trkpt>
      <trkpt lat="45.770482" lon="-1.207475"><ele>43.2</ele></trkpt>
      <trkpt lat="45.771739" lon="-1.209556"><ele>25.8</ele></trkpt>
      <trkpt lat="45.771806" lon="-1.209447"><ele>24.4</ele></trkpt>
      <trkpt lat="45.771705" lon="-1.208129"><ele>31.4</ele></trkpt>
      <trkpt lat="45.771719" lon="-1.205932"><ele>33.2</ele></trkpt>
      <trkpt lat="45.771538" lon="-1.201693"><ele>10.0</ele></trkpt>
      <trkpt lat="45.772051" lon="-1.201876"><ele>9.2</ele></trkpt>
      <trkpt lat="45.773307" lon="-1.201228"><ele>9.2</ele></trkpt>
      <trkpt lat="45.773917" lon="-1.201407"><ele>10.2</ele></trkpt>
      <trkpt lat="45.774261" lon="-1.201288"><ele>10.4</ele></trkpt>
      <trkpt lat="45.775140" lon="-1.199996"><ele>9.8</ele></trkpt>
      <trkpt lat="45.775459" lon="-1.198879"><ele>10.0</ele></trkpt>
      <trkpt lat="45.776112" lon="-1.197533"><ele>12.2</ele></trkpt>
      <trkpt lat="45.777182" lon="-1.197761"><ele>10.2</ele></trkpt>
      <trkpt lat="45.777909" lon="-1.197800"><ele>10.2</ele></trkpt>
      <trkpt lat="45.777976" lon="-1.197883"><ele>10.0</ele></trkpt>
      <trkpt lat="45.777906" lon="-1.198164"><ele>10.2</ele></trkpt>
      <trkpt lat="45.777951" lon="-1.198378"><ele>11.4</ele></trkpt>
      <trkpt lat="45.778130" lon="-1.198481"><ele>14.8</ele></trkpt>
      <trkpt lat="45.778421" lon="-1.198428"><ele>17.2</ele></trkpt>
      <trkpt lat="45.778566" lon="-1.198564"><ele>19.2</ele></trkpt>
      <trkpt lat="45.778573" lon="-1.198942"><ele>20.8</ele></trkpt>
      <trkpt lat="45.778785" lon="-1.199706"><ele>20.0</ele></trkpt>
      <trkpt lat="45.778956" lon="-1.200758"><ele>18.0</ele></trkpt>
      <trkpt lat="45.778951" lon="-1.201751"><ele>14.2</ele></trkpt>
      <trkpt lat="45.778840" lon="-1.202269"><ele>11.0</ele></trkpt>
      <trkpt lat="45.778900" lon="-1.202406"><ele>10.2</ele></trkpt>
      <trkpt lat="45.780489" lon="-1.202455"><ele>33.4</ele></trkpt>
      <trkpt lat="45.781515" lon="-1.202358"><ele>32.0</ele></trkpt>
      <trkpt lat="45.781625" lon="-1.202479"><ele>29.6</ele></trkpt>
      <trkpt lat="45.781255" lon="-1.204724"><ele>23.6</ele></trkpt>
      <trkpt lat="45.781329" lon="-1.206288"><ele>17.6</ele></trkpt>
      <trkpt lat="45.781276" lon="-1.206929"><ele>20.4</ele></trkpt>
      <trkpt lat="45.781621" lon="-1.207823"><ele>14.0</ele></trkpt>
      <trkpt lat="45.781856" lon="-1.209091"><ele>11.2</ele></trkpt>
      <trkpt lat="45.782133" lon="-1.209912"><ele>13.8</ele></trkpt>
      <trkpt lat="45.782047" lon="-1.210030"><ele>13.4</ele></trkpt>
      <trkpt lat="45.780830" lon="-1.210063"><ele>32.8</ele></trkpt>
      <trkpt lat="45.780740" lon="-1.210174"><ele>33.6</ele></trkpt>
      <trkpt lat="45.780805" lon="-1.215149"><ele>6.8</ele></trkpt>
      <trkpt lat="45.779196" lon="-1.215262"><ele>22.2</ele></trkpt>
      <trkpt lat="45.776615" lon="-1.215274"><ele>14.8</ele></trkpt>
      <trkpt lat="45.776289" lon="-1.215357"><ele>12.6</ele></trkpt>
      <trkpt lat="45.776151" lon="-1.215646"><ele>9.6</ele></trkpt>
      <trkpt lat="45.775375" lon="-1.214690"><ele>32.4</ele></trkpt>
      <trkpt lat="45.773974" lon="-1.213543"><ele>59.2</ele></trkpt>
      <trkpt lat="45.773618" lon="-1.214169"><ele>54.4</ele></trkpt>
      <trkpt lat="45.772426" lon="-1.214576"><ele>41.2</ele></trkpt>
      <trkpt lat="45.772195" lon="-1.214822"><ele>46.0</ele></trkpt>
      <trkpt lat="45.771906" lon="-1.214814"><ele>45.6</ele></trkpt>
      <trkpt lat="45.771832" lon="-1.214968"><ele>45.0</ele></trkpt>
      <trkpt lat="45.771645" lon="-1.215033"><ele>44.8</ele></trkpt>
      <trkpt lat="45.771293" lon="-1.214723"><ele>39.2</ele></trkpt>
      <trkpt lat="45.770971" lon="-1.214620"><ele>39.2</ele></trkpt>
      <trkpt lat="45.770538" lon="-1.214054"><ele>37.2</ele></trkpt>
      <trkpt lat="45.769640" lon="-1.213204"><ele>35.2</ele></trkpt>
      <trkpt lat="45.769275" lon="-1.213110"><ele>42.2</ele></trkpt>
      <trkpt lat="45.768833" lon="-1.212789"><ele>54.6</ele></trkpt>
      <trkpt lat="45.768322" lon="-1.212647"><ele>63.4</ele></trkpt>
      <trkpt lat="45.768236" lon="-1.213010"><ele>63.0</ele></trkpt>
      <trkpt lat="45.768302" lon="-1.213667"><ele>59.6</ele></trkpt>
      <trkpt lat="45.768259" lon="-1.215064"><ele>52.8</ele></trkpt>
      <trkpt lat="45.768344" lon="-1.216166"><ele>37.2</ele></trkpt>
      <trkpt lat="45.768440" lon="-1.216256"><ele>34.4</ele></trkpt>
      <trkpt lat="45.768934" lon="-1.216273"><ele>32.4</ele></trkpt>
      <trkpt lat="45.771603" lon="-1.216162"><ele>38.6</ele></trkpt>
      <trkpt lat="45.772064" lon="-1.216497"><ele>39.4</ele></trkpt>
      <trkpt lat="45.772957" lon="-1.216864"><ele>36.8</ele></trkpt>
      <trkpt lat="45.773027" lon="-1.216995"><ele>37.4</ele></trkpt>
      <trkpt lat="45.773148" lon="-1.217415"><ele>35.8</ele></trkpt>
      <trkpt lat="45.773087" lon="-1.217587"><ele>34.0</ele></trkpt>
      <trkpt lat="45.772873" lon="-1.217646"><ele>30.8</ele></trkpt>
      <trkpt lat="45.772694" lon="-1.217875"><ele>26.6</ele></trkpt>
      <trkpt lat="45.771990" lon="-1.217802"><ele>22.8</ele></trkpt>
      <trkpt lat="45.771917" lon="-1.217883"><ele>22.6</ele></trkpt>
      <trkpt lat="45.772007" lon="-1.220612"><ele>30.0</ele></trkpt>
      <trkpt lat="45.771593" lon="-1.220782"><ele>29.6</ele></trkpt>
      <trkpt lat="45.770303" lon="-1.220695"><ele>16.4</ele></trkpt>
      <trkpt lat="45.770186" lon="-1.220894"><ele>14.2</ele></trkpt>
      <trkpt lat="45.770187" lon="-1.221653"><ele>14.6</ele></trkpt>
      <trkpt lat="45.770564" lon="-1.222313"><ele>15.8</ele></trkpt>
      <trkpt lat="45.770642" lon="-1.222888"><ele>17.8</ele></trkpt>
      <trkpt lat="45.771138" lon="-1.223839"><ele>12.0</ele></trkpt>
      <trkpt lat="45.771341" lon="-1.224857"><ele>6.4</ele></trkpt>
      <trkpt lat="45.771705" lon="-1.225554"><ele>7.6</ele></trkpt>
      <trkpt lat="45.772115" lon="-1.225920"><ele>7.6</ele></trkpt>
      <trkpt lat="45.772169" lon="-1.228803"><ele>5.8</ele></trkpt>
      <trkpt lat="45.772235" lon="-1.228914"><ele>6.0</ele></trkpt>
      <trkpt lat="45.773964" lon="-1.228881"><ele>7.8</ele></trkpt>
      <trkpt lat="45.784776" lon="-1.228114"><ele>7.4</ele></trkpt>
      <trkpt lat="45.784827" lon="-1.227804"><ele>7.2</ele></trkpt>
      <trkpt lat="45.784705" lon="-1.225325"><ele>12.4</ele></trkpt>
      <trkpt lat="45.785053" lon="-1.225154"><ele>13.2</ele></trkpt>
      <trkpt lat="45.785149" lon="-1.224838"><ele>13.6</ele></trkpt>
      <trkpt lat="45.785100" lon="-1.224635"><ele>16.0</ele></trkpt>
      <trkpt lat="45.785240" lon="-1.224487"><ele>18.0</ele></trkpt>
      <trkpt lat="45.785424" lon="-1.223884"><ele>10.8</ele></trkpt>
      <trkpt lat="45.786003" lon="-1.223746"><ele>6.6</ele></trkpt>
      <trkpt lat="45.786332" lon="-1.223405"><ele>5.8</ele></trkpt>
      <trkpt lat="45.786788" lon="-1.223248"><ele>5.2</ele></trkpt>
      <trkpt lat="45.787044" lon="-1.222816"><ele>5.0</ele></trkpt>
      <trkpt lat="45.787623" lon="-1.222380"><ele>5.4</ele></trkpt>
      <trkpt lat="45.787913" lon="-1.221911"><ele>5.4</ele></trkpt>
      <trkpt lat="45.788168" lon="-1.221147"><ele>4.8</ele></trkpt>
      <trkpt lat="45.788626" lon="-1.220763"><ele>4.8</ele></trkpt>
      <trkpt lat="45.789056" lon="-1.219617"><ele>4.4</ele></trkpt>
      <trkpt lat="45.789405" lon="-1.218288"><ele>4.6</ele></trkpt>
      <trkpt lat="45.789460" lon="-1.217792"><ele>5.2</ele></trkpt>
      <trkpt lat="45.789550" lon="-1.217599"><ele>5.4</ele></trkpt>
      <trkpt lat="45.789512" lon="-1.217426"><ele>5.4</ele></trkpt>
      <trkpt lat="45.789381" lon="-1.217332"><ele>5.8</ele></trkpt>
      <trkpt lat="45.789382" lon="-1.217200"><ele>6.0</ele></trkpt>
      <trkpt lat="45.789686" lon="-1.216375"><ele>5.2</ele></trkpt>
      <trkpt lat="45.789884" lon="-1.215463"><ele>6.0</ele></trkpt>
      <trkpt lat="45.790034" lon="-1.215164"><ele>6.2</ele></trkpt>
      <trkpt lat="45.790028" lon="-1.214704"><ele>5.6</ele></trkpt>
      <trkpt lat="45.790370" lon="-1.213539"><ele>4.6</ele></trkpt>
      <trkpt lat="45.790508" lon="-1.213249"><ele>5.4</ele></trkpt>
      <trkpt lat="45.790902" lon="-1.213109"><ele>7.0</ele></trkpt>
      <trkpt lat="45.791008" lon="-1.211665"><ele>4.6</ele></trkpt>
      <trkpt lat="45.791502" lon="-1.210529"><ele>4.0</ele></trkpt>
      <trkpt lat="45.791808" lon="-1.210147"><ele>3.8</ele></trkpt>
      <trkpt lat="45.791977" lon="-1.209766"><ele>3.8</ele></trkpt>
      <trkpt lat="45.792193" lon="-1.209034"><ele>4.6</ele></trkpt>
      <trkpt lat="45.792224" lon="-1.208220"><ele>5.4</ele></trkpt>
      <trkpt lat="45.792362" lon="-1.207867"><ele>7.0</ele></trkpt>
      <trkpt lat="45.792637" lon="-1.207587"><ele>7.0</ele></trkpt>
      <trkpt lat="45.792649" lon="-1.206880"><ele>7.2</ele></trkpt>
      <trkpt lat="45.792713" lon="-1.206665"><ele>7.4</ele></trkpt>
      <trkpt lat="45.792893" lon="-1.206284"><ele>7.2</ele></trkpt>
      <trkpt lat="45.793233" lon="-1.206083"><ele>6.2</ele></trkpt>
      <trkpt lat="45.793391" lon="-1.205861"><ele>5.2</ele></trkpt>
      <trkpt lat="45.793170" lon="-1.205141"><ele>3.6</ele></trkpt>
      <trkpt lat="45.792748" lon="-1.204474"><ele>3.2</ele></trkpt>
      <trkpt lat="45.792535" lon="-1.203778"><ele>3.4</ele></trkpt>
      <trkpt lat="45.791472" lon="-1.201815"><ele>3.4</ele></trkpt>
      <trkpt lat="45.790892" lon="-1.200074"><ele>2.6</ele></trkpt>
      <trkpt lat="45.790769" lon="-1.200041"><ele>2.6</ele></trkpt>
      <trkpt lat="45.790420" lon="-1.200389"><ele>4.0</ele></trkpt>
      <trkpt lat="45.790026" lon="-1.200521"><ele>4.6</ele></trkpt>
      <trkpt lat="45.789593" lon="-1.199375"><ele>5.0</ele></trkpt>
      <trkpt lat="45.789614" lon="-1.199115"><ele>4.2</ele></trkpt>
      <trkpt lat="45.789453" lon="-1.198502"><ele>4.2</ele></trkpt>
      <trkpt lat="45.789386" lon="-1.197833"><ele>4.4</ele></trkpt>
      <trkpt lat="45.789395" lon="-1.197147"><ele>5.2</ele></trkpt>
      <trkpt lat="45.789492" lon="-1.196610"><ele>4.2</ele></trkpt>
      <trkpt lat="45.789339" lon="-1.196291"><ele>4.6</ele></trkpt>
      <trkpt lat="45.789394" lon="-1.196121"><ele>4.2</ele></trkpt>
      <trkpt lat="45.789343" lon="-1.195955"><ele>4.6</ele></trkpt>
      <trkpt lat="45.789400" lon="-1.194318"><ele>6.4</ele></trkpt>
      <trkpt lat="45.789255" lon="-1.193117"><ele>11.8</ele></trkpt>
      <trkpt lat="45.789312" lon="-1.192769"><ele>9.6</ele></trkpt>
      <trkpt lat="45.789125" lon="-1.191838"><ele>5.4</ele></trkpt>
      <trkpt lat="45.789450" lon="-1.191605"><ele>3.4</ele></trkpt>
      <trkpt lat="45.789488" lon="-1.190326"><ele>2.6</ele></trkpt>
      <trkpt lat="45.789718" lon="-1.188470"><ele>2.2</ele></trkpt>
      <trkpt lat="45.790367" lon="-1.185914"><ele>2.6</ele></trkpt>
      <trkpt lat="45.791018" lon="-1.184254"><ele>2.8</ele></trkpt>
      <trkpt lat="45.791840" lon="-1.182597"><ele>2.4</ele></trkpt>
      <trkpt lat="45.792849" lon="-1.180212"><ele>2.2</ele></trkpt>
      <trkpt lat="45.793278" lon="-1.178810"><ele>2.2</ele></trkpt>
      <trkpt lat="45.793821" lon="-1.176323"><ele>2.0</ele></trkpt>
      <trkpt lat="45.794619" lon="-1.173848"><ele>1.8</ele></trkpt>
      <trkpt lat="45.795343" lon="-1.172372"><ele>2.0</ele></trkpt>
      <trkpt lat="45.795912" lon="-1.170959"><ele>2.2</ele></trkpt>
      <trkpt lat="45.797245" lon="-1.169071"><ele>1.8</ele></trkpt>
      <trkpt lat="45.798283" lon="-1.167779"><ele>1.8</ele></trkpt>
      <trkpt lat="45.798765" lon="-1.166756"><ele>3.0</ele></trkpt>
      <trkpt lat="45.798731" lon="-1.166641"><ele>3.0</ele></trkpt>
      <trkpt lat="45.797876" lon="-1.165934"><ele>3.8</ele></trkpt>
      <trkpt lat="45.798295" lon="-1.164869"><ele>3.8</ele></trkpt>
    </trkseg>
  </trk>
</gpx>
