<?xml version="1.0" encoding="UTF-8"?>
<gpx version="1.1" creator="gpx-processor" xmlns="http://www.topografix.com/GPX/1/1">
  <metadata><name>Antwerp Running</name></metadata>
  <trk>
    <name>Antwerp Running</name>
    <trkseg>
      <trkpt lat="51.235526" lon="4.409572"><ele>4.4</ele></trkpt>
      <trkpt lat="51.235601" lon="4.409123"><ele>3.8</ele></trkpt>
      <trkpt lat="51.235993" lon="4.408926"><ele>6.6</ele></trkpt>
      <trkpt lat="51.236914" lon="4.409096"><ele>3.0</ele></trkpt>
      <trkpt lat="51.238646" lon="4.408917"><ele>4.0</ele></trkpt>
      <trkpt lat="51.239732" lon="4.408936"><ele>2.4</ele></trkpt>
      <trkpt lat="51.240141" lon="4.408713"><ele>6.0</ele></trkpt>
      <trkpt lat="51.240624" lon="4.408052"><ele>9.0</ele></trkpt>
      <trkpt lat="51.241052" lon="4.408237"><ele>7.6</ele></trkpt>
      <trkpt lat="51.241244" lon="4.408177"><ele>4.4</ele></trkpt>
      <trkpt lat="51.241473" lon="4.407943"><ele>1.2</ele></trkpt>
      <trkpt lat="51.241532" lon="4.407700"><ele>0.8</ele></trkpt>
      <trkpt lat="51.241472" lon="4.406552"><ele>7.0</ele></trkpt>
      <trkpt lat="51.241554" lon="4.405744"><ele>6.0</ele></trkpt>
      <trkpt lat="51.241389" lon="4.405482"><ele>6.4</ele></trkpt>
      <trkpt lat="51.240698" lon="4.405098"><ele>6.2</ele></trkpt>
      <trkpt lat="51.240460" lon="4.404550"><ele>4.8</ele></trkpt>
      <trkpt lat="51.240127" lon="4.403229"><ele>7.4</ele></trkpt>
      <trkpt lat="51.239886" lon="4.402955"><ele>5.8</ele></trkpt>
      <trkpt lat="51.239663" lon="4.402950"><ele>3.4</ele></trkpt>
      <trkpt lat="51.238034" lon="4.403540"><ele>3.8</ele></trkpt>
      <trkpt lat="51.236520" lon="4.403471"><ele>4.0</ele></trkpt>
      <trkpt lat="51.236043" lon="4.403213"><ele>0.4</ele></trkpt>
      <trkpt lat="51.235454" lon="4.403355"><ele>3.2</ele></trkpt>
      <trkpt lat="51.234451" lon="4.403396"><ele>4.6</ele></trkpt>
      <trkpt lat="51.233311" lon="4.403046"><ele>7.0</ele></trkpt>
      <trkpt lat="51.232684" lon="4.403057"><ele>7.4</ele></trkpt>
      <trkpt lat="51.231888" lon="4.403237"><ele>7.6</ele></trkpt>
      <trkpt lat="51.231221" lon="4.403038"><ele>1.0</ele></trkpt>
      <trkpt lat="51.230817" lon="4.402755"><ele>5.2</ele></trkpt>
      <trkpt lat="51.230541" lon="4.402389"><ele>7.4</ele></trkpt>
      <trkpt lat="51.229641" lon="4.402077"><ele>10.0</ele></trkpt>
      <trkpt lat="51.227996" lon="4.401968"><ele>4.8</ele></trkpt>
      <trkpt lat="51.227202" lon="4.401631"><ele>12.6</ele></trkpt>
      <trkpt lat="51.226830" lon="4.400990"><ele>5.8</ele></trkpt>
      <trkpt lat="51.226020" lon="4.400292"><ele>15.4</ele></trkpt>
      <trkpt lat="51.225214" lon="4.399962"><ele>12.8</ele></trkpt>
      <trkpt lat="51.224237" lon="4.399137"><ele>12.4</ele></trkpt>
      <trkpt lat="51.221412" lon="4.397545"><ele>11.8</ele></trkpt>
      <trkpt lat="51.219613" lon="4.396122"><ele>8.2</ele></trkpt>
      <trkpt lat="51.219093" lon="4.395943"><ele>9.0</ele></trkpt>
      <trkpt lat="51.218216" lon="4.395158"><ele>8.8</ele></trkpt>
      <trkpt lat="51.217680" lon="4.394974"><ele>9.0</ele></trkpt>
      <trkpt lat="51.217581" lon="4.394776"><ele>8.4</ele></trkpt>
      <trkpt lat="51.216842" lon="4.394229"><ele>7.4</ele></trkpt>
      <trkpt lat="51.216524" lon="4.393697"><ele>8.6</ele></trkpt>
      <trkpt lat="51.215061" lon="4.392746"><ele>4.4</ele></trkpt>
      <trkpt lat="51.213397" lon="4.391050"><ele>7.2</ele></trkpt>
      <trkpt lat="51.212953" lon="4.390904"><ele>6.4</ele></trkpt>
      <trkpt lat="51.212245" lon="4.390292"><ele>8.0</ele></trkpt>
      <trkpt lat="51.210141" lon="4.387856"><ele>10.0</ele></trkpt>
      <trkpt lat="51.209218" lon="4.386438"><ele>8.2</ele></trkpt>
      <trkpt lat="51.208723" lon="4.385928"><ele>11.6</ele></trkpt>
      <trkpt lat="51.208457" lon="4.385481"><ele>13.8</ele></trkpt>
      <trkpt lat="51.207953" lon="4.384303"><ele>9.4</ele></trkpt>
      <trkpt lat="51.206229" lon="4.381198"><ele>4.6</ele></trkpt>
      <trkpt lat="51.203949" lon="4.375572"><ele>6.4</ele></trkpt>
      <trkpt lat="51.202200" lon="4.371543"><ele>3.6</ele></trkpt>
      <trkpt lat="51.201770" lon="4.371145"><ele>3.4</ele></trkpt>
      <trkpt lat="51.201099" lon="4.370860"><ele>4.0</ele></trkpt>
      <trkpt lat="51.200859" lon="4.370538"><ele>3.4</ele></trkpt>
      <trkpt lat="51.200612" lon="4.369900"><ele>2.8</ele></trkpt>
      <trkpt lat="51.199902" lon="4.367399"><ele>3.0</ele></trkpt>
      <trkpt lat="51.199468" lon="4.366420"><ele>3.0</ele></trkpt>
      <trkpt lat="51.198005" lon="4.365284"><ele>4.2</ele></trkpt>
      <trkpt lat="51.197560" lon="4.364722"><ele>3.4</ele></trkpt>
      <trkpt lat="51.196865" lon="4.361983"><ele>6.2</ele></trkpt>
      <trkpt lat="51.196496" lon="4.362025"><ele>3.4</ele></trkpt>
      <trkpt lat="51.194929" lon="4.362958"><ele>5.2</ele></trkpt>
      <trkpt lat="51.191632" lon="4.364562"><ele>0.8</ele></trkpt>
      <trkpt lat="51.191248" lon="4.364516"><ele>1.4</ele></trkpt>
      <trkpt lat="51.190993" lon="4.363699"><ele>2.4</ele></trkpt>
      <trkpt lat="51.190954" lon="4.363929"><ele>1.4</ele></trkpt>
      <trkpt lat="51.191172" lon="4.364513"><ele>1.4</ele></trkpt>
      <trkpt lat="51.191452" lon="4.364669"><ele>1.4</ele></trkpt>
      <trkpt lat="51.195331" lon="4.362739"><ele>5.0</ele></trkpt>
      <trkpt lat="51.196031" lon="4.362613"><ele>1.8</ele></trkpt>
      <trkpt lat="51.196777" lon="4.366090"><ele>2.6</ele></trkpt>
      <trkpt lat="51.197152" lon="4.366329"><ele>3.0</ele></trkpt>
      <trkpt lat="51.198612" lon="4.366117"><ele>5.8</ele></trkpt>
      <trkpt lat="51.199031" lon="4.366163"><ele>3.6</ele></trkpt>
      <trkpt lat="51.199284" lon="4.366337"><ele>3.0</ele></trkpt>
      <trkpt lat="51.199750" lon="4.367044"><ele>3.0</ele></trkpt>
      <trkpt lat="51.200852" lon="4.370721"><ele>3.8</ele></trkpt>
      <trkpt lat="51.201245" lon="4.371134"><ele>4.0</ele></trkpt>
      <trkpt lat="51.201768" lon="4.371228"><ele>3.4</ele></trkpt>
      <trkpt lat="51.201997" lon="4.371422"><ele>3.2</ele></trkpt>
      <trkpt lat="51.202271" lon="4.371960"><ele>4.6</ele></trkpt>
      <trkpt lat="51.202394" lon="4.372485"><ele>8.2</ele></trkpt>
      <trkpt lat="51.202368" lon="4.372637"><ele>9.2</ele></trkpt>
      <trkpt lat="51.200671" lon="4.374170"><ele>6.8</ele></trkpt>
      <trkpt lat="51.199549" lon="4.375710"><ele>7.4</ele></trkpt>
      <trkpt lat="51.198933" lon="4.375869"><ele>3.8</ele></trkpt>
      <trkpt lat="51.198775" lon="4.375677"><ele>3.4</ele></trkpt>
      <trkpt lat="51.198769" lon="4.375132"><ele>4.2</ele></trkpt>
      <trkpt lat="51.199130" lon="4.372599"><ele>6.4</ele></trkpt>
      <trkpt lat="51.199167" lon="4.372121"><ele>5.0</ele></trkpt>
      <trkpt lat="51.199094" lon="4.371957"><ele>5.0</ele></trkpt>
      <trkpt lat="51.194466" lon="4.370532"><ele>3.0</ele></trkpt>
      <trkpt lat="51.193350" lon="4.370300"><ele>2.2</ele></trkpt>
      <trkpt lat="51.192236" lon="4.369840"><ele>7.2</ele></trkpt>
      <trkpt lat="51.192028" lon="4.369355"><ele>6.4</ele></trkpt>
      <trkpt lat="51.191822" lon="4.369364"><ele>6.6</ele></trkpt>
      <trkpt lat="51.191145" lon="4.367276"><ele>1.2</ele></trkpt>
      <trkpt lat="51.190833" lon="4.366637"><ele>2.6</ele></trkpt>
      <trkpt lat="51.190471" lon="4.365498"><ele>3.0</ele></trkpt>
      <trkpt lat="51.189765" lon="4.364109"><ele>2.4</ele></trkpt>
      <trkpt lat="51.189139" lon="4.362440"><ele>2.8</ele></trkpt>
      <trkpt lat="51.186729" lon="4.357313"><ele>2.4</ele></trkpt>
      <trkpt lat="51.185308" lon="4.353949"><ele>4.6</ele></trkpt>
      <trkpt lat="51.184666" lon="4.352939"><ele>2.8</ele></trkpt>
      <trkpt lat="51.183255" lon="4.350166"><ele>5.0</ele></trkpt>
      <trkpt lat="51.182932" lon="4.349940"><ele>4.8</ele></trkpt>
      <trkpt lat="51.181979" lon="4.348800"><ele>3.4</ele></trkpt>
      <trkpt lat="51.181455" lon="4.347571"><ele>3.2</ele></trkpt>
      <trkpt lat="51.180462" lon="4.345736"><ele>5.0</ele></trkpt>
      <trkpt lat="51.179940" lon="4.345135"><ele>4.0</ele></trkpt>
      <trkpt lat="51.179512" lon="4.344930"><ele>3.0</ele></trkpt>
      <trkpt lat="51.179009" lon="4.345011"><ele>1.2</ele></trkpt>
      <trkpt lat="51.178309" lon="4.344727"><ele>5.0</ele></trkpt>
      <trkpt lat="51.175965" lon="4.344314"><ele>10.0</ele></trkpt>
      <trkpt lat="51.175369" lon="4.344366"><ele>11.4</ele></trkpt>
      <trkpt lat="51.174222" lon="4.344241"><ele>8.0</ele></trkpt>
      <trkpt lat="51.172600" lon="4.344464"><ele>13.4</ele></trkpt>
      <trkpt lat="51.171264" lon="4.344951"><ele>13.2</ele></trkpt>
      <trkpt lat="51.170408" lon="4.345864"><ele>14.8</ele></trkpt>
      <trkpt lat="51.169217" lon="4.347749"><ele>16.0</ele></trkpt>
      <trkpt lat="51.168464" lon="4.348570"><ele>20.4</ele></trkpt>
      <trkpt lat="51.167936" lon="4.349649"><ele>17.0</ele></trkpt>
      <trkpt lat="51.167423" lon="4.349930"><ele>16.0</ele></trkpt>
      <trkpt lat="51.167134" lon="4.350291"><ele>18.2</ele></trkpt>
      <trkpt lat="51.166791" lon="4.351035"><ele>19.4</ele></trkpt>
      <trkpt lat="51.166327" lon="4.353211"><ele>20.2</ele></trkpt>
      <trkpt lat="51.166142" lon="4.353488"><ele>19.2</ele></trkpt>
      <trkpt lat="51.165109" lon="4.353586"><ele>17.6</ele></trkpt>
      <trkpt lat="51.164352" lon="4.353806"><ele>16.8</ele></trkpt>
      <trkpt lat="51.163968" lon="4.353740"><ele>16.2</ele></trkpt>
      <trkpt lat="51.163369" lon="4.354906"><ele>17.0</ele></trkpt>
      <trkpt lat="51.162762" lon="4.354415"><ele>17.0</ele></trkpt>
      <trkpt lat="51.162504" lon="4.354904"><ele>19.2</ele></trkpt>
      <trkpt lat="51.162138" lon="4.354916"><ele>20.6</ele></trkpt>
      <trkpt lat="51.161148" lon="4.355773"><ele>20.6</ele></trkpt>
      <trkpt lat="51.160203" lon="4.356718"><ele>21.4</ele></trkpt>
      <trkpt lat="51.158594" lon="4.358083"><ele>19.8</ele></trkpt>
      <trkpt lat="51.157381" lon="4.359420"><ele>19.2</ele></trkpt>
      <trkpt lat="51.157762" lon="4.360856"><ele>17.4</ele></trkpt>
      <trkpt lat="51.158687" lon="4.360539"><ele>18.0</ele></trkpt>
      <trkpt lat="51.158853" lon="4.360616"><ele>17.8</ele></trkpt>
      <trkpt lat="51.159271" lon="4.362219"><ele>18.8</ele></trkpt>
      <trkpt lat="51.159311" lon="4.362779"><ele>20.0</ele></trkpt>
      <trkpt lat="51.158745" lon="4.363307"><ele>19.0</ele></trkpt>
      <trkpt lat="51.157121" lon="4.365854"><ele>17.0</ele></trkpt>
      <trkpt lat="51.157042" lon="4.366097"><ele>16.6</ele></trkpt>
      <trkpt lat="51.157264" lon="4.366756"><ele>18.0</ele></trkpt>
      <trkpt lat="51.158109" lon="4.368217"><ele>17.8</ele></trkpt>
      <trkpt lat="51.158573" lon="4.369222"><ele>19.0</ele></trkpt>
      <trkpt lat="51.158881" lon="4.369607"><ele>19.4</ele></trkpt>
      <trkpt lat="51.159044" lon="4.369503"><ele>20.0</ele></trkpt>
      <trkpt lat="51.159731" lon="4.368246"><ele>19.6</ele></trkpt>
      <trkpt lat="51.160326" lon="4.367452"><ele>18.0</ele></trkpt>
      <trkpt lat="51.160462" lon="4.367417"><ele>19.0</ele></trkpt>
      <trkpt lat="51.160765" lon="4.367575"><ele>20.6</ele></trkpt>
      <trkpt lat="51.161511" lon="4.367064"><ele>19.0</ele></trkpt>
      <trkpt lat="51.165074" lon="4.365810"><ele>17.6</ele></trkpt>
      <trkpt lat="51.165229" lon="4.366394"><ele>17.0</ele></trkpt>
      <trkpt lat="51.165334" lon="4.367935"><ele>17.2</ele></trkpt>
      <trkpt lat="51.165687" lon="4.369896"><ele>21.4</ele></trkpt>
      <trkpt lat="51.165733" lon="4.370880"><ele>23.2</ele></trkpt>
      <trkpt lat="51.165833" lon="4.371278"><ele>23.4</ele></trkpt>
      <trkpt lat="51.166021" lon="4.371196"><ele>22.0</ele></trkpt>
      <trkpt lat="51.166271" lon="4.371921"><ele>21.2</ele></trkpt>
      <trkpt lat="51.166326" lon="4.373138"><ele>23.2</ele></trkpt>
      <trkpt lat="51.166679" lon="4.374678"><ele>15.4</ele></trkpt>
      <trkpt lat="51.167374" lon="4.374548"><ele>16.8</ele></trkpt>
      <trkpt lat="51.167616" lon="4.375556"><ele>18.2</ele></trkpt>
      <trkpt lat="51.169194" lon="4.374770"><ele>15.4</ele></trkpt>
      <trkpt lat="51.170059" lon="4.374847"><ele>11.0</ele></trkpt>
      <trkpt lat="51.170318" lon="4.374745"><ele>11.8</ele></trkpt>
      <trkpt lat="51.170493" lon="4.374434"><ele>11.0</ele></trkpt>
      <trkpt lat="51.170403" lon="4.373898"><ele>11.4</ele></trkpt>
      <trkpt lat="51.170143" lon="4.373422"><ele>15.6</ele></trkpt>
      <trkpt lat="51.169716" lon="4.371266"><ele>16.8</ele></trkpt>
      <trkpt lat="51.169597" lon="4.370981"><ele>18.8</ele></trkpt>
      <trkpt lat="51.168677" lon="4.371124"><ele>14.6</ele></trkpt>
      <trkpt lat="51.168128" lon="4.370970"><ele>16.2</ele></trkpt>
      <trkpt lat="51.167443" lon="4.371005"><ele>19.2</ele></trkpt>
      <trkpt lat="51.167049" lon="4.370908"><ele>19.6</ele></trkpt>
      <trkpt lat="51.166802" lon="4.370560"><ele>19.2</ele></trkpt>
      <trkpt lat="51.166474" lon="4.368582"><ele>17.6</ele></trkpt>
      <trkpt lat="51.166576" lon="4.368037"><ele>15.0</ele></trkpt>
      <trkpt lat="51.166376" lon="4.367843"><ele>13.6</ele></trkpt>
      <trkpt lat="51.166292" lon="4.367536"><ele>13.8</ele></trkpt>
      <trkpt lat="51.165752" lon="4.363883"><ele>14.0</ele></trkpt>
      <trkpt lat="51.163740" lon="4.364746"><ele>21.4</ele></trkpt>
      <trkpt lat="51.163264" lon="4.364733"><ele>20.0</ele></trkpt>
      <trkpt lat="51.163162" lon="4.364908"><ele>18.8</ele></trkpt>
      <trkpt lat="51.162184" lon="4.365314"><ele>16.6</ele></trkpt>
      <trkpt lat="51.162074" lon="4.364855"><ele>18.4</ele></trkpt>
      <trkpt lat="51.162277" lon="4.363630"><ele>19.0</ele></trkpt>
      <trkpt lat="51.162475" lon="4.363281"><ele>19.8</ele></trkpt>
      <trkpt lat="51.163359" lon="4.363024"><ele>20.4</ele></trkpt>
      <trkpt lat="51.164570" lon="4.362478"><ele>19.0</ele></trkpt>
      <trkpt lat="51.164305" lon="4.360656"><ele>18.8</ele></trkpt>
      <trkpt lat="51.164332" lon="4.360432"><ele>17.8</ele></trkpt>
      <trkpt lat="51.165837" lon="4.359874"><ele>16.0</ele></trkpt>
      <trkpt lat="51.166394" lon="4.360586"><ele>18.2</ele></trkpt>
      <trkpt lat="51.166698" lon="4.360834"><ele>15.6</ele></trkpt>
      <trkpt lat="51.167763" lon="4.362529"><ele>17.0</ele></trkpt>
      <trkpt lat="51.168559" lon="4.363496"><ele>19.2</ele></trkpt>
      <trkpt lat="51.168736" lon="4.363545"><ele>17.6</ele></trkpt>
      <trkpt lat="51.168823" lon="4.363344"><ele>16.8</ele></trkpt>
      <trkpt lat="51.168697" lon="4.362837"><ele>15.4</ele></trkpt>
      <trkpt lat="51.168851" lon="4.362476"><ele>15.6</ele></trkpt>
      <trkpt lat="51.168911" lon="4.361933"><ele>16.4</ele></trkpt>
      <trkpt lat="51.169452" lon="4.361852"><ele>15.0</ele></trkpt>
      <trkpt lat="51.170424" lon="4.361455"><ele>14.8</ele></trkpt>
      <trkpt lat="51.170194" lon="4.358881"><ele>18.0</ele></trkpt>
      <trkpt lat="51.169914" lon="4.357075"><ele>16.0</ele></trkpt>
      <trkpt lat="51.169760" lon="4.355272"><ele>15.8</ele></trkpt>
      <trkpt lat="51.170072" lon="4.355009"><ele>19.2</ele></trkpt>
      <trkpt lat="51.171456" lon="4.354808"><ele>17.0</ele></trkpt>
      <trkpt lat="51.171430" lon="4.353305"><ele>16.4</ele></trkpt>
      <trkpt lat="51.171337" lon="4.352667"><ele>16.2</ele></trkpt>
      <trkpt lat="51.171351" lon="4.351664"><ele>17.6</ele></trkpt>
      <trkpt lat="51.171461" lon="4.351529"><ele>17.4</ele></trkpt>
      <trkpt lat="51.172128" lon="4.351457"><ele>17.0</ele></trkpt>
      <trkpt lat="51.172697" lon="4.351207"><ele>15.8</ele></trkpt>
      <trkpt lat="51.172586" lon="4.350178"><ele>15.6</ele></trkpt>
      <trkpt lat="51.172435" lon="4.349744"><ele>15.2</ele></trkpt>
      <trkpt lat="51.172409" lon="4.349385"><ele>14.0</ele></trkpt>
      <trkpt lat="51.172526" lon="4.349268"><ele>13.6</ele></trkpt>
      <trkpt lat="51.174186" lon="4.348791"><ele>15.6</ele></trkpt>
      <trkpt lat="51.175026" lon="4.348345"><ele>13.0</ele></trkpt>
      <trkpt lat="51.175096" lon="4.348003"><ele>12.4</ele></trkpt>
      <trkpt lat="51.175614" lon="4.347809"><ele>13.0</ele></trkpt>
      <trkpt lat="51.176937" lon="4.347678"><ele>12.0</ele></trkpt>
      <trkpt lat="51.177177" lon="4.348014"><ele>13.8</ele></trkpt>
      <trkpt lat="51.178577" lon="4.347186"><ele>7.2</ele></trkpt>
      <trkpt lat="51.179334" lon="4.346554"><ele>6.8</ele></trkpt>
      <trkpt lat="51.179994" lon="4.347982"><ele>7.2</ele></trkpt>
      <trkpt lat="51.180335" lon="4.349280"><ele>7.4</ele></trkpt>
      <trkpt lat="51.181253" lon="4.350964"><ele>6.0</ele></trkpt>
      <trkpt lat="51.181552" lon="4.352212"><ele>7.2</ele></trkpt>
      <trkpt lat="51.181563" lon="4.352592"><ele>6.6</ele></trkpt>
      <trkpt lat="51.181339" lon="4.353996"><ele>4.0</ele></trkpt>
      <trkpt lat="51.181331" lon="4.354934"><ele>6.8</ele></trkpt>
      <trkpt lat="51.181230" lon="4.355516"><ele>8.2</ele></trkpt>
      <trkpt lat="51.181265" lon="4.355760"><ele>8.2</ele></trkpt>
      <trkpt lat="51.182346" lon="4.356748"><ele>7.8</ele></trkpt>
      <trkpt lat="51.183193" lon="4.357814"><ele>7.0</ele></trkpt>
      <trkpt lat="51.184449" lon="4.359885"><ele>7.0</ele></trkpt>
      <trkpt lat="51.186713" lon="4.362523"><ele>4.0</ele></trkpt>
      <trkpt lat="51.186668" lon="4.362650"><ele>3.6</ele></trkpt>
      <trkpt lat="51.186040" lon="4.362951"><ele>2.0</ele></trkpt>
      <trkpt lat="51.185626" lon="4.363355"><ele>3.4</ele></trkpt>
      <trkpt lat="51.184683" lon="4.364529"><ele>3.2</ele></trkpt>
      <trkpt lat="51.184687" lon="4.364701"><ele>3.8</ele></trkpt>
      <trkpt lat="51.185359" lon="4.366030"><ele>4.8</ele></trkpt>
      <trkpt lat="51.185526" lon="4.366589"><ele>5.0</ele></trkpt>
      <trkpt lat="51.185444" lon="4.366802"><ele>5.0</ele></trkpt>
      <trkpt lat="51.184935" lon="4.367315"><ele>5.0</ele></trkpt>
      <trkpt lat="51.184829" lon="4.367653"><ele>6.0</ele></trkpt>
      <trkpt lat="51.185048" lon="4.368269"><ele>7.0</ele></trkpt>
      <trkpt lat="51.185552" lon="4.368899"><ele>7.4</ele></trkpt>
      <trkpt lat="51.186322" lon="4.370380"><ele>6.6</ele></trkpt>
      <trkpt lat="51.186823" lon="4.371524"><ele>6.4</ele></trkpt>
      <trkpt lat="51.187636" lon="4.373033"><ele>7.0</ele></trkpt>
      <trkpt lat="51.187727" lon="4.373431"><ele>8.2</ele></trkpt>
      <trkpt lat="51.187026" lon="4.374368"><ele>6.8</ele></trkpt>
      <trkpt lat="51.186775" lon="4.374839"><ele>7.8</ele></trkpt>
      <trkpt lat="51.186638" lon="4.375340"><ele>8.4</ele></trkpt>
      <trkpt lat="51.186374" lon="4.375382"><ele>8.6</ele></trkpt>
      <trkpt lat="51.186216" lon="4.375571"><ele>8.4</ele></trkpt>
      <trkpt lat="51.184644" lon="4.378183"><ele>9.0</ele></trkpt>
      <trkpt lat="51.184269" lon="4.378593"><ele>10.0</ele></trkpt>
      <trkpt lat="51.183886" lon="4.379355"><ele>9.8</ele></trkpt>
      <trkpt lat="51.183280" lon="4.380061"><ele>8.2</ele></trkpt>
      <trkpt lat="51.183142" lon="4.380439"><ele>8.6</ele></trkpt>
      <trkpt lat="51.183156" lon="4.380896"><ele>9.4</ele></trkpt>
      <trkpt lat="51.183393" lon="4.381212"><ele>11.0</ele></trkpt>
      <trkpt lat="51.183788" lon="4.381452"><ele>12.4</ele></trkpt>
      <trkpt lat="51.183825" lon="4.382355"><ele>13.4</ele></trkpt>
      <trkpt lat="51.184313" lon="4.383209"><ele>10.0</ele></trkpt>
      <trkpt lat="51.185062" lon="4.383779"><ele>10.2</ele></trkpt>
      <trkpt lat="51.185393" lon="4.383032"><ele>9.8</ele></trkpt>
      <trkpt lat="51.185483" lon="4.383016"><ele>10.0</ele></trkpt>
      <trkpt lat="51.186025" lon="4.383536"><ele>11.2</ele></trkpt>
      <trkpt lat="51.186555" lon="4.384258"><ele>10.0</ele></trkpt>
      <trkpt lat="51.187126" lon="4.384777"><ele>10.4</ele></trkpt>
      <trkpt lat="51.187888" lon="4.385928"><ele>12.0</ele></trkpt>
      <trkpt lat="51.189076" lon="4.387108"><ele>12.0</ele></trkpt>
      <trkpt lat="51.189984" lon="4.386723"><ele>11.0</ele></trkpt>
      <trkpt lat="51.190150" lon="4.386845"><ele>13.4</ele></trkpt>
      <trkpt lat="51.190695" lon="4.389957"><ele>9.0</ele></trkpt>
      <trkpt lat="51.191177" lon="4.393857"><ele>12.0</ele></trkpt>
      <trkpt lat="51.191455" lon="4.394820"><ele>10.4</ele></trkpt>
      <trkpt lat="51.191566" lon="4.395891"><ele>12.0</ele></trkpt>
      <trkpt lat="51.191832" lon="4.397198"><ele>14.6</ele></trkpt>
      <trkpt lat="51.191891" lon="4.398417"><ele>11.6</ele></trkpt>
      <trkpt lat="51.191956" lon="4.398643"><ele>10.6</ele></trkpt>
      <trkpt lat="51.192594" lon="4.399654"><ele>6.2</ele></trkpt>
      <trkpt lat="51.192743" lon="4.399521"><ele>5.6</ele></trkpt>
      <trkpt lat="51.192966" lon="4.398940"><ele>6.8</ele></trkpt>
      <trkpt lat="51.192933" lon="4.399313"><ele>5.6</ele></trkpt>
      <trkpt lat="51.192591" lon="4.400583"><ele>5.6</ele></trkpt>
      <trkpt lat="51.192273" lon="4.401077"><ele>4.0</ele></trkpt>
      <trkpt lat="51.192406" lon="4.400414"><ele>7.4</ele></trkpt>
      <trkpt lat="51.192474" lon="4.400350"><ele>7.2</ele></trkpt>
      <trkpt lat="51.194243" lon="4.402795"><ele>13.0</ele></trkpt>
      <trkpt lat="51.194709" lon="4.403112"><ele>16.0</ele></trkpt>
      <trkpt lat="51.195074" lon="4.403533"><ele>16.0</ele></trkpt>
      <trkpt lat="51.196115" lon="4.405281"><ele>15.2</ele></trkpt>
      <trkpt lat="51.196949" lon="4.406071"><ele>14.4</ele></trkpt>
      <trkpt lat="51.197591" lon="4.407011"><ele>11.0</ele></trkpt>
      <trkpt lat="51.197766" lon="4.407402"><ele>13.4</ele></trkpt>
      <trkpt lat="51.197885" lon="4.407996"><ele>17.0</ele></trkpt>
      <trkpt lat="51.198132" lon="4.410372"><ele>12.2</ele></trkpt>
      <trkpt lat="51.198554" lon="4.411706"><ele>13.2</ele></trkpt>
      <trkpt lat="51.199466" lon="4.412952"><ele>13.6</ele></trkpt>
      <trkpt lat="51.199442" lon="4.413262"><ele>13.8</ele></trkpt>
      <trkpt lat="51.199334" lon="4.413457"><ele>14.6</ele></trkpt>
      <trkpt lat="51.199003" lon="4.413579"><ele>15.8</ele></trkpt>
      <trkpt lat="51.198694" lon="4.413948"><ele>15.6</ele></trkpt>
      <trkpt lat="51.198618" lon="4.414420"><ele>16.6</ele></trkpt>
      <trkpt lat="51.198521" lon="4.414543"><ele>16.6</ele></trkpt>
      <trkpt lat="51.198529" lon="4.415048"><ele>15.8</ele></trkpt>
      <trkpt lat="51.198854" lon="4.415796"><ele>13.2</ele></trkpt>
      <trkpt lat="51.199145" lon="4.415197"><ele>15.8</ele></trkpt>
      <trkpt lat="51.199745" lon="4.417320"><ele>10.2</ele></trkpt>
      <trkpt lat="51.200029" lon="4.419075"><ele>12.4</ele></trkpt>
      <trkpt lat="51.200043" lon="4.419679"><ele>13.0</ele></trkpt>
      <trkpt lat="51.200262" lon="4.420439"><ele>12.8</ele></trkpt>
      <trkpt lat="51.200287" lon="4.422194"><ele>13.0</ele></trkpt>
      <trkpt lat="51.200629" lon="4.422858"><ele>12.6</ele></trkpt>
      <trkpt lat="51.201105" lon="4.423509"><ele>12.8</ele></trkpt>
      <trkpt lat="51.201401" lon="4.423703"><ele>11.8</ele></trkpt>
      <trkpt lat="51.201522" lon="4.423562"><ele>10.4</ele></trkpt>
      <trkpt lat="51.201633" lon="4.423146"><ele>10.6</ele></trkpt>
      <trkpt lat="51.201773" lon="4.422269"><ele>10.8</ele></trkpt>
      <trkpt lat="51.202077" lon="4.422590"><ele>9.6</ele></trkpt>
      <trkpt lat="51.202260" lon="4.422522"><ele>9.2</ele></trkpt>
      <trkpt lat="51.202712" lon="4.422859"><ele>8.6</ele></trkpt>
      <trkpt lat="51.203179" lon="4.422974"><ele>12.6</ele></trkpt>
      <trkpt lat="51.203461" lon="4.423368"><ele>13.6</ele></trkpt>
      <trkpt lat="51.204006" lon="4.423745"><ele>12.4</ele></trkpt>
      <trkpt lat="51.204112" lon="4.423746"><ele>12.2</ele></trkpt>
      <trkpt lat="51.204161" lon="4.423549"><ele>12.4</ele></trkpt>
      <trkpt lat="51.204268" lon="4.423518"><ele>11.6</ele></trkpt>
      <trkpt lat="51.205605" lon="4.423975"><ele>8.4</ele></trkpt>
      <trkpt lat="51.206662" lon="4.424832"><ele>11.8</ele></trkpt>
      <trkpt lat="51.206769" lon="4.425060"><ele>11.0</ele></trkpt>
      <trkpt lat="51.207652" lon="4.424509"><ele>10.2</ele></trkpt>
      <trkpt lat="51.208063" lon="4.423753"><ele>7.8</ele></trkpt>
      <trkpt lat="51.208990" lon="4.422777"><ele>6.4</ele></trkpt>
      <trkpt lat="51.209168" lon="4.422784"><ele>6.4</ele></trkpt>
      <trkpt lat="51.209470" lon="4.423165"><ele>9.4</ele></trkpt>
      <trkpt lat="51.209088" lon="4.423924"><ele>10.4</ele></trkpt>
      <trkpt lat="51.208543" lon="4.424513"><ele>9.4</ele></trkpt>
      <trkpt lat="51.207928" lon="4.424997"><ele>11.0</ele></trkpt>
      <trkpt lat="51.207552" lon="4.425427"><ele>9.4</ele></trkpt>
      <trkpt lat="51.206367" lon="4.426258"><ele>11.2</ele></trkpt>
      <trkpt lat="51.206082" lon="4.427081"><ele>9.8</ele></trkpt>
      <trkpt lat="51.206142" lon="4.428022"><ele>10.4</ele></trkpt>
      <trkpt lat="51.206009" lon="4.429352"><ele>11.0</ele></trkpt>
      <trkpt lat="51.206135" lon="4.430454"><ele>10.0</ele></trkpt>
      <trkpt lat="51.206056" lon="4.431066"><ele>10.0</ele></trkpt>
      <trkpt lat="51.206077" lon="4.432095"><ele>9.0</ele></trkpt>
      <trkpt lat="51.206198" lon="4.431913"><ele>9.0</ele></trkpt>
      <trkpt lat="51.206939" lon="4.429508"><ele>8.8</ele></trkpt>
      <trkpt lat="51.207561" lon="4.430025"><ele>8.2</ele></trkpt>
      <trkpt lat="51.207987" lon="4.429896"><ele>10.0</ele></trkpt>
      <trkpt lat="51.208632" lon="4.429490"><ele>11.6</ele></trkpt>
      <trkpt lat="51.208842" lon="4.429697"><ele>13.2</ele></trkpt>
      <trkpt lat="51.208953" lon="4.430485"><ele>14.2</ele></trkpt>
      <trkpt lat="51.209127" lon="4.431062"><ele>10.4</ele></trkpt>
      <trkpt lat="51.209146" lon="4.431995"><ele>9.2</ele></trkpt>
      <trkpt lat="51.209316" lon="4.432147"><ele>9.8</ele></trkpt>
      <trkpt lat="51.210896" lon="4.432895"><ele>9.6</ele></trkpt>
      <trkpt lat="51.212399" lon="4.433165"><ele>8.6</ele></trkpt>
      <trkpt lat="51.212719" lon="4.434347"><ele>8.0</ele></trkpt>
      <trkpt lat="51.213347" lon="4.433826"><ele>10.2</ele></trkpt>
      <trkpt lat="51.213675" lon="4.433950"><ele>9.2</ele></trkpt>
      <trkpt lat="51.214010" lon="4.433276"><ele>9.2</ele></trkpt>
      <trkpt lat="51.214033" lon="4.432633"><ele>8.4</ele></trkpt>
      <trkpt lat="51.214529" lon="4.429988"><ele>5.6</ele></trkpt>
      <trkpt lat="51.214483" lon="4.429805"><ele>4.8</ele></trkpt>
      <trkpt lat="51.214574" lon="4.429121"><ele>6.2</ele></trkpt>
      <trkpt lat="51.214613" lon="4.427247"><ele>7.2</ele></trkpt>
      <trkpt lat="51.214774" lon="4.425962"><ele>8.0</ele></trkpt>
      <trkpt lat="51.214565" lon="4.425823"><ele>7.6</ele></trkpt>
      <trkpt lat="51.213941" lon="4.426007"><ele>8.2</ele></trkpt>
      <trkpt lat="51.213842" lon="4.425947"><ele>9.0</ele></trkpt>
      <trkpt lat="51.213457" lon="4.424062"><ele>8.6</ele></trkpt>
      <trkpt lat="51.213375" lon="4.423296"><ele>11.0</ele></trkpt>
      <trkpt lat="51.212937" lon="4.421905"><ele>5.2</ele></trkpt>
      <trkpt lat="51.213310" lon="4.421003"><ele>8.6</ele></trkpt>
      <trkpt lat="51.213538" lon="4.420823"><ele>10.8</ele></trkpt>
      <trkpt lat="51.214623" lon="4.420587"><ele>15.8</ele></trkpt>
      <trkpt lat="51.214809" lon="4.420732"><ele>17.0</ele></trkpt>
      <trkpt lat="51.215347" lon="4.420249"><ele>21.0</ele></trkpt>
      <trkpt lat="51.216286" lon="4.420455"><ele>23.2</ele></trkpt>
      <trkpt lat="51.217063" lon="4.420099"><ele>14.0</ele></trkpt>
      <trkpt lat="51.217198" lon="4.419805"><ele>13.0</ele></trkpt>
      <trkpt lat="51.217638" lon="4.417050"><ele>21.6</ele></trkpt>
      <trkpt lat="51.218158" lon="4.415331"><ele>15.8</ele></trkpt>
      <trkpt lat="51.218131" lon="4.414357"><ele>17.0</ele></trkpt>
      <trkpt lat="51.218341" lon="4.413235"><ele>19.4</ele></trkpt>
      <trkpt lat="51.217823" lon="4.410586"><ele>17.4</ele></trkpt>
      <trkpt lat="51.217928" lon="4.410025"><ele>15.2</ele></trkpt>
      <trkpt lat="51.217903" lon="4.409466"><ele>15.2</ele></trkpt>
      <trkpt lat="51.218068" lon="4.408588"><ele>13.4</ele></trkpt>
      <trkpt lat="51.218150" lon="4.406069"><ele>17.2</ele></trkpt>
      <trkpt lat="51.218521" lon="4.404667"><ele>17.2</ele></trkpt>
      <trkpt lat="51.218542" lon="4.404303"><ele>18.2</ele></trkpt>
      <trkpt lat="51.218369" lon="4.403362"><ele>27.8</ele></trkpt>
      <trkpt lat="51.218358" lon="4.402920"><ele>29.4</ele></trkpt>
      <trkpt lat="51.218600" lon="4.402006"><ele>14.8</ele></trkpt>
      <trkpt lat="51.219429" lon="4.402043"><ele>10.4</ele></trkpt>
      <trkpt lat="51.219514" lon="4.401965"><ele>10.4</ele></trkpt>
      <trkpt lat="51.219503" lon="4.401314"><ele>10.6</ele></trkpt>
      <trkpt lat="51.218878" lon="4.401192"><ele>10.4</ele></trkpt>
      <trkpt lat="51.218664" lon="4.400949"><ele>11.4</ele></trkpt>
      <trkpt lat="51.219258" lon="4.398752"><ele>13.6</ele></trkpt>
      <trkpt lat="51.219593" lon="4.397952"><ele>13.6</ele></trkpt>
      <trkpt lat="51.219855" lon="4.396879"><ele>12.2</ele></trkpt>
      <trkpt lat="51.220029" lon="4.396775"><ele>12.8</ele></trkpt>
      <trkpt lat="51.220276" lon="4.396816"><ele>13.2</ele></trkpt>
      <trkpt lat="51.221037" lon="4.397594"><ele>12.4</ele></trkpt>
      <trkpt lat="51.220859" lon="4.399196"><ele>14.6</ele></trkpt>
      <trkpt lat="51.221417" lon="4.399662"><ele>16.0</ele></trkpt>
      <trkpt lat="51.221513" lon="4.400202"><ele>17.4</ele></trkpt>
      <trkpt lat="51.221707" lon="4.400521"><ele>17.0</ele></trkpt>
      <trkpt lat="51.222270" lon="4.401040"><ele>15.0</ele></trkpt>
      <trkpt lat="51.222749" lon="4.401236"><ele>13.8</ele></trkpt>
      <trkpt lat="51.222617" lon="4.402193"><ele>14.4</ele></trkpt>
      <trkpt lat="51.223047" lon="4.402348"><ele>13.6</ele></trkpt>
      <trkpt lat="51.223557" lon="4.402904"><ele>13.0</ele></trkpt>
      <trkpt lat="51.223096" lon="4.403343"><ele>13.0</ele></trkpt>
      <trkpt lat="51.222767" lon="4.403914"><ele>16.2</ele></trkpt>
      <trkpt lat="51.221772" lon="4.405181"><ele>12.6</ele></trkpt>
      <trkpt lat="51.221855" lon="4.405995"><ele>12.0</ele></trkpt>
      <trkpt lat="51.221806" lon="4.406783"><ele>11.4</ele></trkpt>
      <trkpt lat="51.221449" lon="4.408223"><ele>14.4</ele></trkpt>
      <trkpt lat="51.221296" lon="4.409119"><ele>12.0</ele></trkpt>
      <trkpt lat="51.221246" lon="4.409991"><ele>13.0</ele></trkpt>
      <trkpt lat="51.221271" lon="4.410135"><ele>13.0</ele></trkpt>
      <trkpt lat="51.221712" lon="4.410744"><ele>13.4</ele></trkpt>
      <trkpt lat="51.221930" lon="4.410869"><ele>14.2</ele></trkpt>
      <trkpt lat="51.222084" lon="4.410643"><ele>13.6</ele></trkpt>
      <trkpt lat="51.222236" lon="4.409968"><ele>12.0</ele></trkpt>
      <trkpt lat="51.222205" lon="4.409541"><ele>12.8</ele></trkpt>
      <trkpt lat="51.222304" lon="4.408553"><ele>15.0</ele></trkpt>
      <trkpt lat="51.222810" lon="4.407012"><ele>12.2</ele></trkpt>
      <trkpt lat="51.222919" lon="4.405997"><ele>12.0</ele></trkpt>
      <trkpt lat="51.223195" lon="4.406014"><ele>12.8</ele></trkpt>
      <trkpt lat="51.224171" lon="4.405161"><ele>11.4</ele></trkpt>
      <trkpt lat="51.224441" lon="4.405016"><ele>9.8</ele></trkpt>
      <trkpt lat="51.224539" lon="4.405069"><ele>9.4</ele></trkpt>
      <trkpt lat="51.224946" lon="4.405674"><ele>6.6</ele></trkpt>
      <trkpt lat="51.225106" lon="4.406222"><ele>6.0</ele></trkpt>
      <trkpt lat="51.225128" lon="4.406918"><ele>7.8</ele></trkpt>
      <trkpt lat="51.225275" lon="4.407417"><ele>9.6</ele></trkpt>
      <trkpt lat="51.225148" lon="4.408347"><ele>8.8</ele></trkpt>
      <trkpt lat="51.225168" lon="4.409751"><ele>9.8</ele></trkpt>
      <trkpt lat="51.226310" lon="4.409632"><ele>5.6</ele></trkpt>
      <trkpt lat="51.226718" lon="4.409687"><ele>4.4</ele></trkpt>
      <trkpt lat="51.226905" lon="4.409435"><ele>4.4</ele></trkpt>
      <trkpt lat="51.226841" lon="4.407743"><ele>12.6</ele></trkpt>
      <trkpt lat="51.226885" lon="4.406832"><ele>11.2</ele></trkpt>
      <trkpt lat="51.226712" lon="4.405804"><ele>9.8</ele></trkpt>
      <trkpt lat="51.226816" lon="4.404993"><ele>16.8</ele></trkpt>
      <trkpt lat="51.226825" lon="4.404195"><ele>16.2</ele></trkpt>
      <trkpt lat="51.226976" lon="4.403412"><ele>11.6</ele></trkpt>
      <trkpt lat="51.227047" lon="4.404332"><ele>16.8</ele></trkpt>
      <trkpt lat="51.226973" lon="4.405471"><ele>13.4</ele></trkpt>
      <trkpt lat="51.227192" lon="4.407122"><ele>14.4</ele></trkpt>
      <trkpt lat="51.227214" lon="4.408602"><ele>11.6</ele></trkpt>
      <trkpt lat="51.227322" lon="4.409495"><ele>8.8</ele></trkpt>
      <trkpt lat="51.228110" lon="4.409273"><ele>6.2</ele></trkpt>
      <trkpt lat="51.227992" lon="4.406402"><ele>10.8</ele></trkpt>
      <trkpt lat="51.228029" lon="4.405691"><ele>7.8</ele></trkpt>
      <trkpt lat="51.228201" lon="4.405554"><ele>5.6</ele></trkpt>
      <trkpt lat="51.228832" lon="4.405554"><ele>4.0</ele></trkpt>
    </trkseg>
  </trk>
</gpx>
