<?xml version="1.0" encoding="UTF-8"?>
<gpx version="1.1" creator="gpx-processor" xmlns="http://www.topografix.com/GPX/1/1">
  <metadata><name>Espelette Running</name></metadata>
  <trk>
    <name>Espelette Running</name>
    <trkseg>
      <trkpt lat="43.339584" lon="-1.447008"><ele>78.4</ele></trkpt>
      <trkpt lat="43.339026" lon="-1.446873"><ele>77.4</ele></trkpt>
      <trkpt lat="43.337752" lon="-1.446202"><ele>81.2</ele></trkpt>
      <trkpt lat="43.336737" lon="-1.446132"><ele>80.6</ele></trkpt>
      <trkpt lat="43.336015" lon="-1.446226"><ele>84.2</ele></trkpt>
      <trkpt lat="43.334997" lon="-1.445469"><ele>79.0</ele></trkpt>
      <trkpt lat="43.334470" lon="-1.445263"><ele>77.8</ele></trkpt>
      <trkpt lat="43.334135" lon="-1.445434"><ele>78.0</ele></trkpt>
      <trkpt lat="43.333922" lon="-1.445729"><ele>77.2</ele></trkpt>
      <trkpt lat="43.333621" lon="-1.446672"><ele>81.0</ele></trkpt>
      <trkpt lat="43.333417" lon="-1.446959"><ele>79.0</ele></trkpt>
      <trkpt lat="43.332997" lon="-1.447182"><ele>75.2</ele></trkpt>
      <trkpt lat="43.332024" lon="-1.447365"><ele>85.8</ele></trkpt>
      <trkpt lat="43.331645" lon="-1.447716"><ele>84.6</ele></trkpt>
      <trkpt lat="43.331392" lon="-1.448415"><ele>83.8</ele></trkpt>
      <trkpt lat="43.331189" lon="-1.449498"><ele>96.6</ele></trkpt>
      <trkpt lat="43.330849" lon="-1.449848"><ele>89.6</ele></trkpt>
      <trkpt lat="43.330527" lon="-1.449805"><ele>85.2</ele></trkpt>
      <trkpt lat="43.329652" lon="-1.449324"><ele>85.6</ele></trkpt>
      <trkpt lat="43.329181" lon="-1.449262"><ele>89.2</ele></trkpt>
      <trkpt lat="43.328654" lon="-1.449357"><ele>96.6</ele></trkpt>
      <trkpt lat="43.328428" lon="-1.449490"><ele>101.2</ele></trkpt>
      <trkpt lat="43.327876" lon="-1.449389"><ele>94.0</ele></trkpt>
      <trkpt lat="43.327199" lon="-1.448892"><ele>99.2</ele></trkpt>
      <trkpt lat="43.326707" lon="-1.448346"><ele>102.0</ele></trkpt>
      <trkpt lat="43.326481" lon="-1.448461"><ele>111.6</ele></trkpt>
      <trkpt lat="43.326148" lon="-1.448399"><ele>113.6</ele></trkpt>
      <trkpt lat="43.325591" lon="-1.448666"><ele>123.0</ele></trkpt>
      <trkpt lat="43.325234" lon="-1.448642"><ele>115.8</ele></trkpt>
      <trkpt lat="43.324539" lon="-1.449151"><ele>110.6</ele></trkpt>
      <trkpt lat="43.323826" lon="-1.449283"><ele>109.2</ele></trkpt>
      <trkpt lat="43.323015" lon="-1.449786"><ele>108.8</ele></trkpt>
      <trkpt lat="43.322912" lon="-1.449601"><ele>106.2</ele></trkpt>
      <trkpt lat="43.322903" lon="-1.449360"><ele>103.8</ele></trkpt>
      <trkpt lat="43.322939" lon="-1.448783"><ele>100.4</ele></trkpt>
      <trkpt lat="43.323041" lon="-1.448508"><ele>99.8</ele></trkpt>
      <trkpt lat="43.322884" lon="-1.448297"><ele>103.2</ele></trkpt>
      <trkpt lat="43.322528" lon="-1.448338"><ele>112.4</ele></trkpt>
      <trkpt lat="43.322088" lon="-1.448688"><ele>118.0</ele></trkpt>
      <trkpt lat="43.321792" lon="-1.448739"><ele>127.8</ele></trkpt>
      <trkpt lat="43.321492" lon="-1.449023"><ele>125.8</ele></trkpt>
      <trkpt lat="43.320897" lon="-1.448952"><ele>125.0</ele></trkpt>
      <trkpt lat="43.320546" lon="-1.448829"><ele>129.4</ele></trkpt>
      <trkpt lat="43.319999" lon="-1.448199"><ele>138.4</ele></trkpt>
      <trkpt lat="43.319467" lon="-1.447815"><ele>146.4</ele></trkpt>
      <trkpt lat="43.319219" lon="-1.447352"><ele>151.2</ele></trkpt>
      <trkpt lat="43.319134" lon="-1.446950"><ele>157.6</ele></trkpt>
      <trkpt lat="43.318634" lon="-1.446575"><ele>168.6</ele></trkpt>
      <trkpt lat="43.318401" lon="-1.446574"><ele>170.8</ele></trkpt>
      <trkpt lat="43.318194" lon="-1.446954"><ele>169.6</ele></trkpt>
      <trkpt lat="43.317967" lon="-1.447090"><ele>165.0</ele></trkpt>
      <trkpt lat="43.316906" lon="-1.446729"><ele>164.4</ele></trkpt>
      <trkpt lat="43.316699" lon="-1.446011"><ele>169.2</ele></trkpt>
      <trkpt lat="43.316361" lon="-1.445420"><ele>175.8</ele></trkpt>
      <trkpt lat="43.316378" lon="-1.445155"><ele>179.6</ele></trkpt>
      <trkpt lat="43.316537" lon="-1.444887"><ele>184.4</ele></trkpt>
      <trkpt lat="43.316522" lon="-1.444616"><ele>190.2</ele></trkpt>
      <trkpt lat="43.316396" lon="-1.444438"><ele>196.2</ele></trkpt>
      <trkpt lat="43.316003" lon="-1.444250"><ele>202.0</ele></trkpt>
      <trkpt lat="43.315788" lon="-1.444023"><ele>211.6</ele></trkpt>
      <trkpt lat="43.315446" lon="-1.443232"><ele>226.4</ele></trkpt>
      <trkpt lat="43.315173" lon="-1.442962"><ele>225.6</ele></trkpt>
      <trkpt lat="43.314897" lon="-1.442346"><ele>221.8</ele></trkpt>
      <trkpt lat="43.314498" lon="-1.442037"><ele>229.2</ele></trkpt>
      <trkpt lat="43.314461" lon="-1.441926"><ele>227.2</ele></trkpt>
      <trkpt lat="43.315296" lon="-1.441461"><ele>224.0</ele></trkpt>
      <trkpt lat="43.315579" lon="-1.441180"><ele>231.2</ele></trkpt>
      <trkpt lat="43.316060" lon="-1.440581"><ele>240.8</ele></trkpt>
      <trkpt lat="43.316141" lon="-1.440376"><ele>247.2</ele></trkpt>
      <trkpt lat="43.316138" lon="-1.440106"><ele>254.8</ele></trkpt>
      <trkpt lat="43.316245" lon="-1.439918"><ele>257.2</ele></trkpt>
      <trkpt lat="43.316699" lon="-1.439789"><ele>258.4</ele></trkpt>
      <trkpt lat="43.317195" lon="-1.438983"><ele>275.6</ele></trkpt>
      <trkpt lat="43.316868" lon="-1.438503"><ele>285.4</ele></trkpt>
      <trkpt lat="43.316485" lon="-1.438212"><ele>294.0</ele></trkpt>
      <trkpt lat="43.315680" lon="-1.438042"><ele>322.6</ele></trkpt>
      <trkpt lat="43.315228" lon="-1.438124"><ele>327.8</ele></trkpt>
      <trkpt lat="43.315088" lon="-1.438018"><ele>330.4</ele></trkpt>
      <trkpt lat="43.314951" lon="-1.437463"><ele>343.4</ele></trkpt>
      <trkpt lat="43.314955" lon="-1.436422"><ele>364.2</ele></trkpt>
      <trkpt lat="43.314410" lon="-1.435079"><ele>387.6</ele></trkpt>
      <trkpt lat="43.315039" lon="-1.434787"><ele>385.8</ele></trkpt>
      <trkpt lat="43.316419" lon="-1.434477"><ele>373.0</ele></trkpt>
      <trkpt lat="43.317275" lon="-1.434988"><ele>347.0</ele></trkpt>
      <trkpt lat="43.317598" lon="-1.435023"><ele>338.0</ele></trkpt>
      <trkpt lat="43.317926" lon="-1.434894"><ele>335.4</ele></trkpt>
      <trkpt lat="43.318191" lon="-1.434600"><ele>337.0</ele></trkpt>
      <trkpt lat="43.318695" lon="-1.434377"><ele>332.2</ele></trkpt>
      <trkpt lat="43.319445" lon="-1.434594"><ele>313.6</ele></trkpt>
      <trkpt lat="43.319896" lon="-1.434526"><ele>297.4</ele></trkpt>
      <trkpt lat="43.320696" lon="-1.434168"><ele>284.6</ele></trkpt>
      <trkpt lat="43.321359" lon="-1.434330"><ele>272.0</ele></trkpt>
      <trkpt lat="43.320842" lon="-1.434109"><ele>283.4</ele></trkpt>
      <trkpt lat="43.321378" lon="-1.433080"><ele>298.0</ele></trkpt>
      <trkpt lat="43.321448" lon="-1.432461"><ele>306.6</ele></trkpt>
      <trkpt lat="43.321358" lon="-1.431578"><ele>316.8</ele></trkpt>
      <trkpt lat="43.320792" lon="-1.429859"><ele>335.4</ele></trkpt>
      <trkpt lat="43.320311" lon="-1.429339"><ele>344.2</ele></trkpt>
      <trkpt lat="43.320277" lon="-1.428799"><ele>336.0</ele></trkpt>
      <trkpt lat="43.319953" lon="-1.427913"><ele>343.4</ele></trkpt>
      <trkpt lat="43.319939" lon="-1.426829"><ele>343.6</ele></trkpt>
      <trkpt lat="43.319794" lon="-1.426553"><ele>346.0</ele></trkpt>
      <trkpt lat="43.318221" lon="-1.426934"><ele>384.2</ele></trkpt>
      <trkpt lat="43.316766" lon="-1.428011"><ele>410.8</ele></trkpt>
      <trkpt lat="43.315725" lon="-1.427789"><ele>426.2</ele></trkpt>
      <trkpt lat="43.315235" lon="-1.427814"><ele>433.2</ele></trkpt>
      <trkpt lat="43.314828" lon="-1.427619"><ele>433.8</ele></trkpt>
      <trkpt lat="43.314273" lon="-1.427509"><ele>444.6</ele></trkpt>
      <trkpt lat="43.313811" lon="-1.427503"><ele>450.6</ele></trkpt>
      <trkpt lat="43.313418" lon="-1.427746"><ele>455.2</ele></trkpt>
      <trkpt lat="43.313097" lon="-1.428104"><ele>457.8</ele></trkpt>
      <trkpt lat="43.312342" lon="-1.429547"><ele>478.0</ele></trkpt>
      <trkpt lat="43.312111" lon="-1.429742"><ele>482.8</ele></trkpt>
      <trkpt lat="43.311670" lon="-1.429783"><ele>478.0</ele></trkpt>
      <trkpt lat="43.311545" lon="-1.430595"><ele>484.8</ele></trkpt>
      <trkpt lat="43.311359" lon="-1.430915"><ele>480.6</ele></trkpt>
      <trkpt lat="43.309922" lon="-1.431607"><ele>474.8</ele></trkpt>
      <trkpt lat="43.309500" lon="-1.431679"><ele>475.4</ele></trkpt>
      <trkpt lat="43.309076" lon="-1.431895"><ele>482.6</ele></trkpt>
      <trkpt lat="43.308709" lon="-1.431895"><ele>494.4</ele></trkpt>
      <trkpt lat="43.308361" lon="-1.432131"><ele>504.2</ele></trkpt>
      <trkpt lat="43.307633" lon="-1.432154"><ele>520.6</ele></trkpt>
      <trkpt lat="43.306877" lon="-1.431915"><ele>554.2</ele></trkpt>
      <trkpt lat="43.306465" lon="-1.432074"><ele>566.8</ele></trkpt>
      <trkpt lat="43.305320" lon="-1.432092"><ele>609.2</ele></trkpt>
      <trkpt lat="43.304348" lon="-1.432411"><ele>636.2</ele></trkpt>
      <trkpt lat="43.303788" lon="-1.432344"><ele>666.4</ele></trkpt>
      <trkpt lat="43.303428" lon="-1.432505"><ele>680.8</ele></trkpt>
      <trkpt lat="43.303263" lon="-1.432424"><ele>687.0</ele></trkpt>
      <trkpt lat="43.303017" lon="-1.432665"><ele>687.4</ele></trkpt>
      <trkpt lat="43.302761" lon="-1.432424"><ele>699.6</ele></trkpt>
      <trkpt lat="43.302631" lon="-1.432453"><ele>702.8</ele></trkpt>
      <trkpt lat="43.302909" lon="-1.431840"><ele>708.0</ele></trkpt>
      <trkpt lat="43.302922" lon="-1.431734"><ele>708.0</ele></trkpt>
      <trkpt lat="43.302839" lon="-1.431639"><ele>710.6</ele></trkpt>
      <trkpt lat="43.302705" lon="-1.431702"><ele>714.2</ele></trkpt>
      <trkpt lat="43.302598" lon="-1.432241"><ele>709.6</ele></trkpt>
      <trkpt lat="43.302411" lon="-1.432526"><ele>707.8</ele></trkpt>
      <trkpt lat="43.301852" lon="-1.432739"><ele>716.4</ele></trkpt>
      <trkpt lat="43.301587" lon="-1.432680"><ele>716.2</ele></trkpt>
      <trkpt lat="43.301406" lon="-1.432453"><ele>717.8</ele></trkpt>
      <trkpt lat="43.301327" lon="-1.432483"><ele>715.8</ele></trkpt>
      <trkpt lat="43.301154" lon="-1.432066"><ele>711.2</ele></trkpt>
      <trkpt lat="43.300960" lon="-1.432124"><ele>704.0</ele></trkpt>
      <trkpt lat="43.300516" lon="-1.431969"><ele>687.0</ele></trkpt>
      <trkpt lat="43.299591" lon="-1.431905"><ele>665.8</ele></trkpt>
      <trkpt lat="43.298517" lon="-1.432101"><ele>653.6</ele></trkpt>
      <trkpt lat="43.298131" lon="-1.432438"><ele>652.0</ele></trkpt>
      <trkpt lat="43.297982" lon="-1.432698"><ele>646.6</ele></trkpt>
      <trkpt lat="43.297023" lon="-1.432844"><ele>649.2</ele></trkpt>
      <trkpt lat="43.296765" lon="-1.432968"><ele>651.0</ele></trkpt>
      <trkpt lat="43.296128" lon="-1.433640"><ele>646.6</ele></trkpt>
      <trkpt lat="43.295866" lon="-1.433787"><ele>648.4</ele></trkpt>
      <trkpt lat="43.295508" lon="-1.434269"><ele>645.6</ele></trkpt>
      <trkpt lat="43.294713" lon="-1.435027"><ele>644.6</ele></trkpt>
      <trkpt lat="43.294139" lon="-1.435029"><ele>640.2</ele></trkpt>
      <trkpt lat="43.293845" lon="-1.434896"><ele>638.6</ele></trkpt>
      <trkpt lat="43.293416" lon="-1.435095"><ele>626.2</ele></trkpt>
      <trkpt lat="43.293160" lon="-1.434955"><ele>623.4</ele></trkpt>
      <trkpt lat="43.292607" lon="-1.434995"><ele>612.6</ele></trkpt>
      <trkpt lat="43.291192" lon="-1.435423"><ele>589.2</ele></trkpt>
      <trkpt lat="43.290822" lon="-1.435794"><ele>581.4</ele></trkpt>
      <trkpt lat="43.290588" lon="-1.436310"><ele>574.6</ele></trkpt>
      <trkpt lat="43.289734" lon="-1.437249"><ele>563.4</ele></trkpt>
      <trkpt lat="43.289389" lon="-1.438119"><ele>557.0</ele></trkpt>
      <trkpt lat="43.289213" lon="-1.438318"><ele>559.0</ele></trkpt>
      <trkpt lat="43.288755" lon="-1.438157"><ele>559.4</ele></trkpt>
      <trkpt lat="43.288277" lon="-1.438152"><ele>571.6</ele></trkpt>
      <trkpt lat="43.287904" lon="-1.437910"><ele>571.2</ele></trkpt>
      <trkpt lat="43.287208" lon="-1.438139"><ele>592.0</ele></trkpt>
      <trkpt lat="43.286835" lon="-1.438041"><ele>592.8</ele></trkpt>
      <trkpt lat="43.286498" lon="-1.438110"><ele>599.4</ele></trkpt>
      <trkpt lat="43.286088" lon="-1.437910"><ele>600.4</ele></trkpt>
      <trkpt lat="43.285854" lon="-1.437522"><ele>600.8</ele></trkpt>
      <trkpt lat="43.285643" lon="-1.437396"><ele>602.2</ele></trkpt>
      <trkpt lat="43.285252" lon="-1.437426"><ele>602.4</ele></trkpt>
      <trkpt lat="43.285021" lon="-1.437547"><ele>605.4</ele></trkpt>
      <trkpt lat="43.284360" lon="-1.437213"><ele>603.4</ele></trkpt>
      <trkpt lat="43.283696" lon="-1.437425"><ele>607.4</ele></trkpt>
      <trkpt lat="43.283339" lon="-1.438125"><ele>616.6</ele></trkpt>
      <trkpt lat="43.283116" lon="-1.437982"><ele>609.4</ele></trkpt>
      <trkpt lat="43.282643" lon="-1.438246"><ele>615.0</ele></trkpt>
      <trkpt lat="43.282323" lon="-1.438292"><ele>618.6</ele></trkpt>
      <trkpt lat="43.282063" lon="-1.438061"><ele>611.0</ele></trkpt>
      <trkpt lat="43.281344" lon="-1.438027"><ele>613.6</ele></trkpt>
      <trkpt lat="43.279309" lon="-1.439861"><ele>620.6</ele></trkpt>
      <trkpt lat="43.278654" lon="-1.440052"><ele>626.4</ele></trkpt>
      <trkpt lat="43.278464" lon="-1.439673"><ele>616.2</ele></trkpt>
      <trkpt lat="43.278245" lon="-1.439456"><ele>615.2</ele></trkpt>
      <trkpt lat="43.277891" lon="-1.439453"><ele>617.8</ele></trkpt>
      <trkpt lat="43.277661" lon="-1.439582"><ele>618.4</ele></trkpt>
      <trkpt lat="43.276858" lon="-1.440602"><ele>622.2</ele></trkpt>
      <trkpt lat="43.276406" lon="-1.440727"><ele>620.4</ele></trkpt>
      <trkpt lat="43.276077" lon="-1.440547"><ele>614.2</ele></trkpt>
      <trkpt lat="43.275841" lon="-1.440609"><ele>618.2</ele></trkpt>
      <trkpt lat="43.275246" lon="-1.441053"><ele>626.2</ele></trkpt>
      <trkpt lat="43.274238" lon="-1.442129"><ele>627.6</ele></trkpt>
      <trkpt lat="43.273822" lon="-1.442328"><ele>625.8</ele></trkpt>
      <trkpt lat="43.273613" lon="-1.442544"><ele>631.8</ele></trkpt>
      <trkpt lat="43.273428" lon="-1.442474"><ele>628.2</ele></trkpt>
      <trkpt lat="43.272938" lon="-1.442621"><ele>635.0</ele></trkpt>
      <trkpt lat="43.272369" lon="-1.442556"><ele>634.8</ele></trkpt>
      <trkpt lat="43.272210" lon="-1.442752"><ele>640.0</ele></trkpt>
      <trkpt lat="43.271925" lon="-1.443589"><ele>646.2</ele></trkpt>
      <trkpt lat="43.271650" lon="-1.443994"><ele>647.8</ele></trkpt>
      <trkpt lat="43.271123" lon="-1.444261"><ele>652.4</ele></trkpt>
      <trkpt lat="43.270459" lon="-1.444361"><ele>653.0</ele></trkpt>
      <trkpt lat="43.270065" lon="-1.444667"><ele>651.4</ele></trkpt>
      <trkpt lat="43.269890" lon="-1.445006"><ele>651.2</ele></trkpt>
      <trkpt lat="43.269073" lon="-1.445361"><ele>643.8</ele></trkpt>
      <trkpt lat="43.268853" lon="-1.445696"><ele>645.6</ele></trkpt>
      <trkpt lat="43.268481" lon="-1.446580"><ele>644.2</ele></trkpt>
      <trkpt lat="43.268522" lon="-1.446659"><ele>644.0</ele></trkpt>
      <trkpt lat="43.268650" lon="-1.446603"><ele>644.2</ele></trkpt>
      <trkpt lat="43.269573" lon="-1.445834"><ele>655.4</ele></trkpt>
      <trkpt lat="43.269928" lon="-1.445675"><ele>657.4</ele></trkpt>
      <trkpt lat="43.272159" lon="-1.445263"><ele>684.0</ele></trkpt>
      <trkpt lat="43.272994" lon="-1.444898"><ele>691.0</ele></trkpt>
      <trkpt lat="43.273838" lon="-1.444118"><ele>680.4</ele></trkpt>
      <trkpt lat="43.276194" lon="-1.442757"><ele>675.4</ele></trkpt>
      <trkpt lat="43.277914" lon="-1.442440"><ele>686.4</ele></trkpt>
      <trkpt lat="43.278921" lon="-1.442484"><ele>682.6</ele></trkpt>
      <trkpt lat="43.279770" lon="-1.441700"><ele>677.4</ele></trkpt>
      <trkpt lat="43.280563" lon="-1.441089"><ele>670.6</ele></trkpt>
      <trkpt lat="43.280878" lon="-1.440961"><ele>660.8</ele></trkpt>
      <trkpt lat="43.281406" lon="-1.440403"><ele>653.0</ele></trkpt>
      <trkpt lat="43.281923" lon="-1.440068"><ele>657.2</ele></trkpt>
      <trkpt lat="43.282476" lon="-1.439992"><ele>660.8</ele></trkpt>
      <trkpt lat="43.282962" lon="-1.440117"><ele>656.6</ele></trkpt>
      <trkpt lat="43.285099" lon="-1.438914"><ele>643.0</ele></trkpt>
      <trkpt lat="43.285382" lon="-1.438843"><ele>636.0</ele></trkpt>
      <trkpt lat="43.285696" lon="-1.438932"><ele>635.2</ele></trkpt>
      <trkpt lat="43.286794" lon="-1.438910"><ele>625.0</ele></trkpt>
      <trkpt lat="43.288357" lon="-1.438446"><ele>582.6</ele></trkpt>
      <trkpt lat="43.289239" lon="-1.438566"><ele>562.6</ele></trkpt>
      <trkpt lat="43.289465" lon="-1.438474"><ele>559.6</ele></trkpt>
      <trkpt lat="43.290433" lon="-1.438620"><ele>536.6</ele></trkpt>
      <trkpt lat="43.291105" lon="-1.437918"><ele>522.0</ele></trkpt>
      <trkpt lat="43.291424" lon="-1.437733"><ele>526.4</ele></trkpt>
      <trkpt lat="43.291796" lon="-1.438402"><ele>502.2</ele></trkpt>
      <trkpt lat="43.292048" lon="-1.438585"><ele>501.2</ele></trkpt>
      <trkpt lat="43.292138" lon="-1.439114"><ele>496.2</ele></trkpt>
      <trkpt lat="43.292390" lon="-1.439501"><ele>495.4</ele></trkpt>
      <trkpt lat="43.293330" lon="-1.439748"><ele>486.4</ele></trkpt>
      <trkpt lat="43.293376" lon="-1.440172"><ele>475.2</ele></trkpt>
      <trkpt lat="43.293940" lon="-1.441007"><ele>475.0</ele></trkpt>
      <trkpt lat="43.294504" lon="-1.441286"><ele>474.8</ele></trkpt>
      <trkpt lat="43.295498" lon="-1.442731"><ele>461.0</ele></trkpt>
      <trkpt lat="43.295858" lon="-1.443148"><ele>450.4</ele></trkpt>
      <trkpt lat="43.296272" lon="-1.443445"><ele>447.4</ele></trkpt>
      <trkpt lat="43.296841" lon="-1.444125"><ele>434.2</ele></trkpt>
      <trkpt lat="43.297031" lon="-1.444813"><ele>441.8</ele></trkpt>
      <trkpt lat="43.297335" lon="-1.445365"><ele>441.8</ele></trkpt>
      <trkpt lat="43.298166" lon="-1.446239"><ele>435.0</ele></trkpt>
      <trkpt lat="43.298716" lon="-1.446650"><ele>437.8</ele></trkpt>
      <trkpt lat="43.298844" lon="-1.446833"><ele>438.4</ele></trkpt>
      <trkpt lat="43.298829" lon="-1.447103"><ele>436.0</ele></trkpt>
      <trkpt lat="43.299229" lon="-1.447725"><ele>432.8</ele></trkpt>
      <trkpt lat="43.299260" lon="-1.447997"><ele>432.0</ele></trkpt>
      <trkpt lat="43.299418" lon="-1.448346"><ele>436.0</ele></trkpt>
      <trkpt lat="43.299400" lon="-1.449118"><ele>446.4</ele></trkpt>
      <trkpt lat="43.299079" lon="-1.450579"><ele>464.2</ele></trkpt>
      <trkpt lat="43.299535" lon="-1.450985"><ele>472.6</ele></trkpt>
      <trkpt lat="43.299827" lon="-1.451442"><ele>478.4</ele></trkpt>
      <trkpt lat="43.299947" lon="-1.452142"><ele>487.4</ele></trkpt>
      <trkpt lat="43.299840" lon="-1.452716"><ele>493.8</ele></trkpt>
      <trkpt lat="43.299474" lon="-1.453539"><ele>509.0</ele></trkpt>
      <trkpt lat="43.299193" lon="-1.454557"><ele>518.8</ele></trkpt>
      <trkpt lat="43.299204" lon="-1.455032"><ele>517.8</ele></trkpt>
      <trkpt lat="43.299456" lon="-1.455474"><ele>528.8</ele></trkpt>
      <trkpt lat="43.299511" lon="-1.455820"><ele>533.4</ele></trkpt>
      <trkpt lat="43.299419" lon="-1.456425"><ele>535.0</ele></trkpt>
      <trkpt lat="43.299185" lon="-1.457090"><ele>534.2</ele></trkpt>
      <trkpt lat="43.299205" lon="-1.458542"><ele>544.8</ele></trkpt>
      <trkpt lat="43.298891" lon="-1.459500"><ele>538.8</ele></trkpt>
      <trkpt lat="43.298890" lon="-1.459812"><ele>539.8</ele></trkpt>
      <trkpt lat="43.299070" lon="-1.460252"><ele>543.2</ele></trkpt>
      <trkpt lat="43.299364" lon="-1.460587"><ele>542.4</ele></trkpt>
      <trkpt lat="43.300069" lon="-1.460962"><ele>541.0</ele></trkpt>
      <trkpt lat="43.300941" lon="-1.461848"><ele>539.6</ele></trkpt>
      <trkpt lat="43.301581" lon="-1.463110"><ele>531.4</ele></trkpt>
      <trkpt lat="43.302124" lon="-1.463764"><ele>523.8</ele></trkpt>
      <trkpt lat="43.302306" lon="-1.465137"><ele>507.0</ele></trkpt>
      <trkpt lat="43.302902" lon="-1.466316"><ele>508.6</ele></trkpt>
      <trkpt lat="43.302914" lon="-1.468479"><ele>533.6</ele></trkpt>
      <trkpt lat="43.303007" lon="-1.468917"><ele>535.2</ele></trkpt>
      <trkpt lat="43.303391" lon="-1.469516"><ele>541.4</ele></trkpt>
      <trkpt lat="43.304128" lon="-1.470371"><ele>549.4</ele></trkpt>
      <trkpt lat="43.304641" lon="-1.471385"><ele>569.8</ele></trkpt>
      <trkpt lat="43.305215" lon="-1.471959"><ele>571.2</ele></trkpt>
      <trkpt lat="43.305705" lon="-1.472905"><ele>560.6</ele></trkpt>
      <trkpt lat="43.306089" lon="-1.474370"><ele>550.4</ele></trkpt>
      <trkpt lat="43.306017" lon="-1.474863"><ele>538.6</ele></trkpt>
      <trkpt lat="43.305685" lon="-1.475401"><ele>523.2</ele></trkpt>
      <trkpt lat="43.305409" lon="-1.476708"><ele>484.0</ele></trkpt>
      <trkpt lat="43.305441" lon="-1.477797"><ele>455.2</ele></trkpt>
      <trkpt lat="43.305325" lon="-1.478224"><ele>441.4</ele></trkpt>
      <trkpt lat="43.305212" lon="-1.479407"><ele>416.4</ele></trkpt>
      <trkpt lat="43.305084" lon="-1.480000"><ele>411.0</ele></trkpt>
      <trkpt lat="43.305093" lon="-1.480218"><ele>408.0</ele></trkpt>
      <trkpt lat="43.305169" lon="-1.480282"><ele>406.2</ele></trkpt>
      <trkpt lat="43.305290" lon="-1.480184"><ele>405.6</ele></trkpt>
      <trkpt lat="43.305703" lon="-1.479121"><ele>405.0</ele></trkpt>
      <trkpt lat="43.306047" lon="-1.478555"><ele>398.2</ele></trkpt>
      <trkpt lat="43.306097" lon="-1.478238"><ele>413.6</ele></trkpt>
      <trkpt lat="43.306353" lon="-1.477925"><ele>422.4</ele></trkpt>
      <trkpt lat="43.307511" lon="-1.478469"><ele>414.0</ele></trkpt>
      <trkpt lat="43.308036" lon="-1.478568"><ele>415.2</ele></trkpt>
      <trkpt lat="43.308767" lon="-1.478510"><ele>412.6</ele></trkpt>
      <trkpt lat="43.309593" lon="-1.478189"><ele>415.0</ele></trkpt>
      <trkpt lat="43.310325" lon="-1.478127"><ele>406.6</ele></trkpt>
      <trkpt lat="43.310617" lon="-1.477484"><ele>412.8</ele></trkpt>
      <trkpt lat="43.310460" lon="-1.477063"><ele>422.0</ele></trkpt>
      <trkpt lat="43.311012" lon="-1.475884"><ele>414.8</ele></trkpt>
      <trkpt lat="43.311924" lon="-1.476064"><ele>394.0</ele></trkpt>
      <trkpt lat="43.312552" lon="-1.476067"><ele>378.8</ele></trkpt>
      <trkpt lat="43.313529" lon="-1.475793"><ele>363.4</ele></trkpt>
      <trkpt lat="43.313827" lon="-1.475277"><ele>357.2</ele></trkpt>
      <trkpt lat="43.314094" lon="-1.475037"><ele>350.6</ele></trkpt>
      <trkpt lat="43.314246" lon="-1.474536"><ele>345.8</ele></trkpt>
      <trkpt lat="43.315015" lon="-1.473688"><ele>327.2</ele></trkpt>
      <trkpt lat="43.315484" lon="-1.472730"><ele>316.4</ele></trkpt>
      <trkpt lat="43.315796" lon="-1.472420"><ele>312.2</ele></trkpt>
      <trkpt lat="43.316112" lon="-1.471744"><ele>307.2</ele></trkpt>
      <trkpt lat="43.316442" lon="-1.470690"><ele>298.0</ele></trkpt>
      <trkpt lat="43.316897" lon="-1.470388"><ele>295.8</ele></trkpt>
      <trkpt lat="43.317115" lon="-1.470396"><ele>296.2</ele></trkpt>
      <trkpt lat="43.317204" lon="-1.470497"><ele>296.6</ele></trkpt>
      <trkpt lat="43.317150" lon="-1.471050"><ele>297.4</ele></trkpt>
      <trkpt lat="43.316428" lon="-1.472900"><ele>304.0</ele></trkpt>
      <trkpt lat="43.316150" lon="-1.474127"><ele>301.0</ele></trkpt>
      <trkpt lat="43.315919" lon="-1.474645"><ele>305.8</ele></trkpt>
      <trkpt lat="43.315782" lon="-1.475280"><ele>310.0</ele></trkpt>
      <trkpt lat="43.315769" lon="-1.475761"><ele>311.0</ele></trkpt>
      <trkpt lat="43.315610" lon="-1.476066"><ele>316.6</ele></trkpt>
      <trkpt lat="43.315990" lon="-1.476665"><ele>310.8</ele></trkpt>
      <trkpt lat="43.315941" lon="-1.477207"><ele>305.6</ele></trkpt>
      <trkpt lat="43.315766" lon="-1.477730"><ele>301.2</ele></trkpt>
      <trkpt lat="43.315805" lon="-1.477972"><ele>296.8</ele></trkpt>
      <trkpt lat="43.315979" lon="-1.478172"><ele>289.2</ele></trkpt>
      <trkpt lat="43.316497" lon="-1.477986"><ele>286.0</ele></trkpt>
      <trkpt lat="43.317152" lon="-1.478204"><ele>275.6</ele></trkpt>
      <trkpt lat="43.318388" lon="-1.478041"><ele>265.2</ele></trkpt>
      <trkpt lat="43.318788" lon="-1.477831"><ele>258.0</ele></trkpt>
      <trkpt lat="43.319199" lon="-1.477297"><ele>255.0</ele></trkpt>
      <trkpt lat="43.320684" lon="-1.477088"><ele>243.2</ele></trkpt>
      <trkpt lat="43.321962" lon="-1.476031"><ele>238.4</ele></trkpt>
      <trkpt lat="43.323024" lon="-1.475014"><ele>229.8</ele></trkpt>
      <trkpt lat="43.324204" lon="-1.473676"><ele>220.2</ele></trkpt>
      <trkpt lat="43.326451" lon="-1.472276"><ele>193.6</ele></trkpt>
      <trkpt lat="43.327115" lon="-1.470876"><ele>196.2</ele></trkpt>
      <trkpt lat="43.328167" lon="-1.469781"><ele>188.6</ele></trkpt>
      <trkpt lat="43.328230" lon="-1.469086"><ele>188.4</ele></trkpt>
      <trkpt lat="43.328053" lon="-1.468773"><ele>183.6</ele></trkpt>
      <trkpt lat="43.328738" lon="-1.468002"><ele>179.2</ele></trkpt>
      <trkpt lat="43.329464" lon="-1.466325"><ele>177.2</ele></trkpt>
      <trkpt lat="43.329546" lon="-1.465750"><ele>177.6</ele></trkpt>
      <trkpt lat="43.329362" lon="-1.465283"><ele>182.4</ele></trkpt>
      <trkpt lat="43.329332" lon="-1.464920"><ele>182.0</ele></trkpt>
      <trkpt lat="43.330336" lon="-1.463752"><ele>170.0</ele></trkpt>
      <trkpt lat="43.331000" lon="-1.461534"><ele>163.8</ele></trkpt>
      <trkpt lat="43.331135" lon="-1.460858"><ele>158.2</ele></trkpt>
      <trkpt lat="43.331912" lon="-1.459948"><ele>144.6</ele></trkpt>
      <trkpt lat="43.332317" lon="-1.459212"><ele>140.6</ele></trkpt>
      <trkpt lat="43.332406" lon="-1.458831"><ele>140.4</ele></trkpt>
      <trkpt lat="43.332302" lon="-1.457870"><ele>133.0</ele></trkpt>
      <trkpt lat="43.332626" lon="-1.456461"><ele>125.2</ele></trkpt>
      <trkpt lat="43.332558" lon="-1.455620"><ele>121.6</ele></trkpt>
      <trkpt lat="43.332743" lon="-1.455034"><ele>118.2</ele></trkpt>
      <trkpt lat="43.332941" lon="-1.453794"><ele>110.0</ele></trkpt>
      <trkpt lat="43.333125" lon="-1.453280"><ele>111.2</ele></trkpt>
      <trkpt lat="43.334476" lon="-1.452424"><ele>101.8</ele></trkpt>
      <trkpt lat="43.334918" lon="-1.452314"><ele>100.0</ele></trkpt>
      <trkpt lat="43.335553" lon="-1.452374"><ele>97.4</ele></trkpt>
      <trkpt lat="43.336688" lon="-1.451746"><ele>93.2</ele></trkpt>
      <trkpt lat="43.337404" lon="-1.451783"><ele>83.6</ele></trkpt>
      <trkpt lat="43.338131" lon="-1.451683"><ele>74.4</ele></trkpt>
      <trkpt lat="43.338684" lon="-1.452002"><ele>68.4</ele></trkpt>
      <trkpt lat="43.338830" lon="-1.451177"><ele>71.8</ele></trkpt>
      <trkpt lat="43.339229" lon="-1.450777"><ele>68.4</ele></trkpt>
      <trkpt lat="43.339258" lon="-1.450413"><ele>68.6</ele></trkpt>
      <trkpt lat="43.339484" lon="-1.450220"><ele>66.8</ele></trkpt>
      <trkpt lat="43.339619" lon="-1.450312"><ele>66.0</ele></trkpt>
      <trkpt lat="43.339598" lon="-1.450597"><ele>65.2</ele></trkpt>
      <trkpt lat="43.339714" lon="-1.450427"><ele>65.6</ele></trkpt>
      <trkpt lat="43.339954" lon="-1.450485"><ele>66.4</ele></trkpt>
      <trkpt lat="43.339959" lon="-1.450107"><ele>69.2</ele></trkpt>
      <trkpt lat="43.339547" lon="-1.449476"><ele>70.8</ele></trkpt>
      <trkpt lat="43.339405" lon="-1.449079"><ele>72.8</ele></trkpt>
      <trkpt lat="43.339751" lon="-1.448550"><ele>78.0</ele></trkpt>
      <trkpt lat="43.340084" lon="-1.448794"><ele>78.8</ele></trkpt>
      <trkpt lat="43.340750" lon="-1.449063"><ele>81.2</ele></trkpt>
      <trkpt lat="43.340817" lon="-1.449183"><ele>80.6</ele></trkpt>
      <trkpt lat="43.340834" lon="-1.449613"><ele>78.2</ele></trkpt>
      <trkpt lat="43.340955" lon="-1.449773"><ele>78.0</ele></trkpt>
      <trkpt lat="43.341060" lon="-1.449719"><ele>78.0</ele></trkpt>
      <trkpt lat="43.341191" lon="-1.449348"><ele>78.0</ele></trkpt>
      <trkpt lat="43.340644" lon="-1.448946"><ele>81.2</ele></trkpt>
      <trkpt lat="43.340547" lon="-1.448104"><ele>79.0</ele></trkpt>
      <trkpt lat="43.340178" lon="-1.447861"><ele>78.8</ele></trkpt>
      <trkpt lat="43.340113" lon="-1.447234"><ele>77.0</ele></trkpt>
      <trkpt lat="43.339623" lon="-1.446939"><ele>78.2</ele></trkpt>
    </trkseg>
  </trk>
</gpx>
