<?xml version="1.0" encoding="UTF-8"?>
<gpx version="1.1" creator="gpx-processor" xmlns="http://www.topografix.com/GPX/1/1">
  <metadata><name>Bol d’Air - La boucle des Verreries</name></metadata>
  <trk>
    <name>Bol d’Air - La boucle des Verreries</name>
    <trkseg>
      <trkpt lat="46.487868" lon="-0.787246"><ele>25.4</ele></trkpt>
      <trkpt lat="46.488944" lon="-0.786092"><ele>33.4</ele></trkpt>
      <trkpt lat="46.489241" lon="-0.786352"><ele>34.6</ele></trkpt>
      <trkpt lat="46.489663" lon="-0.787152"><ele>36.8</ele></trkpt>
      <trkpt lat="46.489771" lon="-0.787634"><ele>34.2</ele></trkpt>
      <trkpt lat="46.489901" lon="-0.788936"><ele>32.8</ele></trkpt>
      <trkpt lat="46.489723" lon="-0.789770"><ele>31.2</ele></trkpt>
      <trkpt lat="46.489836" lon="-0.789922"><ele>30.8</ele></trkpt>
      <trkpt lat="46.490171" lon="-0.790079"><ele>30.4</ele></trkpt>
      <trkpt lat="46.491155" lon="-0.789459"><ele>36.8</ele></trkpt>
      <trkpt lat="46.491254" lon="-0.789044"><ele>39.4</ele></trkpt>
      <trkpt lat="46.491876" lon="-0.788353"><ele>41.2</ele></trkpt>
      <trkpt lat="46.491876" lon="-0.788183"><ele>41.6</ele></trkpt>
      <trkpt lat="46.491569" lon="-0.787712"><ele>42.0</ele></trkpt>
      <trkpt lat="46.491663" lon="-0.787509"><ele>42.2</ele></trkpt>
      <trkpt lat="46.493994" lon="-0.785906"><ele>59.0</ele></trkpt>
      <trkpt lat="46.494092" lon="-0.785925"><ele>60.8</ele></trkpt>
      <trkpt lat="46.494485" lon="-0.786643"><ele>63.0</ele></trkpt>
      <trkpt lat="46.494731" lon="-0.786514"><ele>64.4</ele></trkpt>
      <trkpt lat="46.494631" lon="-0.785006"><ele>69.8</ele></trkpt>
      <trkpt lat="46.494436" lon="-0.784273"><ele>71.0</ele></trkpt>
      <trkpt lat="46.494306" lon="-0.783266"><ele>72.6</ele></trkpt>
      <trkpt lat="46.494012" lon="-0.782288"><ele>71.6</ele></trkpt>
      <trkpt lat="46.494054" lon="-0.782126"><ele>71.2</ele></trkpt>
      <trkpt lat="46.494340" lon="-0.781983"><ele>72.4</ele></trkpt>
      <trkpt lat="46.494639" lon="-0.782268"><ele>74.6</ele></trkpt>
      <trkpt lat="46.494867" lon="-0.782670"><ele>76.0</ele></trkpt>
      <trkpt lat="46.495024" lon="-0.783271"><ele>76.2</ele></trkpt>
      <trkpt lat="46.495236" lon="-0.783643"><ele>76.6</ele></trkpt>
      <trkpt lat="46.495951" lon="-0.782915"><ele>72.0</ele></trkpt>
      <trkpt lat="46.496593" lon="-0.782658"><ele>70.2</ele></trkpt>
      <trkpt lat="46.497685" lon="-0.783680"><ele>65.4</ele></trkpt>
      <trkpt lat="46.498659" lon="-0.784185"><ele>57.8</ele></trkpt>
      <trkpt lat="46.499272" lon="-0.784878"><ele>48.0</ele></trkpt>
      <trkpt lat="46.500800" lon="-0.785915"><ele>22.2</ele></trkpt>
      <trkpt lat="46.500919" lon="-0.785823"><ele>21.2</ele></trkpt>
      <trkpt lat="46.500937" lon="-0.785688"><ele>20.8</ele></trkpt>
      <trkpt lat="46.500651" lon="-0.784854"><ele>14.0</ele></trkpt>
      <trkpt lat="46.499827" lon="-0.783847"><ele>13.4</ele></trkpt>
      <trkpt lat="46.499696" lon="-0.783497"><ele>14.0</ele></trkpt>
      <trkpt lat="46.500027" lon="-0.783281"><ele>16.0</ele></trkpt>
      <trkpt lat="46.500441" lon="-0.783282"><ele>19.2</ele></trkpt>
      <trkpt lat="46.500557" lon="-0.782566"><ele>24.0</ele></trkpt>
      <trkpt lat="46.500877" lon="-0.782212"><ele>26.0</ele></trkpt>
      <trkpt lat="46.500965" lon="-0.782249"><ele>26.6</ele></trkpt>
      <trkpt lat="46.501019" lon="-0.782470"><ele>28.6</ele></trkpt>
      <trkpt lat="46.501278" lon="-0.782115"><ele>30.8</ele></trkpt>
      <trkpt lat="46.501478" lon="-0.782129"><ele>31.8</ele></trkpt>
      <trkpt lat="46.501962" lon="-0.782777"><ele>43.2</ele></trkpt>
      <trkpt lat="46.502046" lon="-0.783019"><ele>47.6</ele></trkpt>
      <trkpt lat="46.502646" lon="-0.783724"><ele>52.6</ele></trkpt>
      <trkpt lat="46.502827" lon="-0.784187"><ele>52.0</ele></trkpt>
      <trkpt lat="46.503075" lon="-0.784401"><ele>41.8</ele></trkpt>
      <trkpt lat="46.503230" lon="-0.784725"><ele>37.4</ele></trkpt>
      <trkpt lat="46.502984" lon="-0.785070"><ele>36.6</ele></trkpt>
      <trkpt lat="46.502593" lon="-0.785381"><ele>33.2</ele></trkpt>
      <trkpt lat="46.502307" lon="-0.785450"><ele>28.6</ele></trkpt>
      <trkpt lat="46.502027" lon="-0.785737"><ele>20.6</ele></trkpt>
      <trkpt lat="46.502262" lon="-0.787034"><ele>15.8</ele></trkpt>
      <trkpt lat="46.503461" lon="-0.790791"><ele>17.6</ele></trkpt>
      <trkpt lat="46.503698" lon="-0.792185"><ele>17.0</ele></trkpt>
      <trkpt lat="46.503729" lon="-0.792908"><ele>17.2</ele></trkpt>
      <trkpt lat="46.503579" lon="-0.793374"><ele>17.0</ele></trkpt>
      <trkpt lat="46.503338" lon="-0.793617"><ele>16.8</ele></trkpt>
      <trkpt lat="46.503061" lon="-0.793682"><ele>17.4</ele></trkpt>
      <trkpt lat="46.502798" lon="-0.793510"><ele>17.4</ele></trkpt>
      <trkpt lat="46.502565" lon="-0.793535"><ele>17.6</ele></trkpt>
      <trkpt lat="46.501231" lon="-0.794101"><ele>20.0</ele></trkpt>
      <trkpt lat="46.500471" lon="-0.794593"><ele>20.6</ele></trkpt>
      <trkpt lat="46.499917" lon="-0.795453"><ele>19.4</ele></trkpt>
      <trkpt lat="46.500051" lon="-0.796231"><ele>21.8</ele></trkpt>
      <trkpt lat="46.500085" lon="-0.796982"><ele>22.8</ele></trkpt>
      <trkpt lat="46.500436" lon="-0.797356"><ele>24.2</ele></trkpt>
      <trkpt lat="46.500922" lon="-0.797659"><ele>27.0</ele></trkpt>
      <trkpt lat="46.501527" lon="-0.797373"><ele>29.4</ele></trkpt>
      <trkpt lat="46.502218" lon="-0.797704"><ele>33.0</ele></trkpt>
      <trkpt lat="46.502481" lon="-0.797579"><ele>34.0</ele></trkpt>
      <trkpt lat="46.502609" lon="-0.797622"><ele>34.4</ele></trkpt>
      <trkpt lat="46.502716" lon="-0.797436"><ele>35.0</ele></trkpt>
      <trkpt lat="46.502979" lon="-0.797333"><ele>36.2</ele></trkpt>
      <trkpt lat="46.503509" lon="-0.797827"><ele>40.8</ele></trkpt>
      <trkpt lat="46.504310" lon="-0.797803"><ele>42.4</ele></trkpt>
      <trkpt lat="46.505128" lon="-0.798413"><ele>47.8</ele></trkpt>
      <trkpt lat="46.505556" lon="-0.798400"><ele>47.8</ele></trkpt>
      <trkpt lat="46.506184" lon="-0.798147"><ele>50.2</ele></trkpt>
      <trkpt lat="46.506596" lon="-0.798240"><ele>50.8</ele></trkpt>
      <trkpt lat="46.507123" lon="-0.798190"><ele>52.8</ele></trkpt>
      <trkpt lat="46.507352" lon="-0.797998"><ele>53.6</ele></trkpt>
      <trkpt lat="46.507385" lon="-0.797562"><ele>56.2</ele></trkpt>
      <trkpt lat="46.507552" lon="-0.797254"><ele>57.2</ele></trkpt>
      <trkpt lat="46.507695" lon="-0.797178"><ele>57.6</ele></trkpt>
      <trkpt lat="46.508707" lon="-0.797558"><ele>61.2</ele></trkpt>
      <trkpt lat="46.509170" lon="-0.798038"><ele>61.2</ele></trkpt>
      <trkpt lat="46.509884" lon="-0.798349"><ele>64.2</ele></trkpt>
      <trkpt lat="46.510049" lon="-0.798646"><ele>62.8</ele></trkpt>
      <trkpt lat="46.510008" lon="-0.799164"><ele>63.6</ele></trkpt>
      <trkpt lat="46.509790" lon="-0.799598"><ele>75.2</ele></trkpt>
      <trkpt lat="46.509828" lon="-0.799847"><ele>72.2</ele></trkpt>
      <trkpt lat="46.509144" lon="-0.800364"><ele>82.0</ele></trkpt>
      <trkpt lat="46.509014" lon="-0.800678"><ele>82.2</ele></trkpt>
      <trkpt lat="46.508274" lon="-0.801192"><ele>92.6</ele></trkpt>
      <trkpt lat="46.508911" lon="-0.801856"><ele>92.4</ele></trkpt>
      <trkpt lat="46.509428" lon="-0.802262"><ele>91.6</ele></trkpt>
      <trkpt lat="46.509559" lon="-0.802250"><ele>90.4</ele></trkpt>
      <trkpt lat="46.510564" lon="-0.801395"><ele>73.8</ele></trkpt>
      <trkpt lat="46.510802" lon="-0.801579"><ele>67.8</ele></trkpt>
      <trkpt lat="46.510972" lon="-0.801436"><ele>67.0</ele></trkpt>
      <trkpt lat="46.512582" lon="-0.801245"><ele>78.4</ele></trkpt>
      <trkpt lat="46.513517" lon="-0.800180"><ele>85.2</ele></trkpt>
      <trkpt lat="46.513792" lon="-0.799973"><ele>87.6</ele></trkpt>
      <trkpt lat="46.514549" lon="-0.799685"><ele>92.0</ele></trkpt>
      <trkpt lat="46.515475" lon="-0.798638"><ele>94.8</ele></trkpt>
      <trkpt lat="46.517005" lon="-0.797912"><ele>95.2</ele></trkpt>
      <trkpt lat="46.517168" lon="-0.797649"><ele>95.4</ele></trkpt>
      <trkpt lat="46.517093" lon="-0.797332"><ele>94.0</ele></trkpt>
      <trkpt lat="46.517015" lon="-0.795899"><ele>90.8</ele></trkpt>
      <trkpt lat="46.517303" lon="-0.794534"><ele>93.2</ele></trkpt>
      <trkpt lat="46.518706" lon="-0.795081"><ele>96.2</ele></trkpt>
      <trkpt lat="46.519619" lon="-0.794719"><ele>92.0</ele></trkpt>
      <trkpt lat="46.519855" lon="-0.794512"><ele>90.2</ele></trkpt>
      <trkpt lat="46.520220" lon="-0.794512"><ele>92.8</ele></trkpt>
      <trkpt lat="46.523522" lon="-0.793257"><ele>99.4</ele></trkpt>
      <trkpt lat="46.523668" lon="-0.793697"><ele>100.4</ele></trkpt>
      <trkpt lat="46.523624" lon="-0.794181"><ele>101.8</ele></trkpt>
      <trkpt lat="46.525618" lon="-0.793473"><ele>102.0</ele></trkpt>
      <trkpt lat="46.525658" lon="-0.793216"><ele>101.8</ele></trkpt>
      <trkpt lat="46.525431" lon="-0.788230"><ele>104.0</ele></trkpt>
      <trkpt lat="46.525682" lon="-0.788099"><ele>105.0</ele></trkpt>
      <trkpt lat="46.525926" lon="-0.787696"><ele>105.2</ele></trkpt>
      <trkpt lat="46.526379" lon="-0.787383"><ele>106.0</ele></trkpt>
      <trkpt lat="46.526802" lon="-0.787385"><ele>107.4</ele></trkpt>
      <trkpt lat="46.527671" lon="-0.786831"><ele>109.4</ele></trkpt>
      <trkpt lat="46.527935" lon="-0.786784"><ele>109.2</ele></trkpt>
      <trkpt lat="46.528042" lon="-0.786915"><ele>109.0</ele></trkpt>
      <trkpt lat="46.528191" lon="-0.787677"><ele>108.8</ele></trkpt>
      <trkpt lat="46.528382" lon="-0.787976"><ele>108.4</ele></trkpt>
      <trkpt lat="46.529695" lon="-0.787542"><ele>103.8</ele></trkpt>
      <trkpt lat="46.530064" lon="-0.789501"><ele>105.4</ele></trkpt>
      <trkpt lat="46.531536" lon="-0.790166"><ele>108.0</ele></trkpt>
      <trkpt lat="46.531731" lon="-0.791174"><ele>108.8</ele></trkpt>
      <trkpt lat="46.532788" lon="-0.790804"><ele>104.0</ele></trkpt>
      <trkpt lat="46.533315" lon="-0.790771"><ele>105.6</ele></trkpt>
      <trkpt lat="46.536283" lon="-0.791028"><ele>107.4</ele></trkpt>
      <trkpt lat="46.536369" lon="-0.790938"><ele>106.8</ele></trkpt>
      <trkpt lat="46.536390" lon="-0.790717"><ele>105.2</ele></trkpt>
      <trkpt lat="46.535252" lon="-0.784943"><ele>103.4</ele></trkpt>
      <trkpt lat="46.535176" lon="-0.784435"><ele>101.6</ele></trkpt>
      <trkpt lat="46.535271" lon="-0.784273"><ele>100.8</ele></trkpt>
      <trkpt lat="46.537213" lon="-0.783579"><ele>102.4</ele></trkpt>
      <trkpt lat="46.537315" lon="-0.783702"><ele>102.2</ele></trkpt>
      <trkpt lat="46.537494" lon="-0.784464"><ele>102.8</ele></trkpt>
      <trkpt lat="46.537932" lon="-0.784707"><ele>102.6</ele></trkpt>
      <trkpt lat="46.538340" lon="-0.785290"><ele>101.0</ele></trkpt>
      <trkpt lat="46.538886" lon="-0.785342"><ele>102.8</ele></trkpt>
      <trkpt lat="46.539759" lon="-0.784984"><ele>100.4</ele></trkpt>
      <trkpt lat="46.540449" lon="-0.784505"><ele>98.2</ele></trkpt>
      <trkpt lat="46.540726" lon="-0.783989"><ele>97.6</ele></trkpt>
      <trkpt lat="46.540823" lon="-0.783492"><ele>96.0</ele></trkpt>
      <trkpt lat="46.540927" lon="-0.783428"><ele>95.6</ele></trkpt>
      <trkpt lat="46.541970" lon="-0.785846"><ele>103.8</ele></trkpt>
      <trkpt lat="46.541958" lon="-0.786180"><ele>103.4</ele></trkpt>
      <trkpt lat="46.541591" lon="-0.786785"><ele>103.6</ele></trkpt>
      <trkpt lat="46.541650" lon="-0.787083"><ele>103.0</ele></trkpt>
      <trkpt lat="46.541967" lon="-0.787198"><ele>100.2</ele></trkpt>
      <trkpt lat="46.543082" lon="-0.786926"><ele>88.8</ele></trkpt>
      <trkpt lat="46.543773" lon="-0.786521"><ele>83.2</ele></trkpt>
      <trkpt lat="46.544646" lon="-0.786546"><ele>80.6</ele></trkpt>
      <trkpt lat="46.544942" lon="-0.786113"><ele>76.8</ele></trkpt>
      <trkpt lat="46.545161" lon="-0.785576"><ele>73.8</ele></trkpt>
      <trkpt lat="46.545452" lon="-0.784679"><ele>73.8</ele></trkpt>
      <trkpt lat="46.545484" lon="-0.784069"><ele>72.6</ele></trkpt>
      <trkpt lat="46.545251" lon="-0.783933"><ele>71.6</ele></trkpt>
      <trkpt lat="46.544195" lon="-0.784080"><ele>74.0</ele></trkpt>
      <trkpt lat="46.543678" lon="-0.784040"><ele>80.8</ele></trkpt>
      <trkpt lat="46.543056" lon="-0.783828"><ele>88.4</ele></trkpt>
      <trkpt lat="46.542857" lon="-0.783555"><ele>84.2</ele></trkpt>
      <trkpt lat="46.542621" lon="-0.782775"><ele>70.2</ele></trkpt>
      <trkpt lat="46.542889" lon="-0.782010"><ele>61.8</ele></trkpt>
      <trkpt lat="46.542853" lon="-0.781050"><ele>56.8</ele></trkpt>
      <trkpt lat="46.544112" lon="-0.781216"><ele>55.0</ele></trkpt>
      <trkpt lat="46.544305" lon="-0.781773"><ele>52.8</ele></trkpt>
      <trkpt lat="46.544566" lon="-0.782068"><ele>52.6</ele></trkpt>
      <trkpt lat="46.544736" lon="-0.782121"><ele>52.6</ele></trkpt>
      <trkpt lat="46.545072" lon="-0.782057"><ele>52.6</ele></trkpt>
      <trkpt lat="46.546180" lon="-0.781507"><ele>52.2</ele></trkpt>
      <trkpt lat="46.546210" lon="-0.781360"><ele>51.8</ele></trkpt>
      <trkpt lat="46.546072" lon="-0.780856"><ele>57.2</ele></trkpt>
      <trkpt lat="46.545699" lon="-0.780087"><ele>67.6</ele></trkpt>
      <trkpt lat="46.545578" lon="-0.779578"><ele>70.8</ele></trkpt>
      <trkpt lat="46.545548" lon="-0.779253"><ele>72.4</ele></trkpt>
      <trkpt lat="46.545632" lon="-0.778850"><ele>73.6</ele></trkpt>
      <trkpt lat="46.545803" lon="-0.778509"><ele>73.6</ele></trkpt>
      <trkpt lat="46.546194" lon="-0.778811"><ele>68.2</ele></trkpt>
      <trkpt lat="46.546568" lon="-0.779157"><ele>59.6</ele></trkpt>
      <trkpt lat="46.546644" lon="-0.779389"><ele>56.6</ele></trkpt>
      <trkpt lat="46.546630" lon="-0.779678"><ele>53.8</ele></trkpt>
      <trkpt lat="46.546851" lon="-0.779546"><ele>53.6</ele></trkpt>
      <trkpt lat="46.547651" lon="-0.779489"><ele>60.8</ele></trkpt>
      <trkpt lat="46.548074" lon="-0.778415"><ele>57.2</ele></trkpt>
      <trkpt lat="46.548512" lon="-0.777856"><ele>56.2</ele></trkpt>
      <trkpt lat="46.548911" lon="-0.776848"><ele>56.2</ele></trkpt>
      <trkpt lat="46.549219" lon="-0.776618"><ele>56.8</ele></trkpt>
      <trkpt lat="46.548967" lon="-0.775876"><ele>58.4</ele></trkpt>
      <trkpt lat="46.548993" lon="-0.775510"><ele>54.6</ele></trkpt>
      <trkpt lat="46.549505" lon="-0.775528"><ele>66.8</ele></trkpt>
      <trkpt lat="46.549786" lon="-0.775956"><ele>66.6</ele></trkpt>
      <trkpt lat="46.550160" lon="-0.776240"><ele>62.6</ele></trkpt>
      <trkpt lat="46.550355" lon="-0.776138"><ele>58.6</ele></trkpt>
      <trkpt lat="46.550765" lon="-0.776382"><ele>55.2</ele></trkpt>
      <trkpt lat="46.550981" lon="-0.776106"><ele>53.0</ele></trkpt>
      <trkpt lat="46.551086" lon="-0.776337"><ele>55.2</ele></trkpt>
      <trkpt lat="46.551085" lon="-0.776537"><ele>56.0</ele></trkpt>
      <trkpt lat="46.551181" lon="-0.776629"><ele>57.2</ele></trkpt>
      <trkpt lat="46.551489" lon="-0.777437"><ele>55.4</ele></trkpt>
      <trkpt lat="46.551927" lon="-0.777708"><ele>54.2</ele></trkpt>
      <trkpt lat="46.552405" lon="-0.777849"><ele>53.6</ele></trkpt>
      <trkpt lat="46.552644" lon="-0.777693"><ele>54.2</ele></trkpt>
      <trkpt lat="46.552670" lon="-0.777947"><ele>53.2</ele></trkpt>
      <trkpt lat="46.552584" lon="-0.778196"><ele>53.8</ele></trkpt>
      <trkpt lat="46.552721" lon="-0.778605"><ele>55.0</ele></trkpt>
      <trkpt lat="46.553034" lon="-0.778898"><ele>56.2</ele></trkpt>
      <trkpt lat="46.553117" lon="-0.779230"><ele>55.0</ele></trkpt>
      <trkpt lat="46.553350" lon="-0.779215"><ele>55.0</ele></trkpt>
      <trkpt lat="46.553469" lon="-0.778888"><ele>56.4</ele></trkpt>
      <trkpt lat="46.553609" lon="-0.778899"><ele>57.2</ele></trkpt>
      <trkpt lat="46.553860" lon="-0.778690"><ele>57.2</ele></trkpt>
      <trkpt lat="46.554085" lon="-0.777994"><ele>55.6</ele></trkpt>
      <trkpt lat="46.554373" lon="-0.777849"><ele>56.6</ele></trkpt>
      <trkpt lat="46.554881" lon="-0.777297"><ele>57.0</ele></trkpt>
      <trkpt lat="46.555139" lon="-0.777146"><ele>56.8</ele></trkpt>
      <trkpt lat="46.555552" lon="-0.776564"><ele>55.8</ele></trkpt>
      <trkpt lat="46.555625" lon="-0.776059"><ele>54.6</ele></trkpt>
      <trkpt lat="46.555536" lon="-0.775777"><ele>54.8</ele></trkpt>
      <trkpt lat="46.555334" lon="-0.775512"><ele>54.8</ele></trkpt>
      <trkpt lat="46.555410" lon="-0.774450"><ele>54.0</ele></trkpt>
      <trkpt lat="46.555090" lon="-0.773503"><ele>59.0</ele></trkpt>
      <trkpt lat="46.555160" lon="-0.773049"><ele>60.6</ele></trkpt>
      <trkpt lat="46.555293" lon="-0.772771"><ele>59.0</ele></trkpt>
      <trkpt lat="46.555232" lon="-0.772407"><ele>58.8</ele></trkpt>
      <trkpt lat="46.555393" lon="-0.771933"><ele>62.4</ele></trkpt>
      <trkpt lat="46.555279" lon="-0.771758"><ele>62.6</ele></trkpt>
      <trkpt lat="46.555438" lon="-0.771688"><ele>61.4</ele></trkpt>
      <trkpt lat="46.555516" lon="-0.771531"><ele>61.4</ele></trkpt>
      <trkpt lat="46.555560" lon="-0.770696"><ele>63.8</ele></trkpt>
      <trkpt lat="46.555648" lon="-0.770371"><ele>63.4</ele></trkpt>
      <trkpt lat="46.555576" lon="-0.770179"><ele>65.4</ele></trkpt>
      <trkpt lat="46.555488" lon="-0.770175"><ele>66.4</ele></trkpt>
      <trkpt lat="46.555105" lon="-0.771157"><ele>67.8</ele></trkpt>
      <trkpt lat="46.554303" lon="-0.771925"><ele>68.2</ele></trkpt>
      <trkpt lat="46.553774" lon="-0.772285"><ele>73.4</ele></trkpt>
      <trkpt lat="46.553114" lon="-0.772291"><ele>75.8</ele></trkpt>
      <trkpt lat="46.552588" lon="-0.772558"><ele>76.2</ele></trkpt>
      <trkpt lat="46.552079" lon="-0.773197"><ele>73.4</ele></trkpt>
      <trkpt lat="46.551625" lon="-0.773530"><ele>70.8</ele></trkpt>
      <trkpt lat="46.551110" lon="-0.774178"><ele>66.2</ele></trkpt>
      <trkpt lat="46.547421" lon="-0.772972"><ele>80.8</ele></trkpt>
      <trkpt lat="46.545878" lon="-0.772342"><ele>87.6</ele></trkpt>
      <trkpt lat="46.546995" lon="-0.765363"><ele>81.2</ele></trkpt>
      <trkpt lat="46.547107" lon="-0.765304"><ele>80.2</ele></trkpt>
      <trkpt lat="46.547522" lon="-0.765574"><ele>79.0</ele></trkpt>
      <trkpt lat="46.547748" lon="-0.765566"><ele>80.0</ele></trkpt>
      <trkpt lat="46.548465" lon="-0.763493"><ele>84.6</ele></trkpt>
      <trkpt lat="46.548504" lon="-0.763173"><ele>86.4</ele></trkpt>
      <trkpt lat="46.548272" lon="-0.761543"><ele>87.2</ele></trkpt>
      <trkpt lat="46.547904" lon="-0.757861"><ele>76.2</ele></trkpt>
      <trkpt lat="46.547658" lon="-0.756216"><ele>75.0</ele></trkpt>
      <trkpt lat="46.547300" lon="-0.752012"><ele>56.4</ele></trkpt>
      <trkpt lat="46.546985" lon="-0.751320"><ele>55.4</ele></trkpt>
      <trkpt lat="46.546686" lon="-0.751141"><ele>56.0</ele></trkpt>
      <trkpt lat="46.545853" lon="-0.751869"><ele>55.8</ele></trkpt>
      <trkpt lat="46.545120" lon="-0.752779"><ele>56.4</ele></trkpt>
      <trkpt lat="46.544681" lon="-0.752839"><ele>62.4</ele></trkpt>
      <trkpt lat="46.544700" lon="-0.752632"><ele>62.4</ele></trkpt>
      <trkpt lat="46.544639" lon="-0.752593"><ele>62.6</ele></trkpt>
      <trkpt lat="46.544068" lon="-0.752895"><ele>58.8</ele></trkpt>
      <trkpt lat="46.543737" lon="-0.753613"><ele>59.4</ele></trkpt>
      <trkpt lat="46.543772" lon="-0.753837"><ele>58.2</ele></trkpt>
      <trkpt lat="46.544053" lon="-0.754050"><ele>55.6</ele></trkpt>
      <trkpt lat="46.544034" lon="-0.754260"><ele>55.6</ele></trkpt>
      <trkpt lat="46.543563" lon="-0.754623"><ele>58.4</ele></trkpt>
      <trkpt lat="46.543206" lon="-0.755059"><ele>56.4</ele></trkpt>
      <trkpt lat="46.543180" lon="-0.754778"><ele>62.0</ele></trkpt>
      <trkpt lat="46.542698" lon="-0.754943"><ele>64.2</ele></trkpt>
      <trkpt lat="46.542359" lon="-0.754738"><ele>70.0</ele></trkpt>
      <trkpt lat="46.541907" lon="-0.754736"><ele>72.6</ele></trkpt>
      <trkpt lat="46.539167" lon="-0.753469"><ele>86.8</ele></trkpt>
      <trkpt lat="46.538862" lon="-0.753454"><ele>87.8</ele></trkpt>
      <trkpt lat="46.538514" lon="-0.755002"><ele>85.8</ele></trkpt>
      <trkpt lat="46.538896" lon="-0.754966"><ele>83.6</ele></trkpt>
      <trkpt lat="46.539063" lon="-0.755220"><ele>81.2</ele></trkpt>
      <trkpt lat="46.539099" lon="-0.755449"><ele>80.2</ele></trkpt>
      <trkpt lat="46.539588" lon="-0.755811"><ele>75.4</ele></trkpt>
      <trkpt lat="46.539616" lon="-0.756698"><ele>68.8</ele></trkpt>
      <trkpt lat="46.539801" lon="-0.757584"><ele>60.8</ele></trkpt>
      <trkpt lat="46.539975" lon="-0.758019"><ele>55.4</ele></trkpt>
      <trkpt lat="46.540465" lon="-0.758126"><ele>51.4</ele></trkpt>
      <trkpt lat="46.541272" lon="-0.756815"><ele>53.4</ele></trkpt>
      <trkpt lat="46.541571" lon="-0.756444"><ele>54.2</ele></trkpt>
      <trkpt lat="46.541696" lon="-0.756409"><ele>54.8</ele></trkpt>
      <trkpt lat="46.541782" lon="-0.756685"><ele>58.2</ele></trkpt>
      <trkpt lat="46.542566" lon="-0.757676"><ele>73.6</ele></trkpt>
      <trkpt lat="46.542701" lon="-0.758639"><ele>82.4</ele></trkpt>
      <trkpt lat="46.542668" lon="-0.758818"><ele>82.8</ele></trkpt>
      <trkpt lat="46.538987" lon="-0.759685"><ele>77.0</ele></trkpt>
      <trkpt lat="46.538431" lon="-0.759399"><ele>71.4</ele></trkpt>
      <trkpt lat="46.538388" lon="-0.759540"><ele>69.8</ele></trkpt>
      <trkpt lat="46.538609" lon="-0.760235"><ele>62.8</ele></trkpt>
      <trkpt lat="46.538394" lon="-0.760031"><ele>59.6</ele></trkpt>
      <trkpt lat="46.538230" lon="-0.760006"><ele>54.4</ele></trkpt>
      <trkpt lat="46.538194" lon="-0.760190"><ele>56.0</ele></trkpt>
      <trkpt lat="46.536637" lon="-0.762864"><ele>60.6</ele></trkpt>
      <trkpt lat="46.536223" lon="-0.761598"><ele>51.6</ele></trkpt>
      <trkpt lat="46.535961" lon="-0.761163"><ele>46.8</ele></trkpt>
      <trkpt lat="46.535703" lon="-0.761071"><ele>44.0</ele></trkpt>
      <trkpt lat="46.535302" lon="-0.761335"><ele>42.8</ele></trkpt>
      <trkpt lat="46.534967" lon="-0.761323"><ele>43.0</ele></trkpt>
      <trkpt lat="46.534712" lon="-0.761179"><ele>45.8</ele></trkpt>
      <trkpt lat="46.534235" lon="-0.760628"><ele>43.6</ele></trkpt>
      <trkpt lat="46.533930" lon="-0.760473"><ele>43.2</ele></trkpt>
      <trkpt lat="46.533619" lon="-0.760562"><ele>43.0</ele></trkpt>
      <trkpt lat="46.532709" lon="-0.761457"><ele>43.2</ele></trkpt>
      <trkpt lat="46.532417" lon="-0.761894"><ele>43.4</ele></trkpt>
      <trkpt lat="46.532115" lon="-0.762063"><ele>43.8</ele></trkpt>
      <trkpt lat="46.531640" lon="-0.762020"><ele>47.4</ele></trkpt>
      <trkpt lat="46.531390" lon="-0.761488"><ele>48.4</ele></trkpt>
      <trkpt lat="46.531493" lon="-0.761810"><ele>49.6</ele></trkpt>
      <trkpt lat="46.531659" lon="-0.762013"><ele>49.6</ele></trkpt>
      <trkpt lat="46.532293" lon="-0.762050"><ele>45.2</ele></trkpt>
      <trkpt lat="46.532273" lon="-0.762371"><ele>58.0</ele></trkpt>
      <trkpt lat="46.532076" lon="-0.762588"><ele>67.4</ele></trkpt>
      <trkpt lat="46.531347" lon="-0.766639"><ele>87.6</ele></trkpt>
      <trkpt lat="46.531392" lon="-0.766788"><ele>87.0</ele></trkpt>
      <trkpt lat="46.531799" lon="-0.767053"><ele>84.4</ele></trkpt>
      <trkpt lat="46.531467" lon="-0.767489"><ele>79.2</ele></trkpt>
      <trkpt lat="46.531014" lon="-0.768609"><ele>65.2</ele></trkpt>
      <trkpt lat="46.530853" lon="-0.768756"><ele>61.2</ele></trkpt>
      <trkpt lat="46.530428" lon="-0.768877"><ele>53.2</ele></trkpt>
      <trkpt lat="46.530231" lon="-0.769094"><ele>48.8</ele></trkpt>
      <trkpt lat="46.530176" lon="-0.769572"><ele>48.0</ele></trkpt>
      <trkpt lat="46.530214" lon="-0.770381"><ele>47.6</ele></trkpt>
      <trkpt lat="46.530051" lon="-0.770689"><ele>44.4</ele></trkpt>
      <trkpt lat="46.530069" lon="-0.771084"><ele>42.4</ele></trkpt>
      <trkpt lat="46.530371" lon="-0.772035"><ele>42.4</ele></trkpt>
      <trkpt lat="46.530965" lon="-0.772292"><ele>42.4</ele></trkpt>
      <trkpt lat="46.531252" lon="-0.772266"><ele>42.6</ele></trkpt>
      <trkpt lat="46.531353" lon="-0.772159"><ele>45.2</ele></trkpt>
      <trkpt lat="46.532223" lon="-0.772375"><ele>45.6</ele></trkpt>
      <trkpt lat="46.532592" lon="-0.772300"><ele>48.0</ele></trkpt>
      <trkpt lat="46.533335" lon="-0.772763"><ele>45.8</ele></trkpt>
      <trkpt lat="46.533992" lon="-0.773574"><ele>48.8</ele></trkpt>
      <trkpt lat="46.533724" lon="-0.773701"><ele>49.8</ele></trkpt>
      <trkpt lat="46.533153" lon="-0.774384"><ele>50.4</ele></trkpt>
      <trkpt lat="46.532578" lon="-0.775378"><ele>49.4</ele></trkpt>
      <trkpt lat="46.532456" lon="-0.775169"><ele>49.2</ele></trkpt>
      <trkpt lat="46.532609" lon="-0.774167"><ele>56.0</ele></trkpt>
      <trkpt lat="46.532502" lon="-0.773921"><ele>57.8</ele></trkpt>
      <trkpt lat="46.532409" lon="-0.773919"><ele>58.6</ele></trkpt>
      <trkpt lat="46.531964" lon="-0.774450"><ele>63.0</ele></trkpt>
      <trkpt lat="46.531512" lon="-0.774672"><ele>67.6</ele></trkpt>
      <trkpt lat="46.530969" lon="-0.775351"><ele>76.4</ele></trkpt>
      <trkpt lat="46.530579" lon="-0.775672"><ele>80.6</ele></trkpt>
      <trkpt lat="46.529859" lon="-0.777278"><ele>93.0</ele></trkpt>
      <trkpt lat="46.529587" lon="-0.777615"><ele>95.4</ele></trkpt>
      <trkpt lat="46.529402" lon="-0.777299"><ele>97.2</ele></trkpt>
      <trkpt lat="46.529395" lon="-0.776900"><ele>95.6</ele></trkpt>
      <trkpt lat="46.530476" lon="-0.773473"><ele>59.4</ele></trkpt>
      <trkpt lat="46.530551" lon="-0.773060"><ele>54.2</ele></trkpt>
      <trkpt lat="46.530328" lon="-0.772681"><ele>45.4</ele></trkpt>
      <trkpt lat="46.529901" lon="-0.772539"><ele>51.6</ele></trkpt>
      <trkpt lat="46.528601" lon="-0.771234"><ele>74.0</ele></trkpt>
      <trkpt lat="46.527878" lon="-0.771081"><ele>67.8</ele></trkpt>
      <trkpt lat="46.527902" lon="-0.770484"><ele>60.8</ele></trkpt>
      <trkpt lat="46.528186" lon="-0.769800"><ele>52.2</ele></trkpt>
      <trkpt lat="46.528023" lon="-0.769268"><ele>46.8</ele></trkpt>
      <trkpt lat="46.527780" lon="-0.769222"><ele>44.6</ele></trkpt>
      <trkpt lat="46.526928" lon="-0.769605"><ele>46.0</ele></trkpt>
      <trkpt lat="46.526246" lon="-0.769449"><ele>46.8</ele></trkpt>
      <trkpt lat="46.525777" lon="-0.768854"><ele>46.6</ele></trkpt>
      <trkpt lat="46.525564" lon="-0.768165"><ele>47.8</ele></trkpt>
      <trkpt lat="46.525579" lon="-0.767742"><ele>48.6</ele></trkpt>
      <trkpt lat="46.525709" lon="-0.767284"><ele>47.2</ele></trkpt>
      <trkpt lat="46.526313" lon="-0.766136"><ele>52.8</ele></trkpt>
      <trkpt lat="46.526711" lon="-0.765895"><ele>64.2</ele></trkpt>
      <trkpt lat="46.526865" lon="-0.765602"><ele>66.6</ele></trkpt>
      <trkpt lat="46.527512" lon="-0.765002"><ele>58.4</ele></trkpt>
      <trkpt lat="46.527808" lon="-0.764430"><ele>55.4</ele></trkpt>
      <trkpt lat="46.528175" lon="-0.764204"><ele>48.4</ele></trkpt>
      <trkpt lat="46.528289" lon="-0.763844"><ele>46.8</ele></trkpt>
      <trkpt lat="46.528292" lon="-0.763024"><ele>48.0</ele></trkpt>
      <trkpt lat="46.527891" lon="-0.762439"><ele>53.6</ele></trkpt>
      <trkpt lat="46.527605" lon="-0.761796"><ele>62.8</ele></trkpt>
      <trkpt lat="46.527437" lon="-0.761163"><ele>69.0</ele></trkpt>
      <trkpt lat="46.527394" lon="-0.760679"><ele>75.4</ele></trkpt>
      <trkpt lat="46.527265" lon="-0.760340"><ele>80.8</ele></trkpt>
      <trkpt lat="46.526106" lon="-0.760858"><ele>94.4</ele></trkpt>
      <trkpt lat="46.526079" lon="-0.759484"><ele>93.8</ele></trkpt>
      <trkpt lat="46.526134" lon="-0.759053"><ele>93.4</ele></trkpt>
      <trkpt lat="46.525968" lon="-0.758978"><ele>94.6</ele></trkpt>
      <trkpt lat="46.525074" lon="-0.759228"><ele>97.2</ele></trkpt>
      <trkpt lat="46.524740" lon="-0.758573"><ele>94.0</ele></trkpt>
      <trkpt lat="46.524787" lon="-0.758320"><ele>92.8</ele></trkpt>
      <trkpt lat="46.524691" lon="-0.757621"><ele>91.6</ele></trkpt>
      <trkpt lat="46.524268" lon="-0.757552"><ele>92.0</ele></trkpt>
      <trkpt lat="46.524166" lon="-0.757130"><ele>91.4</ele></trkpt>
      <trkpt lat="46.524332" lon="-0.756689"><ele>88.8</ele></trkpt>
      <trkpt lat="46.524320" lon="-0.756508"><ele>88.6</ele></trkpt>
      <trkpt lat="46.524050" lon="-0.756199"><ele>88.4</ele></trkpt>
      <trkpt lat="46.523817" lon="-0.756189"><ele>89.2</ele></trkpt>
      <trkpt lat="46.523516" lon="-0.756475"><ele>91.4</ele></trkpt>
      <trkpt lat="46.523561" lon="-0.757001"><ele>93.2</ele></trkpt>
      <trkpt lat="46.523112" lon="-0.757116"><ele>91.8</ele></trkpt>
      <trkpt lat="46.523287" lon="-0.757869"><ele>92.6</ele></trkpt>
      <trkpt lat="46.523318" lon="-0.758462"><ele>94.4</ele></trkpt>
      <trkpt lat="46.523053" lon="-0.760148"><ele>89.4</ele></trkpt>
      <trkpt lat="46.522997" lon="-0.761079"><ele>86.2</ele></trkpt>
      <trkpt lat="46.523150" lon="-0.761889"><ele>88.0</ele></trkpt>
      <trkpt lat="46.523970" lon="-0.764980"><ele>91.8</ele></trkpt>
      <trkpt lat="46.524190" lon="-0.766139"><ele>90.2</ele></trkpt>
      <trkpt lat="46.524338" lon="-0.767210"><ele>88.2</ele></trkpt>
      <trkpt lat="46.524379" lon="-0.768485"><ele>86.4</ele></trkpt>
      <trkpt lat="46.524502" lon="-0.769150"><ele>86.4</ele></trkpt>
      <trkpt lat="46.524326" lon="-0.769448"><ele>86.6</ele></trkpt>
      <trkpt lat="46.523373" lon="-0.769976"><ele>83.0</ele></trkpt>
      <trkpt lat="46.523075" lon="-0.770237"><ele>81.6</ele></trkpt>
      <trkpt lat="46.522720" lon="-0.770226"><ele>81.0</ele></trkpt>
      <trkpt lat="46.521915" lon="-0.770697"><ele>80.2</ele></trkpt>
      <trkpt lat="46.521806" lon="-0.770977"><ele>80.2</ele></trkpt>
      <trkpt lat="46.521532" lon="-0.772591"><ele>80.0</ele></trkpt>
      <trkpt lat="46.521278" lon="-0.773236"><ele>78.6</ele></trkpt>
      <trkpt lat="46.520863" lon="-0.773533"><ele>76.2</ele></trkpt>
      <trkpt lat="46.520288" lon="-0.773486"><ele>71.0</ele></trkpt>
      <trkpt lat="46.520112" lon="-0.773927"><ele>71.6</ele></trkpt>
      <trkpt lat="46.519615" lon="-0.773548"><ele>69.8</ele></trkpt>
      <trkpt lat="46.519350" lon="-0.773530"><ele>68.6</ele></trkpt>
      <trkpt lat="46.519076" lon="-0.773680"><ele>68.4</ele></trkpt>
      <trkpt lat="46.518552" lon="-0.774379"><ele>71.6</ele></trkpt>
      <trkpt lat="46.518013" lon="-0.774489"><ele>67.0</ele></trkpt>
      <trkpt lat="46.517342" lon="-0.775510"><ele>56.8</ele></trkpt>
      <trkpt lat="46.517229" lon="-0.776044"><ele>50.2</ele></trkpt>
      <trkpt lat="46.516955" lon="-0.776297"><ele>41.6</ele></trkpt>
      <trkpt lat="46.517187" lon="-0.776596"><ele>38.0</ele></trkpt>
      <trkpt lat="46.518287" lon="-0.776747"><ele>36.0</ele></trkpt>
      <trkpt lat="46.518220" lon="-0.777119"><ele>36.4</ele></trkpt>
      <trkpt lat="46.518386" lon="-0.777714"><ele>36.4</ele></trkpt>
      <trkpt lat="46.519095" lon="-0.778872"><ele>38.0</ele></trkpt>
      <trkpt lat="46.519359" lon="-0.780017"><ele>37.4</ele></trkpt>
      <trkpt lat="46.519913" lon="-0.780835"><ele>39.6</ele></trkpt>
      <trkpt lat="46.520757" lon="-0.781803"><ele>56.6</ele></trkpt>
      <trkpt lat="46.521581" lon="-0.782581"><ele>69.8</ele></trkpt>
      <trkpt lat="46.520850" lon="-0.782833"><ele>72.2</ele></trkpt>
      <trkpt lat="46.519069" lon="-0.783201"><ele>47.0</ele></trkpt>
      <trkpt lat="46.518883" lon="-0.783256"><ele>40.6</ele></trkpt>
      <trkpt lat="46.518875" lon="-0.783337"><ele>39.2</ele></trkpt>
      <trkpt lat="46.519251" lon="-0.783953"><ele>42.2</ele></trkpt>
      <trkpt lat="46.519498" lon="-0.783885"><ele>45.0</ele></trkpt>
      <trkpt lat="46.519861" lon="-0.784033"><ele>51.6</ele></trkpt>
      <trkpt lat="46.520755" lon="-0.784691"><ele>65.4</ele></trkpt>
      <trkpt lat="46.521534" lon="-0.785599"><ele>74.8</ele></trkpt>
      <trkpt lat="46.521824" lon="-0.786223"><ele>79.6</ele></trkpt>
      <trkpt lat="46.522428" lon="-0.787096"><ele>82.0</ele></trkpt>
      <trkpt lat="46.522456" lon="-0.787242"><ele>81.8</ele></trkpt>
      <trkpt lat="46.522122" lon="-0.787629"><ele>79.4</ele></trkpt>
      <trkpt lat="46.521804" lon="-0.788281"><ele>76.0</ele></trkpt>
      <trkpt lat="46.521601" lon="-0.788404"><ele>74.8</ele></trkpt>
      <trkpt lat="46.521457" lon="-0.788350"><ele>74.4</ele></trkpt>
      <trkpt lat="46.520690" lon="-0.787607"><ele>71.4</ele></trkpt>
      <trkpt lat="46.519393" lon="-0.784258"><ele>49.0</ele></trkpt>
      <trkpt lat="46.519283" lon="-0.784475"><ele>55.2</ele></trkpt>
      <trkpt lat="46.518766" lon="-0.784284"><ele>67.0</ele></trkpt>
      <trkpt lat="46.518404" lon="-0.784670"><ele>75.2</ele></trkpt>
      <trkpt lat="46.518173" lon="-0.783920"><ele>66.4</ele></trkpt>
      <trkpt lat="46.517981" lon="-0.783706"><ele>62.6</ele></trkpt>
      <trkpt lat="46.517520" lon="-0.783798"><ele>56.6</ele></trkpt>
      <trkpt lat="46.516988" lon="-0.783617"><ele>49.8</ele></trkpt>
      <trkpt lat="46.516295" lon="-0.783800"><ele>44.2</ele></trkpt>
      <trkpt lat="46.515891" lon="-0.784144"><ele>43.8</ele></trkpt>
      <trkpt lat="46.514825" lon="-0.784084"><ele>43.4</ele></trkpt>
      <trkpt lat="46.516074" lon="-0.790567"><ele>85.8</ele></trkpt>
      <trkpt lat="46.516031" lon="-0.790646"><ele>85.4</ele></trkpt>
      <trkpt lat="46.515447" lon="-0.790842"><ele>69.6</ele></trkpt>
      <trkpt lat="46.515257" lon="-0.790766"><ele>64.8</ele></trkpt>
      <trkpt lat="46.514851" lon="-0.790261"><ele>61.0</ele></trkpt>
      <trkpt lat="46.514448" lon="-0.789007"><ele>60.0</ele></trkpt>
      <trkpt lat="46.514208" lon="-0.788824"><ele>62.0</ele></trkpt>
      <trkpt lat="46.514026" lon="-0.788981"><ele>63.6</ele></trkpt>
      <trkpt lat="46.513465" lon="-0.790069"><ele>69.6</ele></trkpt>
      <trkpt lat="46.513165" lon="-0.790939"><ele>74.8</ele></trkpt>
      <trkpt lat="46.512625" lon="-0.791355"><ele>78.8</ele></trkpt>
      <trkpt lat="46.512553" lon="-0.791325"><ele>79.4</ele></trkpt>
      <trkpt lat="46.512420" lon="-0.790946"><ele>80.6</ele></trkpt>
      <trkpt lat="46.512474" lon="-0.789797"><ele>81.8</ele></trkpt>
      <trkpt lat="46.512666" lon="-0.789378"><ele>82.0</ele></trkpt>
      <trkpt lat="46.512965" lon="-0.788272"><ele>80.6</ele></trkpt>
      <trkpt lat="46.512957" lon="-0.787818"><ele>80.6</ele></trkpt>
      <trkpt lat="46.506115" lon="-0.790503"><ele>81.4</ele></trkpt>
      <trkpt lat="46.506031" lon="-0.790332"><ele>82.2</ele></trkpt>
      <trkpt lat="46.505456" lon="-0.787462"><ele>75.0</ele></trkpt>
      <trkpt lat="46.505240" lon="-0.785928"><ele>66.0</ele></trkpt>
      <trkpt lat="46.506481" lon="-0.785267"><ele>68.2</ele></trkpt>
      <trkpt lat="46.507805" lon="-0.784753"><ele>67.4</ele></trkpt>
      <trkpt lat="46.508568" lon="-0.784175"><ele>72.0</ele></trkpt>
      <trkpt lat="46.509886" lon="-0.783660"><ele>65.2</ele></trkpt>
      <trkpt lat="46.510132" lon="-0.782719"><ele>40.6</ele></trkpt>
      <trkpt lat="46.510359" lon="-0.782642"><ele>35.4</ele></trkpt>
      <trkpt lat="46.510393" lon="-0.781813"><ele>27.6</ele></trkpt>
      <trkpt lat="46.510280" lon="-0.781688"><ele>25.4</ele></trkpt>
      <trkpt lat="46.510078" lon="-0.781692"><ele>23.2</ele></trkpt>
      <trkpt lat="46.509629" lon="-0.782107"><ele>20.6</ele></trkpt>
      <trkpt lat="46.508996" lon="-0.782407"><ele>20.2</ele></trkpt>
      <trkpt lat="46.507887" lon="-0.783218"><ele>21.0</ele></trkpt>
      <trkpt lat="46.506862" lon="-0.783569"><ele>22.4</ele></trkpt>
      <trkpt lat="46.506281" lon="-0.783601"><ele>22.0</ele></trkpt>
      <trkpt lat="46.504727" lon="-0.784093"><ele>20.2</ele></trkpt>
      <trkpt lat="46.504556" lon="-0.783986"><ele>18.2</ele></trkpt>
      <trkpt lat="46.504481" lon="-0.783680"><ele>20.8</ele></trkpt>
      <trkpt lat="46.505319" lon="-0.783450"><ele>22.0</ele></trkpt>
      <trkpt lat="46.505716" lon="-0.783149"><ele>23.0</ele></trkpt>
      <trkpt lat="46.506001" lon="-0.783278"><ele>20.8</ele></trkpt>
      <trkpt lat="46.506168" lon="-0.782997"><ele>21.2</ele></trkpt>
      <trkpt lat="46.506441" lon="-0.782799"><ele>21.4</ele></trkpt>
      <trkpt lat="46.506987" lon="-0.783076"><ele>21.6</ele></trkpt>
      <trkpt lat="46.507842" lon="-0.782813"><ele>21.8</ele></trkpt>
      <trkpt lat="46.508187" lon="-0.782547"><ele>23.2</ele></trkpt>
      <trkpt lat="46.508152" lon="-0.782345"><ele>23.2</ele></trkpt>
      <trkpt lat="46.508318" lon="-0.782160"><ele>23.4</ele></trkpt>
      <trkpt lat="46.509191" lon="-0.781592"><ele>26.0</ele></trkpt>
      <trkpt lat="46.509192" lon="-0.781470"><ele>27.4</ele></trkpt>
      <trkpt lat="46.508816" lon="-0.781171"><ele>35.2</ele></trkpt>
      <trkpt lat="46.508720" lon="-0.780705"><ele>43.0</ele></trkpt>
      <trkpt lat="46.508769" lon="-0.776639"><ele>75.4</ele></trkpt>
      <trkpt lat="46.508968" lon="-0.776949"><ele>74.2</ele></trkpt>
      <trkpt lat="46.509140" lon="-0.777536"><ele>70.6</ele></trkpt>
      <trkpt lat="46.509338" lon="-0.777875"><ele>62.6</ele></trkpt>
      <trkpt lat="46.509459" lon="-0.778547"><ele>50.4</ele></trkpt>
      <trkpt lat="46.509966" lon="-0.779772"><ele>63.2</ele></trkpt>
      <trkpt lat="46.510953" lon="-0.779091"><ele>81.6</ele></trkpt>
      <trkpt lat="46.511930" lon="-0.779751"><ele>75.8</ele></trkpt>
      <trkpt lat="46.512400" lon="-0.780141"><ele>74.4</ele></trkpt>
      <trkpt lat="46.512526" lon="-0.780363"><ele>75.2</ele></trkpt>
      <trkpt lat="46.512910" lon="-0.780397"><ele>66.8</ele></trkpt>
      <trkpt lat="46.513382" lon="-0.780904"><ele>48.8</ele></trkpt>
      <trkpt lat="46.513630" lon="-0.780200"><ele>54.4</ele></trkpt>
      <trkpt lat="46.514123" lon="-0.780495"><ele>63.0</ele></trkpt>
      <trkpt lat="46.514556" lon="-0.780274"><ele>68.2</ele></trkpt>
      <trkpt lat="46.515080" lon="-0.781551"><ele>56.6</ele></trkpt>
      <trkpt lat="46.515154" lon="-0.781923"><ele>49.6</ele></trkpt>
      <trkpt lat="46.515316" lon="-0.782126"><ele>43.6</ele></trkpt>
      <trkpt lat="46.515646" lon="-0.781957"><ele>43.8</ele></trkpt>
      <trkpt lat="46.515887" lon="-0.781966"><ele>45.2</ele></trkpt>
      <trkpt lat="46.516159" lon="-0.781773"><ele>45.0</ele></trkpt>
      <trkpt lat="46.517374" lon="-0.780539"><ele>44.2</ele></trkpt>
      <trkpt lat="46.516889" lon="-0.780510"><ele>53.2</ele></trkpt>
      <trkpt lat="46.516272" lon="-0.780942"><ele>63.4</ele></trkpt>
      <trkpt lat="46.515948" lon="-0.780953"><ele>68.4</ele></trkpt>
      <trkpt lat="46.515735" lon="-0.780842"><ele>71.2</ele></trkpt>
      <trkpt lat="46.515434" lon="-0.780142"><ele>79.8</ele></trkpt>
      <trkpt lat="46.516111" lon="-0.780363"><ele>74.6</ele></trkpt>
      <trkpt lat="46.517033" lon="-0.779438"><ele>64.6</ele></trkpt>
      <trkpt lat="46.516915" lon="-0.779192"><ele>61.4</ele></trkpt>
      <trkpt lat="46.516341" lon="-0.778895"><ele>52.4</ele></trkpt>
      <trkpt lat="46.515744" lon="-0.778116"><ele>44.8</ele></trkpt>
      <trkpt lat="46.515575" lon="-0.777658"><ele>45.2</ele></trkpt>
      <trkpt lat="46.515453" lon="-0.777008"><ele>45.0</ele></trkpt>
      <trkpt lat="46.515450" lon="-0.776101"><ele>45.6</ele></trkpt>
      <trkpt lat="46.515688" lon="-0.775098"><ele>45.8</ele></trkpt>
      <trkpt lat="46.515523" lon="-0.774569"><ele>59.0</ele></trkpt>
      <trkpt lat="46.515502" lon="-0.774253"><ele>57.8</ele></trkpt>
      <trkpt lat="46.515895" lon="-0.772817"><ele>46.8</ele></trkpt>
      <trkpt lat="46.516215" lon="-0.772306"><ele>46.4</ele></trkpt>
      <trkpt lat="46.516462" lon="-0.772139"><ele>45.8</ele></trkpt>
      <trkpt lat="46.516492" lon="-0.771983"><ele>46.8</ele></trkpt>
      <trkpt lat="46.515766" lon="-0.771634"><ele>65.8</ele></trkpt>
      <trkpt lat="46.515409" lon="-0.771861"><ele>77.0</ele></trkpt>
      <trkpt lat="46.515228" lon="-0.771555"><ele>81.8</ele></trkpt>
      <trkpt lat="46.514758" lon="-0.768335"><ele>72.8</ele></trkpt>
      <trkpt lat="46.514699" lon="-0.768164"><ele>72.8</ele></trkpt>
      <trkpt lat="46.514503" lon="-0.768152"><ele>73.4</ele></trkpt>
      <trkpt lat="46.514377" lon="-0.767421"><ele>61.4</ele></trkpt>
      <trkpt lat="46.514450" lon="-0.766928"><ele>50.0</ele></trkpt>
      <trkpt lat="46.514892" lon="-0.766591"><ele>45.6</ele></trkpt>
      <trkpt lat="46.514990" lon="-0.766397"><ele>45.8</ele></trkpt>
      <trkpt lat="46.514956" lon="-0.765521"><ele>55.0</ele></trkpt>
      <trkpt lat="46.514834" lon="-0.764883"><ele>54.8</ele></trkpt>
      <trkpt lat="46.515091" lon="-0.764532"><ele>60.4</ele></trkpt>
      <trkpt lat="46.515369" lon="-0.764325"><ele>63.0</ele></trkpt>
      <trkpt lat="46.516056" lon="-0.762815"><ele>74.2</ele></trkpt>
      <trkpt lat="46.513397" lon="-0.762188"><ele>99.0</ele></trkpt>
      <trkpt lat="46.513693" lon="-0.758827"><ele>78.8</ele></trkpt>
      <trkpt lat="46.513641" lon="-0.758545"><ele>75.6</ele></trkpt>
      <trkpt lat="46.513431" lon="-0.758379"><ele>74.2</ele></trkpt>
      <trkpt lat="46.513383" lon="-0.758007"><ele>64.8</ele></trkpt>
      <trkpt lat="46.513172" lon="-0.757409"><ele>72.0</ele></trkpt>
      <trkpt lat="46.513221" lon="-0.756871"><ele>71.8</ele></trkpt>
      <trkpt lat="46.513154" lon="-0.756427"><ele>72.6</ele></trkpt>
      <trkpt lat="46.513344" lon="-0.755918"><ele>71.2</ele></trkpt>
      <trkpt lat="46.513232" lon="-0.755352"><ele>71.4</ele></trkpt>
      <trkpt lat="46.512789" lon="-0.755749"><ele>75.6</ele></trkpt>
      <trkpt lat="46.512604" lon="-0.756323"><ele>77.2</ele></trkpt>
      <trkpt lat="46.512023" lon="-0.757555"><ele>83.0</ele></trkpt>
      <trkpt lat="46.511279" lon="-0.758217"><ele>90.4</ele></trkpt>
      <trkpt lat="46.510442" lon="-0.758695"><ele>93.4</ele></trkpt>
      <trkpt lat="46.509640" lon="-0.758843"><ele>93.2</ele></trkpt>
      <trkpt lat="46.509168" lon="-0.759055"><ele>93.6</ele></trkpt>
      <trkpt lat="46.507600" lon="-0.759248"><ele>99.4</ele></trkpt>
      <trkpt lat="46.507589" lon="-0.758988"><ele>99.0</ele></trkpt>
      <trkpt lat="46.508094" lon="-0.758132"><ele>95.4</ele></trkpt>
      <trkpt lat="46.508465" lon="-0.757736"><ele>92.0</ele></trkpt>
      <trkpt lat="46.508798" lon="-0.757100"><ele>87.8</ele></trkpt>
      <trkpt lat="46.509179" lon="-0.756800"><ele>83.8</ele></trkpt>
      <trkpt lat="46.509898" lon="-0.756502"><ele>75.0</ele></trkpt>
      <trkpt lat="46.510247" lon="-0.755939"><ele>71.6</ele></trkpt>
      <trkpt lat="46.510636" lon="-0.755593"><ele>66.8</ele></trkpt>
      <trkpt lat="46.511071" lon="-0.754961"><ele>61.0</ele></trkpt>
      <trkpt lat="46.511455" lon="-0.754593"><ele>51.8</ele></trkpt>
      <trkpt lat="46.511498" lon="-0.754323"><ele>49.2</ele></trkpt>
      <trkpt lat="46.510779" lon="-0.753924"><ele>47.6</ele></trkpt>
      <trkpt lat="46.510188" lon="-0.753818"><ele>48.0</ele></trkpt>
      <trkpt lat="46.509552" lon="-0.753254"><ele>48.6</ele></trkpt>
      <trkpt lat="46.509138" lon="-0.752264"><ele>50.4</ele></trkpt>
      <trkpt lat="46.508932" lon="-0.750546"><ele>51.4</ele></trkpt>
      <trkpt lat="46.508655" lon="-0.750652"><ele>58.2</ele></trkpt>
      <trkpt lat="46.508507" lon="-0.750855"><ele>63.0</ele></trkpt>
      <trkpt lat="46.508437" lon="-0.751950"><ele>76.4</ele></trkpt>
      <trkpt lat="46.508502" lon="-0.752610"><ele>82.8</ele></trkpt>
      <trkpt lat="46.508458" lon="-0.753018"><ele>86.2</ele></trkpt>
      <trkpt lat="46.507974" lon="-0.752341"><ele>88.8</ele></trkpt>
      <trkpt lat="46.507538" lon="-0.750848"><ele>91.2</ele></trkpt>
      <trkpt lat="46.507382" lon="-0.750418"><ele>92.6</ele></trkpt>
      <trkpt lat="46.507203" lon="-0.750197"><ele>93.2</ele></trkpt>
      <trkpt lat="46.507045" lon="-0.750168"><ele>93.4</ele></trkpt>
      <trkpt lat="46.506583" lon="-0.750494"><ele>92.6</ele></trkpt>
      <trkpt lat="46.505862" lon="-0.750537"><ele>91.0</ele></trkpt>
      <trkpt lat="46.505637" lon="-0.750017"><ele>91.0</ele></trkpt>
      <trkpt lat="46.505389" lon="-0.750116"><ele>92.4</ele></trkpt>
      <trkpt lat="46.504812" lon="-0.749973"><ele>90.6</ele></trkpt>
      <trkpt lat="46.504524" lon="-0.749577"><ele>82.6</ele></trkpt>
      <trkpt lat="46.503932" lon="-0.749179"><ele>71.8</ele></trkpt>
      <trkpt lat="46.503749" lon="-0.748833"><ele>74.6</ele></trkpt>
      <trkpt lat="46.503263" lon="-0.748330"><ele>66.8</ele></trkpt>
      <trkpt lat="46.502997" lon="-0.748875"><ele>64.4</ele></trkpt>
      <trkpt lat="46.502900" lon="-0.749437"><ele>64.2</ele></trkpt>
      <trkpt lat="46.503060" lon="-0.751512"><ele>72.2</ele></trkpt>
      <trkpt lat="46.503061" lon="-0.753488"><ele>70.4</ele></trkpt>
      <trkpt lat="46.503165" lon="-0.754209"><ele>71.8</ele></trkpt>
      <trkpt lat="46.503217" lon="-0.755934"><ele>88.2</ele></trkpt>
      <trkpt lat="46.503406" lon="-0.758174"><ele>89.6</ele></trkpt>
      <trkpt lat="46.502598" lon="-0.758474"><ele>85.8</ele></trkpt>
      <trkpt lat="46.501342" lon="-0.758568"><ele>84.4</ele></trkpt>
      <trkpt lat="46.502261" lon="-0.759528"><ele>88.0</ele></trkpt>
      <trkpt lat="46.502617" lon="-0.760595"><ele>91.2</ele></trkpt>
      <trkpt lat="46.503004" lon="-0.761077"><ele>91.6</ele></trkpt>
      <trkpt lat="46.502802" lon="-0.761493"><ele>90.2</ele></trkpt>
      <trkpt lat="46.502501" lon="-0.761516"><ele>89.4</ele></trkpt>
      <trkpt lat="46.501835" lon="-0.761930"><ele>88.4</ele></trkpt>
      <trkpt lat="46.501421" lon="-0.762843"><ele>89.8</ele></trkpt>
      <trkpt lat="46.501388" lon="-0.763778"><ele>86.4</ele></trkpt>
      <trkpt lat="46.501058" lon="-0.764385"><ele>83.6</ele></trkpt>
      <trkpt lat="46.501252" lon="-0.764879"><ele>85.6</ele></trkpt>
      <trkpt lat="46.502093" lon="-0.766008"><ele>81.6</ele></trkpt>
      <trkpt lat="46.504187" lon="-0.764382"><ele>87.2</ele></trkpt>
      <trkpt lat="46.504350" lon="-0.764418"><ele>88.4</ele></trkpt>
      <trkpt lat="46.505324" lon="-0.767041"><ele>79.4</ele></trkpt>
      <trkpt lat="46.505857" lon="-0.768702"><ele>79.8</ele></trkpt>
      <trkpt lat="46.506534" lon="-0.770326"><ele>78.0</ele></trkpt>
      <trkpt lat="46.508192" lon="-0.774940"><ele>81.0</ele></trkpt>
      <trkpt lat="46.508383" lon="-0.775566"><ele>78.8</ele></trkpt>
      <trkpt lat="46.508367" lon="-0.775836"><ele>77.4</ele></trkpt>
      <trkpt lat="46.508053" lon="-0.776196"><ele>75.4</ele></trkpt>
      <trkpt lat="46.506948" lon="-0.776948"><ele>71.4</ele></trkpt>
      <trkpt lat="46.506559" lon="-0.777550"><ele>71.4</ele></trkpt>
      <trkpt lat="46.506427" lon="-0.778702"><ele>61.2</ele></trkpt>
      <trkpt lat="46.506188" lon="-0.779398"><ele>52.8</ele></trkpt>
      <trkpt lat="46.506025" lon="-0.780194"><ele>45.8</ele></trkpt>
      <trkpt lat="46.506043" lon="-0.780942"><ele>39.4</ele></trkpt>
      <trkpt lat="46.505351" lon="-0.781570"><ele>33.0</ele></trkpt>
      <trkpt lat="46.504962" lon="-0.781770"><ele>31.2</ele></trkpt>
      <trkpt lat="46.504437" lon="-0.781633"><ele>29.0</ele></trkpt>
      <trkpt lat="46.504298" lon="-0.781424"><ele>26.4</ele></trkpt>
      <trkpt lat="46.504258" lon="-0.781088"><ele>26.0</ele></trkpt>
      <trkpt lat="46.504687" lon="-0.779646"><ele>28.2</ele></trkpt>
      <trkpt lat="46.504810" lon="-0.778668"><ele>30.4</ele></trkpt>
      <trkpt lat="46.504604" lon="-0.775619"><ele>37.8</ele></trkpt>
      <trkpt lat="46.504350" lon="-0.774794"><ele>40.6</ele></trkpt>
      <trkpt lat="46.504260" lon="-0.774107"><ele>42.6</ele></trkpt>
      <trkpt lat="46.504372" lon="-0.773606"><ele>45.0</ele></trkpt>
      <trkpt lat="46.504309" lon="-0.772790"><ele>46.8</ele></trkpt>
      <trkpt lat="46.504046" lon="-0.772260"><ele>48.2</ele></trkpt>
      <trkpt lat="46.503410" lon="-0.771505"><ele>51.6</ele></trkpt>
      <trkpt lat="46.503285" lon="-0.770949"><ele>54.2</ele></trkpt>
      <trkpt lat="46.503268" lon="-0.770302"><ele>55.0</ele></trkpt>
      <trkpt lat="46.503023" lon="-0.770432"><ele>55.8</ele></trkpt>
      <trkpt lat="46.502334" lon="-0.770042"><ele>61.2</ele></trkpt>
      <trkpt lat="46.500901" lon="-0.769908"><ele>73.4</ele></trkpt>
      <trkpt lat="46.501829" lon="-0.769078"><ele>79.2</ele></trkpt>
      <trkpt lat="46.501736" lon="-0.768396"><ele>80.0</ele></trkpt>
      <trkpt lat="46.501381" lon="-0.768030"><ele>84.2</ele></trkpt>
      <trkpt lat="46.501136" lon="-0.767618"><ele>86.8</ele></trkpt>
      <trkpt lat="46.500804" lon="-0.767436"><ele>89.0</ele></trkpt>
      <trkpt lat="46.500409" lon="-0.767573"><ele>92.0</ele></trkpt>
      <trkpt lat="46.499830" lon="-0.767416"><ele>95.2</ele></trkpt>
      <trkpt lat="46.499653" lon="-0.767470"><ele>96.4</ele></trkpt>
      <trkpt lat="46.498619" lon="-0.768317"><ele>101.6</ele></trkpt>
      <trkpt lat="46.498176" lon="-0.769062"><ele>101.0</ele></trkpt>
      <trkpt lat="46.497703" lon="-0.770314"><ele>98.2</ele></trkpt>
      <trkpt lat="46.497282" lon="-0.770968"><ele>96.6</ele></trkpt>
      <trkpt lat="46.496784" lon="-0.773348"><ele>88.2</ele></trkpt>
      <trkpt lat="46.496323" lon="-0.774161"><ele>85.2</ele></trkpt>
      <trkpt lat="46.496081" lon="-0.774944"><ele>84.8</ele></trkpt>
      <trkpt lat="46.495983" lon="-0.777277"><ele>90.6</ele></trkpt>
      <trkpt lat="46.495388" lon="-0.780078"><ele>84.8</ele></trkpt>
      <trkpt lat="46.494883" lon="-0.780835"><ele>82.2</ele></trkpt>
      <trkpt lat="46.494566" lon="-0.781635"><ele>79.4</ele></trkpt>
      <trkpt lat="46.493987" lon="-0.782225"><ele>76.2</ele></trkpt>
      <trkpt lat="46.494320" lon="-0.783327"><ele>77.4</ele></trkpt>
      <trkpt lat="46.494430" lon="-0.784273"><ele>75.6</ele></trkpt>
      <trkpt lat="46.494702" lon="-0.785323"><ele>73.2</ele></trkpt>
      <trkpt lat="46.494703" lon="-0.786528"><ele>69.2</ele></trkpt>
      <trkpt lat="46.494446" lon="-0.786609"><ele>67.2</ele></trkpt>
      <trkpt lat="46.494088" lon="-0.785891"><ele>65.6</ele></trkpt>
      <trkpt lat="46.493977" lon="-0.785856"><ele>65.0</ele></trkpt>
      <trkpt lat="46.491614" lon="-0.787543"><ele>44.6</ele></trkpt>
      <trkpt lat="46.491540" lon="-0.787729"><ele>44.4</ele></trkpt>
      <trkpt lat="46.491861" lon="-0.788217"><ele>43.8</ele></trkpt>
      <trkpt lat="46.491858" lon="-0.788351"><ele>43.4</ele></trkpt>
      <trkpt lat="46.491212" lon="-0.789032"><ele>41.2</ele></trkpt>
      <trkpt lat="46.491180" lon="-0.789359"><ele>40.8</ele></trkpt>
      <trkpt lat="46.491091" lon="-0.789491"><ele>39.6</ele></trkpt>
      <trkpt lat="46.490110" lon="-0.790099"><ele>31.4</ele></trkpt>
      <trkpt lat="46.489728" lon="-0.789750"><ele>32.2</ele></trkpt>
      <trkpt lat="46.489886" lon="-0.788901"><ele>34.2</ele></trkpt>
      <trkpt lat="46.489750" lon="-0.787646"><ele>34.4</ele></trkpt>
      <trkpt lat="46.489672" lon="-0.787216"><ele>37.0</ele></trkpt>
      <trkpt lat="46.489195" lon="-0.786290"><ele>36.4</ele></trkpt>
      <trkpt lat="46.489004" lon="-0.786103"><ele>35.6</ele></trkpt>
      <trkpt lat="46.488846" lon="-0.786115"><ele>35.4</ele></trkpt>
      <trkpt lat="46.487884" lon="-0.787215"><ele>26.8</ele></trkpt>
      <trkpt lat="46.487702" lon="-0.787263"><ele>26.0</ele></trkpt>
    </trkseg>
  </trk>
</gpx>
