<?xml version="1.0" encoding="UTF-8"?>
<gpx version="1.1" creator="gpx-processor" xmlns="http://www.topografix.com/GPX/1/1">
  <metadata><name>Loudenvielle Trail Running</name></metadata>
  <trk>
    <name>Loudenvielle Trail Running</name>
    <trkseg>
      <trkpt lat="42.797001" lon="0.409183"><ele>961.4</ele></trkpt>
      <trkpt lat="42.796577" lon="0.409223"><ele>962.8</ele></trkpt>
      <trkpt lat="42.796612" lon="0.410928"><ele>967.8</ele></trkpt>
      <trkpt lat="42.796254" lon="0.411760"><ele>971.0</ele></trkpt>
      <trkpt lat="42.795877" lon="0.412141"><ele>975.0</ele></trkpt>
      <trkpt lat="42.795473" lon="0.412351"><ele>974.8</ele></trkpt>
      <trkpt lat="42.795465" lon="0.412647"><ele>975.8</ele></trkpt>
      <trkpt lat="42.795593" lon="0.412888"><ele>979.4</ele></trkpt>
      <trkpt lat="42.795475" lon="0.412639"><ele>977.8</ele></trkpt>
      <trkpt lat="42.795496" lon="0.412330"><ele>975.6</ele></trkpt>
      <trkpt lat="42.795642" lon="0.412282"><ele>975.2</ele></trkpt>
      <trkpt lat="42.795790" lon="0.412621"><ele>977.4</ele></trkpt>
      <trkpt lat="42.795787" lon="0.413224"><ele>986.0</ele></trkpt>
      <trkpt lat="42.795420" lon="0.413485"><ele>993.4</ele></trkpt>
      <trkpt lat="42.795333" lon="0.413721"><ele>999.4</ele></trkpt>
      <trkpt lat="42.794236" lon="0.414443"><ele>1020.4</ele></trkpt>
      <trkpt lat="42.792961" lon="0.415555"><ele>1056.8</ele></trkpt>
      <trkpt lat="42.792308" lon="0.415730"><ele>1067.4</ele></trkpt>
      <trkpt lat="42.791969" lon="0.416023"><ele>1079.0</ele></trkpt>
      <trkpt lat="42.792420" lon="0.416331"><ele>1096.4</ele></trkpt>
      <trkpt lat="42.792192" lon="0.416656"><ele>1107.8</ele></trkpt>
      <trkpt lat="42.791978" lon="0.416764"><ele>1112.8</ele></trkpt>
      <trkpt lat="42.792209" lon="0.416663"><ele>1109.2</ele></trkpt>
      <trkpt lat="42.792363" lon="0.416754"><ele>1112.8</ele></trkpt>
      <trkpt lat="42.792072" lon="0.417028"><ele>1122.4</ele></trkpt>
      <trkpt lat="42.792440" lon="0.417155"><ele>1135.0</ele></trkpt>
      <trkpt lat="42.792112" lon="0.417597"><ele>1146.8</ele></trkpt>
      <trkpt lat="42.792351" lon="0.417566"><ele>1152.8</ele></trkpt>
      <trkpt lat="42.792280" lon="0.417680"><ele>1155.6</ele></trkpt>
      <trkpt lat="42.792464" lon="0.417705"><ele>1159.8</ele></trkpt>
      <trkpt lat="42.792286" lon="0.418007"><ele>1166.4</ele></trkpt>
      <trkpt lat="42.792439" lon="0.417917"><ele>1170.0</ele></trkpt>
      <trkpt lat="42.792691" lon="0.417957"><ele>1175.6</ele></trkpt>
      <trkpt lat="42.792591" lon="0.418094"><ele>1179.8</ele></trkpt>
      <trkpt lat="42.792695" lon="0.418162"><ele>1182.8</ele></trkpt>
      <trkpt lat="42.792596" lon="0.418227"><ele>1185.4</ele></trkpt>
      <trkpt lat="42.792766" lon="0.418245"><ele>1188.8</ele></trkpt>
      <trkpt lat="42.792985" lon="0.418555"><ele>1198.0</ele></trkpt>
      <trkpt lat="42.792899" lon="0.418628"><ele>1202.6</ele></trkpt>
      <trkpt lat="42.792961" lon="0.418759"><ele>1206.4</ele></trkpt>
      <trkpt lat="42.792795" lon="0.418773"><ele>1211.0</ele></trkpt>
      <trkpt lat="42.792915" lon="0.419103"><ele>1220.0</ele></trkpt>
      <trkpt lat="42.792865" lon="0.419250"><ele>1223.0</ele></trkpt>
      <trkpt lat="42.793148" lon="0.419972"><ele>1243.0</ele></trkpt>
      <trkpt lat="42.793476" lon="0.420106"><ele>1251.4</ele></trkpt>
      <trkpt lat="42.793343" lon="0.420434"><ele>1255.2</ele></trkpt>
      <trkpt lat="42.793708" lon="0.421642"><ele>1277.8</ele></trkpt>
      <trkpt lat="42.793684" lon="0.422122"><ele>1287.4</ele></trkpt>
      <trkpt lat="42.793276" lon="0.423457"><ele>1304.0</ele></trkpt>
      <trkpt lat="42.793189" lon="0.424306"><ele>1318.8</ele></trkpt>
      <trkpt lat="42.792938" lon="0.424411"><ele>1325.0</ele></trkpt>
      <trkpt lat="42.792864" lon="0.424539"><ele>1326.4</ele></trkpt>
      <trkpt lat="42.792885" lon="0.424955"><ele>1330.0</ele></trkpt>
      <trkpt lat="42.793033" lon="0.425563"><ele>1335.4</ele></trkpt>
      <trkpt lat="42.792927" lon="0.426041"><ele>1334.8</ele></trkpt>
      <trkpt lat="42.792960" lon="0.426498"><ele>1339.0</ele></trkpt>
      <trkpt lat="42.792889" lon="0.426721"><ele>1341.6</ele></trkpt>
      <trkpt lat="42.792431" lon="0.427034"><ele>1342.6</ele></trkpt>
      <trkpt lat="42.791750" lon="0.426777"><ele>1346.8</ele></trkpt>
      <trkpt lat="42.791039" lon="0.426681"><ele>1350.6</ele></trkpt>
      <trkpt lat="42.790646" lon="0.426839"><ele>1358.2</ele></trkpt>
      <trkpt lat="42.790350" lon="0.427133"><ele>1371.0</ele></trkpt>
      <trkpt lat="42.789833" lon="0.427060"><ele>1389.8</ele></trkpt>
      <trkpt lat="42.789266" lon="0.427423"><ele>1393.0</ele></trkpt>
      <trkpt lat="42.789146" lon="0.427068"><ele>1397.8</ele></trkpt>
      <trkpt lat="42.788971" lon="0.427095"><ele>1401.6</ele></trkpt>
      <trkpt lat="42.788304" lon="0.426800"><ele>1407.2</ele></trkpt>
      <trkpt lat="42.787428" lon="0.425735"><ele>1415.6</ele></trkpt>
      <trkpt lat="42.786617" lon="0.424354"><ele>1420.6</ele></trkpt>
      <trkpt lat="42.786079" lon="0.423052"><ele>1408.6</ele></trkpt>
      <trkpt lat="42.785900" lon="0.423016"><ele>1406.2</ele></trkpt>
      <trkpt lat="42.785539" lon="0.422703"><ele>1402.2</ele></trkpt>
      <trkpt lat="42.785344" lon="0.422678"><ele>1399.4</ele></trkpt>
      <trkpt lat="42.785162" lon="0.422364"><ele>1395.8</ele></trkpt>
      <trkpt lat="42.785053" lon="0.422401"><ele>1396.2</ele></trkpt>
      <trkpt lat="42.784652" lon="0.422152"><ele>1399.2</ele></trkpt>
      <trkpt lat="42.784198" lon="0.421542"><ele>1402.4</ele></trkpt>
      <trkpt lat="42.783964" lon="0.421369"><ele>1402.8</ele></trkpt>
      <trkpt lat="42.783638" lon="0.421361"><ele>1403.0</ele></trkpt>
      <trkpt lat="42.783233" lon="0.421566"><ele>1402.2</ele></trkpt>
      <trkpt lat="42.781715" lon="0.420708"><ele>1409.0</ele></trkpt>
      <trkpt lat="42.780762" lon="0.420820"><ele>1417.6</ele></trkpt>
      <trkpt lat="42.779823" lon="0.421644"><ele>1422.2</ele></trkpt>
      <trkpt lat="42.779132" lon="0.421797"><ele>1432.4</ele></trkpt>
      <trkpt lat="42.777891" lon="0.421761"><ele>1446.0</ele></trkpt>
      <trkpt lat="42.777210" lon="0.422305"><ele>1459.0</ele></trkpt>
      <trkpt lat="42.776563" lon="0.422548"><ele>1473.6</ele></trkpt>
      <trkpt lat="42.776320" lon="0.422739"><ele>1478.8</ele></trkpt>
      <trkpt lat="42.776182" lon="0.423000"><ele>1483.2</ele></trkpt>
      <trkpt lat="42.776239" lon="0.422818"><ele>1481.8</ele></trkpt>
      <trkpt lat="42.775896" lon="0.424195"><ele>1482.6</ele></trkpt>
      <trkpt lat="42.775590" lon="0.424984"><ele>1484.8</ele></trkpt>
      <trkpt lat="42.773927" lon="0.426728"><ele>1531.4</ele></trkpt>
      <trkpt lat="42.773979" lon="0.426660"><ele>1529.8</ele></trkpt>
      <trkpt lat="42.773942" lon="0.427179"><ele>1520.8</ele></trkpt>
      <trkpt lat="42.773664" lon="0.427704"><ele>1515.2</ele></trkpt>
      <trkpt lat="42.772950" lon="0.430074"><ele>1500.6</ele></trkpt>
      <trkpt lat="42.772804" lon="0.431365"><ele>1498.4</ele></trkpt>
      <trkpt lat="42.772853" lon="0.432365"><ele>1498.2</ele></trkpt>
      <trkpt lat="42.772722" lon="0.432635"><ele>1498.2</ele></trkpt>
      <trkpt lat="42.772465" lon="0.432846"><ele>1493.4</ele></trkpt>
      <trkpt lat="42.772198" lon="0.433808"><ele>1489.0</ele></trkpt>
      <trkpt lat="42.771886" lon="0.434365"><ele>1492.4</ele></trkpt>
      <trkpt lat="42.771803" lon="0.434956"><ele>1488.2</ele></trkpt>
      <trkpt lat="42.771609" lon="0.435524"><ele>1487.4</ele></trkpt>
      <trkpt lat="42.771414" lon="0.435754"><ele>1487.4</ele></trkpt>
      <trkpt lat="42.771335" lon="0.435987"><ele>1486.0</ele></trkpt>
      <trkpt lat="42.771171" lon="0.436105"><ele>1486.0</ele></trkpt>
      <trkpt lat="42.771152" lon="0.436248"><ele>1484.8</ele></trkpt>
      <trkpt lat="42.771046" lon="0.436249"><ele>1484.8</ele></trkpt>
      <trkpt lat="42.770774" lon="0.436871"><ele>1485.0</ele></trkpt>
      <trkpt lat="42.770453" lon="0.437092"><ele>1489.8</ele></trkpt>
      <trkpt lat="42.769935" lon="0.438416"><ele>1501.6</ele></trkpt>
      <trkpt lat="42.769770" lon="0.438526"><ele>1498.6</ele></trkpt>
      <trkpt lat="42.769635" lon="0.438830"><ele>1500.6</ele></trkpt>
      <trkpt lat="42.769236" lon="0.438945"><ele>1500.0</ele></trkpt>
      <trkpt lat="42.768885" lon="0.439283"><ele>1503.2</ele></trkpt>
      <trkpt lat="42.768775" lon="0.439555"><ele>1507.0</ele></trkpt>
      <trkpt lat="42.768430" lon="0.439933"><ele>1517.8</ele></trkpt>
      <trkpt lat="42.768061" lon="0.440089"><ele>1532.4</ele></trkpt>
      <trkpt lat="42.767937" lon="0.440288"><ele>1539.8</ele></trkpt>
      <trkpt lat="42.767674" lon="0.440461"><ele>1542.6</ele></trkpt>
      <trkpt lat="42.767140" lon="0.440561"><ele>1546.2</ele></trkpt>
      <trkpt lat="42.767033" lon="0.440707"><ele>1548.6</ele></trkpt>
      <trkpt lat="42.766871" lon="0.440707"><ele>1545.4</ele></trkpt>
      <trkpt lat="42.766548" lon="0.440990"><ele>1547.8</ele></trkpt>
      <trkpt lat="42.766077" lon="0.441205"><ele>1547.8</ele></trkpt>
      <trkpt lat="42.765896" lon="0.441496"><ele>1549.2</ele></trkpt>
      <trkpt lat="42.765533" lon="0.441833"><ele>1551.6</ele></trkpt>
      <trkpt lat="42.765258" lon="0.442475"><ele>1554.2</ele></trkpt>
      <trkpt lat="42.764985" lon="0.442737"><ele>1557.0</ele></trkpt>
      <trkpt lat="42.764851" lon="0.443133"><ele>1565.2</ele></trkpt>
      <trkpt lat="42.764249" lon="0.443746"><ele>1574.6</ele></trkpt>
      <trkpt lat="42.763958" lon="0.444254"><ele>1581.4</ele></trkpt>
      <trkpt lat="42.763557" lon="0.444565"><ele>1593.6</ele></trkpt>
      <trkpt lat="42.763440" lon="0.444953"><ele>1607.6</ele></trkpt>
      <trkpt lat="42.762430" lon="0.445542"><ele>1620.4</ele></trkpt>
      <trkpt lat="42.761873" lon="0.445639"><ele>1619.4</ele></trkpt>
      <trkpt lat="42.761451" lon="0.445875"><ele>1619.6</ele></trkpt>
      <trkpt lat="42.761117" lon="0.446573"><ele>1621.4</ele></trkpt>
      <trkpt lat="42.760819" lon="0.447736"><ele>1639.6</ele></trkpt>
      <trkpt lat="42.760814" lon="0.448231"><ele>1647.8</ele></trkpt>
      <trkpt lat="42.760975" lon="0.448714"><ele>1659.2</ele></trkpt>
      <trkpt lat="42.760830" lon="0.448851"><ele>1669.6</ele></trkpt>
      <trkpt lat="42.760612" lon="0.449313"><ele>1695.2</ele></trkpt>
      <trkpt lat="42.760426" lon="0.449405"><ele>1704.0</ele></trkpt>
      <trkpt lat="42.760441" lon="0.449851"><ele>1716.2</ele></trkpt>
      <trkpt lat="42.760310" lon="0.450258"><ele>1729.6</ele></trkpt>
      <trkpt lat="42.760210" lon="0.450399"><ele>1735.0</ele></trkpt>
      <trkpt lat="42.759668" lon="0.450559"><ele>1755.8</ele></trkpt>
      <trkpt lat="42.759522" lon="0.450786"><ele>1769.0</ele></trkpt>
      <trkpt lat="42.759333" lon="0.450845"><ele>1781.0</ele></trkpt>
      <trkpt lat="42.759358" lon="0.450953"><ele>1783.0</ele></trkpt>
      <trkpt lat="42.759231" lon="0.451262"><ele>1795.2</ele></trkpt>
      <trkpt lat="42.759306" lon="0.451497"><ele>1801.8</ele></trkpt>
      <trkpt lat="42.759171" lon="0.451573"><ele>1805.2</ele></trkpt>
      <trkpt lat="42.759082" lon="0.451777"><ele>1810.2</ele></trkpt>
      <trkpt lat="42.758942" lon="0.451741"><ele>1817.4</ele></trkpt>
      <trkpt lat="42.758864" lon="0.451941"><ele>1825.6</ele></trkpt>
      <trkpt lat="42.758486" lon="0.452169"><ele>1844.0</ele></trkpt>
      <trkpt lat="42.758479" lon="0.452515"><ele>1852.4</ele></trkpt>
      <trkpt lat="42.758121" lon="0.453055"><ele>1857.6</ele></trkpt>
      <trkpt lat="42.758089" lon="0.453351"><ele>1865.0</ele></trkpt>
      <trkpt lat="42.757863" lon="0.453738"><ele>1880.0</ele></trkpt>
      <trkpt lat="42.757612" lon="0.453646"><ele>1891.6</ele></trkpt>
      <trkpt lat="42.757441" lon="0.453906"><ele>1903.2</ele></trkpt>
      <trkpt lat="42.757151" lon="0.453874"><ele>1910.0</ele></trkpt>
      <trkpt lat="42.757093" lon="0.453947"><ele>1913.4</ele></trkpt>
      <trkpt lat="42.757073" lon="0.454270"><ele>1918.4</ele></trkpt>
      <trkpt lat="42.757237" lon="0.454829"><ele>1928.4</ele></trkpt>
      <trkpt lat="42.757378" lon="0.454979"><ele>1934.8</ele></trkpt>
      <trkpt lat="42.757320" lon="0.455206"><ele>1947.2</ele></trkpt>
      <trkpt lat="42.757488" lon="0.455503"><ele>1951.8</ele></trkpt>
      <trkpt lat="42.757641" lon="0.456050"><ele>1960.4</ele></trkpt>
      <trkpt lat="42.757597" lon="0.457044"><ele>1976.0</ele></trkpt>
      <trkpt lat="42.757748" lon="0.457224"><ele>1986.0</ele></trkpt>
      <trkpt lat="42.757135" lon="0.457828"><ele>2011.8</ele></trkpt>
      <trkpt lat="42.756854" lon="0.458415"><ele>2031.2</ele></trkpt>
      <trkpt lat="42.756657" lon="0.458642"><ele>2038.2</ele></trkpt>
      <trkpt lat="42.756500" lon="0.459172"><ele>2048.4</ele></trkpt>
      <trkpt lat="42.756417" lon="0.459891"><ele>2070.6</ele></trkpt>
      <trkpt lat="42.756273" lon="0.460058"><ele>2079.6</ele></trkpt>
      <trkpt lat="42.756216" lon="0.460357"><ele>2089.0</ele></trkpt>
      <trkpt lat="42.755920" lon="0.460897"><ele>2101.6</ele></trkpt>
      <trkpt lat="42.755959" lon="0.461323"><ele>2112.2</ele></trkpt>
      <trkpt lat="42.755832" lon="0.461957"><ele>2127.0</ele></trkpt>
      <trkpt lat="42.755538" lon="0.462378"><ele>2140.0</ele></trkpt>
      <trkpt lat="42.755608" lon="0.462721"><ele>2141.6</ele></trkpt>
      <trkpt lat="42.755505" lon="0.462572"><ele>2139.2</ele></trkpt>
      <trkpt lat="42.755588" lon="0.462904"><ele>2134.6</ele></trkpt>
      <trkpt lat="42.755466" lon="0.463976"><ele>2121.0</ele></trkpt>
      <trkpt lat="42.755599" lon="0.464362"><ele>2108.4</ele></trkpt>
      <trkpt lat="42.755555" lon="0.464438"><ele>2105.8</ele></trkpt>
      <trkpt lat="42.755729" lon="0.465459"><ele>2073.0</ele></trkpt>
      <trkpt lat="42.755757" lon="0.466324"><ele>2053.6</ele></trkpt>
      <trkpt lat="42.756071" lon="0.466911"><ele>2035.6</ele></trkpt>
      <trkpt lat="42.755996" lon="0.467156"><ele>2028.4</ele></trkpt>
      <trkpt lat="42.756081" lon="0.467681"><ele>2015.2</ele></trkpt>
      <trkpt lat="42.756223" lon="0.468256"><ele>2002.0</ele></trkpt>
      <trkpt lat="42.756455" lon="0.468699"><ele>1993.0</ele></trkpt>
      <trkpt lat="42.756687" lon="0.469770"><ele>1974.2</ele></trkpt>
      <trkpt lat="42.756681" lon="0.470217"><ele>1965.0</ele></trkpt>
      <trkpt lat="42.757017" lon="0.471673"><ele>1937.2</ele></trkpt>
      <trkpt lat="42.756971" lon="0.471751"><ele>1934.2</ele></trkpt>
      <trkpt lat="42.757136" lon="0.472130"><ele>1924.0</ele></trkpt>
      <trkpt lat="42.757153" lon="0.473050"><ele>1908.2</ele></trkpt>
      <trkpt lat="42.757273" lon="0.473885"><ele>1894.8</ele></trkpt>
      <trkpt lat="42.757464" lon="0.474478"><ele>1883.6</ele></trkpt>
      <trkpt lat="42.757414" lon="0.474981"><ele>1876.8</ele></trkpt>
      <trkpt lat="42.757639" lon="0.476281"><ele>1855.8</ele></trkpt>
      <trkpt lat="42.757685" lon="0.477662"><ele>1830.8</ele></trkpt>
      <trkpt lat="42.757919" lon="0.477878"><ele>1825.0</ele></trkpt>
      <trkpt lat="42.758186" lon="0.479057"><ele>1803.2</ele></trkpt>
      <trkpt lat="42.758317" lon="0.479364"><ele>1795.8</ele></trkpt>
      <trkpt lat="42.758238" lon="0.479365"><ele>1794.8</ele></trkpt>
      <trkpt lat="42.758129" lon="0.479755"><ele>1782.0</ele></trkpt>
      <trkpt lat="42.758401" lon="0.482216"><ele>1732.6</ele></trkpt>
      <trkpt lat="42.758331" lon="0.482795"><ele>1721.0</ele></trkpt>
      <trkpt lat="42.758422" lon="0.483100"><ele>1714.6</ele></trkpt>
      <trkpt lat="42.758206" lon="0.484392"><ele>1700.8</ele></trkpt>
      <trkpt lat="42.758425" lon="0.484971"><ele>1692.0</ele></trkpt>
      <trkpt lat="42.758568" lon="0.485901"><ele>1664.6</ele></trkpt>
      <trkpt lat="42.758382" lon="0.486696"><ele>1649.8</ele></trkpt>
      <trkpt lat="42.758648" lon="0.486865"><ele>1643.2</ele></trkpt>
      <trkpt lat="42.758981" lon="0.486519"><ele>1636.6</ele></trkpt>
      <trkpt lat="42.759063" lon="0.486595"><ele>1635.8</ele></trkpt>
      <trkpt lat="42.759131" lon="0.487097"><ele>1636.2</ele></trkpt>
      <trkpt lat="42.759472" lon="0.488346"><ele>1617.4</ele></trkpt>
      <trkpt lat="42.759743" lon="0.488975"><ele>1601.0</ele></trkpt>
      <trkpt lat="42.759882" lon="0.490040"><ele>1583.0</ele></trkpt>
      <trkpt lat="42.759955" lon="0.490118"><ele>1579.6</ele></trkpt>
      <trkpt lat="42.759870" lon="0.490485"><ele>1570.0</ele></trkpt>
      <trkpt lat="42.759890" lon="0.491044"><ele>1552.8</ele></trkpt>
      <trkpt lat="42.760184" lon="0.490953"><ele>1539.8</ele></trkpt>
      <trkpt lat="42.760141" lon="0.491754"><ele>1520.8</ele></trkpt>
      <trkpt lat="42.760447" lon="0.491277"><ele>1507.4</ele></trkpt>
      <trkpt lat="42.760473" lon="0.491671"><ele>1498.0</ele></trkpt>
      <trkpt lat="42.760592" lon="0.491499"><ele>1491.4</ele></trkpt>
      <trkpt lat="42.760753" lon="0.491594"><ele>1483.2</ele></trkpt>
      <trkpt lat="42.760655" lon="0.492108"><ele>1471.6</ele></trkpt>
      <trkpt lat="42.760810" lon="0.492018"><ele>1465.4</ele></trkpt>
      <trkpt lat="42.760793" lon="0.492253"><ele>1457.0</ele></trkpt>
      <trkpt lat="42.760941" lon="0.492261"><ele>1450.6</ele></trkpt>
      <trkpt lat="42.760950" lon="0.492385"><ele>1448.2</ele></trkpt>
      <trkpt lat="42.761073" lon="0.492447"><ele>1440.6</ele></trkpt>
      <trkpt lat="42.760966" lon="0.492868"><ele>1429.0</ele></trkpt>
      <trkpt lat="42.761191" lon="0.492759"><ele>1417.4</ele></trkpt>
      <trkpt lat="42.761139" lon="0.492968"><ele>1412.0</ele></trkpt>
      <trkpt lat="42.761241" lon="0.493036"><ele>1404.6</ele></trkpt>
      <trkpt lat="42.761567" lon="0.492646"><ele>1391.4</ele></trkpt>
      <trkpt lat="42.761788" lon="0.493086"><ele>1380.0</ele></trkpt>
      <trkpt lat="42.762034" lon="0.493237"><ele>1371.6</ele></trkpt>
      <trkpt lat="42.761834" lon="0.493322"><ele>1363.2</ele></trkpt>
      <trkpt lat="42.762120" lon="0.493531"><ele>1352.0</ele></trkpt>
      <trkpt lat="42.761918" lon="0.493627"><ele>1342.8</ele></trkpt>
      <trkpt lat="42.762713" lon="0.494362"><ele>1314.6</ele></trkpt>
      <trkpt lat="42.762082" lon="0.494359"><ele>1300.2</ele></trkpt>
      <trkpt lat="42.762343" lon="0.494593"><ele>1289.0</ele></trkpt>
      <trkpt lat="42.762302" lon="0.494719"><ele>1284.6</ele></trkpt>
      <trkpt lat="42.762818" lon="0.495230"><ele>1264.8</ele></trkpt>
      <trkpt lat="42.763603" lon="0.495649"><ele>1237.8</ele></trkpt>
      <trkpt lat="42.763822" lon="0.496311"><ele>1218.0</ele></trkpt>
      <trkpt lat="42.763750" lon="0.496410"><ele>1212.8</ele></trkpt>
      <trkpt lat="42.763874" lon="0.496514"><ele>1205.8</ele></trkpt>
      <trkpt lat="42.763774" lon="0.496588"><ele>1203.6</ele></trkpt>
      <trkpt lat="42.763878" lon="0.496801"><ele>1195.4</ele></trkpt>
      <trkpt lat="42.763822" lon="0.496976"><ele>1189.6</ele></trkpt>
      <trkpt lat="42.763898" lon="0.496960"><ele>1187.2</ele></trkpt>
      <trkpt lat="42.763958" lon="0.497119"><ele>1185.0</ele></trkpt>
      <trkpt lat="42.764148" lon="0.497267"><ele>1179.4</ele></trkpt>
      <trkpt lat="42.764212" lon="0.497826"><ele>1160.6</ele></trkpt>
      <trkpt lat="42.764551" lon="0.498256"><ele>1144.2</ele></trkpt>
      <trkpt lat="42.765262" lon="0.498737"><ele>1122.2</ele></trkpt>
      <trkpt lat="42.765703" lon="0.500169"><ele>1117.2</ele></trkpt>
      <trkpt lat="42.765825" lon="0.500352"><ele>1116.0</ele></trkpt>
      <trkpt lat="42.766191" lon="0.500455"><ele>1116.4</ele></trkpt>
      <trkpt lat="42.766144" lon="0.500475"><ele>1116.0</ele></trkpt>
      <trkpt lat="42.766544" lon="0.500748"><ele>1115.2</ele></trkpt>
      <trkpt lat="42.766659" lon="0.501316"><ele>1118.0</ele></trkpt>
      <trkpt lat="42.766327" lon="0.501418"><ele>1121.2</ele></trkpt>
      <trkpt lat="42.765516" lon="0.501433"><ele>1126.6</ele></trkpt>
      <trkpt lat="42.764960" lon="0.501713"><ele>1130.2</ele></trkpt>
      <trkpt lat="42.763816" lon="0.501926"><ele>1138.2</ele></trkpt>
      <trkpt lat="42.763798" lon="0.502097"><ele>1140.6</ele></trkpt>
      <trkpt lat="42.763700" lon="0.501930"><ele>1140.0</ele></trkpt>
      <trkpt lat="42.763887" lon="0.502192"><ele>1141.8</ele></trkpt>
      <trkpt lat="42.763691" lon="0.501926"><ele>1140.2</ele></trkpt>
      <trkpt lat="42.762433" lon="0.501636"><ele>1154.2</ele></trkpt>
      <trkpt lat="42.761667" lon="0.501686"><ele>1162.4</ele></trkpt>
      <trkpt lat="42.761339" lon="0.501967"><ele>1165.6</ele></trkpt>
      <trkpt lat="42.761103" lon="0.501775"><ele>1167.6</ele></trkpt>
      <trkpt lat="42.760500" lon="0.501834"><ele>1171.2</ele></trkpt>
      <trkpt lat="42.760278" lon="0.502047"><ele>1172.8</ele></trkpt>
      <trkpt lat="42.759989" lon="0.502113"><ele>1174.8</ele></trkpt>
      <trkpt lat="42.759416" lon="0.502647"><ele>1181.4</ele></trkpt>
      <trkpt lat="42.759098" lon="0.502438"><ele>1186.0</ele></trkpt>
      <trkpt lat="42.758616" lon="0.502452"><ele>1192.4</ele></trkpt>
      <trkpt lat="42.757856" lon="0.502294"><ele>1204.0</ele></trkpt>
      <trkpt lat="42.757406" lon="0.502069"><ele>1212.6</ele></trkpt>
      <trkpt lat="42.757106" lon="0.501677"><ele>1219.6</ele></trkpt>
      <trkpt lat="42.756557" lon="0.501288"><ele>1228.6</ele></trkpt>
      <trkpt lat="42.756020" lon="0.500459"><ele>1243.4</ele></trkpt>
      <trkpt lat="42.755538" lon="0.499915"><ele>1252.8</ele></trkpt>
      <trkpt lat="42.754844" lon="0.499555"><ele>1264.0</ele></trkpt>
      <trkpt lat="42.754450" lon="0.499537"><ele>1270.0</ele></trkpt>
      <trkpt lat="42.753965" lon="0.499696"><ele>1277.4</ele></trkpt>
      <trkpt lat="42.753223" lon="0.499240"><ele>1290.2</ele></trkpt>
      <trkpt lat="42.752604" lon="0.498708"><ele>1300.2</ele></trkpt>
      <trkpt lat="42.752199" lon="0.498250"><ele>1307.2</ele></trkpt>
      <trkpt lat="42.752107" lon="0.497839"><ele>1312.2</ele></trkpt>
      <trkpt lat="42.751796" lon="0.497511"><ele>1318.6</ele></trkpt>
      <trkpt lat="42.751659" lon="0.496909"><ele>1326.6</ele></trkpt>
      <trkpt lat="42.751490" lon="0.496549"><ele>1334.2</ele></trkpt>
      <trkpt lat="42.751464" lon="0.497064"><ele>1341.8</ele></trkpt>
      <trkpt lat="42.751203" lon="0.496525"><ele>1350.0</ele></trkpt>
      <trkpt lat="42.751242" lon="0.497126"><ele>1357.0</ele></trkpt>
      <trkpt lat="42.751178" lon="0.497148"><ele>1357.6</ele></trkpt>
      <trkpt lat="42.750964" lon="0.496682"><ele>1365.4</ele></trkpt>
      <trkpt lat="42.750994" lon="0.497108"><ele>1372.8</ele></trkpt>
      <trkpt lat="42.750929" lon="0.497153"><ele>1374.8</ele></trkpt>
      <trkpt lat="42.750469" lon="0.496461"><ele>1388.8</ele></trkpt>
      <trkpt lat="42.750520" lon="0.495818"><ele>1398.0</ele></trkpt>
      <trkpt lat="42.750770" lon="0.495623"><ele>1401.8</ele></trkpt>
      <trkpt lat="42.750917" lon="0.495132"><ele>1410.0</ele></trkpt>
      <trkpt lat="42.750756" lon="0.495188"><ele>1414.8</ele></trkpt>
      <trkpt lat="42.750611" lon="0.495119"><ele>1416.8</ele></trkpt>
      <trkpt lat="42.750684" lon="0.494600"><ele>1427.6</ele></trkpt>
      <trkpt lat="42.750276" lon="0.495087"><ele>1436.2</ele></trkpt>
      <trkpt lat="42.750120" lon="0.495131"><ele>1438.2</ele></trkpt>
      <trkpt lat="42.750098" lon="0.494947"><ele>1442.2</ele></trkpt>
      <trkpt lat="42.749983" lon="0.494811"><ele>1447.8</ele></trkpt>
      <trkpt lat="42.749992" lon="0.494573"><ele>1452.4</ele></trkpt>
      <trkpt lat="42.749842" lon="0.494763"><ele>1456.0</ele></trkpt>
      <trkpt lat="42.749784" lon="0.495197"><ele>1462.0</ele></trkpt>
      <trkpt lat="42.749712" lon="0.494998"><ele>1467.0</ele></trkpt>
      <trkpt lat="42.749588" lon="0.495321"><ele>1472.0</ele></trkpt>
      <trkpt lat="42.749605" lon="0.494754"><ele>1481.4</ele></trkpt>
      <trkpt lat="42.749466" lon="0.494962"><ele>1486.0</ele></trkpt>
      <trkpt lat="42.749400" lon="0.494635"><ele>1492.6</ele></trkpt>
      <trkpt lat="42.749436" lon="0.494447"><ele>1494.8</ele></trkpt>
      <trkpt lat="42.749303" lon="0.494536"><ele>1499.2</ele></trkpt>
      <trkpt lat="42.749281" lon="0.494186"><ele>1504.2</ele></trkpt>
      <trkpt lat="42.748588" lon="0.493170"><ele>1503.6</ele></trkpt>
      <trkpt lat="42.748298" lon="0.492869"><ele>1498.0</ele></trkpt>
      <trkpt lat="42.748005" lon="0.492243"><ele>1497.8</ele></trkpt>
      <trkpt lat="42.747567" lon="0.491963"><ele>1506.8</ele></trkpt>
      <trkpt lat="42.747379" lon="0.491682"><ele>1509.0</ele></trkpt>
      <trkpt lat="42.746921" lon="0.491325"><ele>1502.8</ele></trkpt>
      <trkpt lat="42.745947" lon="0.491348"><ele>1500.0</ele></trkpt>
      <trkpt lat="42.745533" lon="0.491181"><ele>1501.4</ele></trkpt>
      <trkpt lat="42.745032" lon="0.491558"><ele>1499.0</ele></trkpt>
      <trkpt lat="42.744898" lon="0.491500"><ele>1502.8</ele></trkpt>
      <trkpt lat="42.744551" lon="0.491787"><ele>1511.2</ele></trkpt>
      <trkpt lat="42.744470" lon="0.491668"><ele>1514.2</ele></trkpt>
      <trkpt lat="42.744336" lon="0.491707"><ele>1518.2</ele></trkpt>
      <trkpt lat="42.744213" lon="0.491859"><ele>1522.4</ele></trkpt>
      <trkpt lat="42.744078" lon="0.492283"><ele>1523.8</ele></trkpt>
      <trkpt lat="42.743895" lon="0.492519"><ele>1516.2</ele></trkpt>
      <trkpt lat="42.743803" lon="0.493518"><ele>1522.4</ele></trkpt>
      <trkpt lat="42.743394" lon="0.494103"><ele>1523.2</ele></trkpt>
      <trkpt lat="42.743203" lon="0.494680"><ele>1529.6</ele></trkpt>
      <trkpt lat="42.743212" lon="0.494973"><ele>1534.6</ele></trkpt>
      <trkpt lat="42.742891" lon="0.495493"><ele>1542.8</ele></trkpt>
      <trkpt lat="42.742129" lon="0.496214"><ele>1560.0</ele></trkpt>
      <trkpt lat="42.741902" lon="0.496856"><ele>1571.4</ele></trkpt>
      <trkpt lat="42.741571" lon="0.496859"><ele>1578.2</ele></trkpt>
      <trkpt lat="42.741300" lon="0.497267"><ele>1586.6</ele></trkpt>
      <trkpt lat="42.741250" lon="0.497375"><ele>1588.6</ele></trkpt>
      <trkpt lat="42.741528" lon="0.497243"><ele>1594.6</ele></trkpt>
      <trkpt lat="42.741378" lon="0.497599"><ele>1602.2</ele></trkpt>
      <trkpt lat="42.741609" lon="0.497496"><ele>1608.0</ele></trkpt>
      <trkpt lat="42.741385" lon="0.497886"><ele>1614.8</ele></trkpt>
      <trkpt lat="42.741691" lon="0.497794"><ele>1623.8</ele></trkpt>
      <trkpt lat="42.741544" lon="0.498081"><ele>1630.4</ele></trkpt>
      <trkpt lat="42.741673" lon="0.498027"><ele>1634.0</ele></trkpt>
      <trkpt lat="42.741625" lon="0.498166"><ele>1637.4</ele></trkpt>
      <trkpt lat="42.741766" lon="0.498174"><ele>1641.6</ele></trkpt>
      <trkpt lat="42.741706" lon="0.498267"><ele>1644.2</ele></trkpt>
      <trkpt lat="42.741805" lon="0.498363"><ele>1649.0</ele></trkpt>
      <trkpt lat="42.741517" lon="0.498365"><ele>1658.6</ele></trkpt>
      <trkpt lat="42.741710" lon="0.498505"><ele>1666.2</ele></trkpt>
      <trkpt lat="42.741349" lon="0.498479"><ele>1673.4</ele></trkpt>
      <trkpt lat="42.740961" lon="0.498743"><ele>1685.2</ele></trkpt>
      <trkpt lat="42.740392" lon="0.498929"><ele>1692.8</ele></trkpt>
      <trkpt lat="42.739508" lon="0.498947"><ele>1690.4</ele></trkpt>
      <trkpt lat="42.739307" lon="0.498824"><ele>1694.6</ele></trkpt>
      <trkpt lat="42.739140" lon="0.499121"><ele>1697.0</ele></trkpt>
      <trkpt lat="42.738904" lon="0.499318"><ele>1698.2</ele></trkpt>
      <trkpt lat="42.738446" lon="0.498877"><ele>1701.2</ele></trkpt>
      <trkpt lat="42.737793" lon="0.499272"><ele>1702.6</ele></trkpt>
      <trkpt lat="42.737669" lon="0.499045"><ele>1707.0</ele></trkpt>
      <trkpt lat="42.737588" lon="0.499188"><ele>1713.4</ele></trkpt>
      <trkpt lat="42.737541" lon="0.498904"><ele>1720.0</ele></trkpt>
      <trkpt lat="42.737376" lon="0.498695"><ele>1724.6</ele></trkpt>
      <trkpt lat="42.737325" lon="0.498862"><ele>1729.2</ele></trkpt>
      <trkpt lat="42.737146" lon="0.498866"><ele>1736.0</ele></trkpt>
      <trkpt lat="42.737031" lon="0.498693"><ele>1741.0</ele></trkpt>
      <trkpt lat="42.736935" lon="0.498989"><ele>1746.0</ele></trkpt>
      <trkpt lat="42.737105" lon="0.499192"><ele>1752.2</ele></trkpt>
      <trkpt lat="42.737066" lon="0.499292"><ele>1756.0</ele></trkpt>
      <trkpt lat="42.736854" lon="0.499327"><ele>1763.2</ele></trkpt>
      <trkpt lat="42.736477" lon="0.499116"><ele>1773.4</ele></trkpt>
      <trkpt lat="42.736131" lon="0.499177"><ele>1783.8</ele></trkpt>
      <trkpt lat="42.735914" lon="0.499409"><ele>1791.2</ele></trkpt>
      <trkpt lat="42.735605" lon="0.499278"><ele>1799.0</ele></trkpt>
      <trkpt lat="42.735636" lon="0.499477"><ele>1803.4</ele></trkpt>
      <trkpt lat="42.735505" lon="0.499436"><ele>1808.6</ele></trkpt>
      <trkpt lat="42.735494" lon="0.499526"><ele>1811.0</ele></trkpt>
      <trkpt lat="42.735232" lon="0.499556"><ele>1821.4</ele></trkpt>
      <trkpt lat="42.735085" lon="0.499641"><ele>1827.6</ele></trkpt>
      <trkpt lat="42.735107" lon="0.499709"><ele>1829.8</ele></trkpt>
      <trkpt lat="42.734838" lon="0.499639"><ele>1836.6</ele></trkpt>
      <trkpt lat="42.734779" lon="0.499716"><ele>1838.8</ele></trkpt>
      <trkpt lat="42.734752" lon="0.499547"><ele>1841.4</ele></trkpt>
      <trkpt lat="42.734680" lon="0.499534"><ele>1843.2</ele></trkpt>
      <trkpt lat="42.734510" lon="0.499693"><ele>1847.8</ele></trkpt>
      <trkpt lat="42.734455" lon="0.499929"><ele>1853.4</ele></trkpt>
      <trkpt lat="42.734182" lon="0.499986"><ele>1860.4</ele></trkpt>
      <trkpt lat="42.733919" lon="0.499898"><ele>1868.4</ele></trkpt>
      <trkpt lat="42.733833" lon="0.499764"><ele>1871.8</ele></trkpt>
      <trkpt lat="42.733704" lon="0.499831"><ele>1878.2</ele></trkpt>
      <trkpt lat="42.733527" lon="0.500130"><ele>1887.2</ele></trkpt>
      <trkpt lat="42.732822" lon="0.500213"><ele>1905.6</ele></trkpt>
      <trkpt lat="42.732417" lon="0.500512"><ele>1912.0</ele></trkpt>
      <trkpt lat="42.732366" lon="0.500453"><ele>1915.0</ele></trkpt>
      <trkpt lat="42.732330" lon="0.500610"><ele>1918.4</ele></trkpt>
      <trkpt lat="42.732264" lon="0.500483"><ele>1921.4</ele></trkpt>
      <trkpt lat="42.732191" lon="0.500612"><ele>1925.4</ele></trkpt>
      <trkpt lat="42.731919" lon="0.500688"><ele>1931.2</ele></trkpt>
      <trkpt lat="42.731873" lon="0.500559"><ele>1933.4</ele></trkpt>
      <trkpt lat="42.731762" lon="0.500576"><ele>1938.6</ele></trkpt>
      <trkpt lat="42.731747" lon="0.500744"><ele>1941.8</ele></trkpt>
      <trkpt lat="42.731599" lon="0.500718"><ele>1946.0</ele></trkpt>
      <trkpt lat="42.731594" lon="0.500852"><ele>1949.2</ele></trkpt>
      <trkpt lat="42.731302" lon="0.500846"><ele>1960.8</ele></trkpt>
      <trkpt lat="42.731244" lon="0.500965"><ele>1964.8</ele></trkpt>
      <trkpt lat="42.731129" lon="0.500798"><ele>1969.2</ele></trkpt>
      <trkpt lat="42.731027" lon="0.500814"><ele>1970.8</ele></trkpt>
      <trkpt lat="42.730550" lon="0.501192"><ele>1983.2</ele></trkpt>
      <trkpt lat="42.730442" lon="0.501185"><ele>1984.2</ele></trkpt>
      <trkpt lat="42.730474" lon="0.500856"><ele>1978.2</ele></trkpt>
      <trkpt lat="42.729652" lon="0.501491"><ele>1950.8</ele></trkpt>
      <trkpt lat="42.728949" lon="0.501609"><ele>1939.2</ele></trkpt>
      <trkpt lat="42.727700" lon="0.502329"><ele>1933.4</ele></trkpt>
      <trkpt lat="42.727389" lon="0.502309"><ele>1937.2</ele></trkpt>
      <trkpt lat="42.726695" lon="0.502522"><ele>1933.6</ele></trkpt>
      <trkpt lat="42.726540" lon="0.502725"><ele>1933.6</ele></trkpt>
      <trkpt lat="42.725930" lon="0.503028"><ele>1929.6</ele></trkpt>
      <trkpt lat="42.725553" lon="0.502810"><ele>1929.0</ele></trkpt>
      <trkpt lat="42.725227" lon="0.503017"><ele>1933.2</ele></trkpt>
      <trkpt lat="42.724962" lon="0.502734"><ele>1935.8</ele></trkpt>
      <trkpt lat="42.724835" lon="0.501955"><ele>1934.2</ele></trkpt>
      <trkpt lat="42.724952" lon="0.501351"><ele>1932.2</ele></trkpt>
      <trkpt lat="42.724837" lon="0.500535"><ele>1931.4</ele></trkpt>
      <trkpt lat="42.724197" lon="0.500395"><ele>1931.4</ele></trkpt>
      <trkpt lat="42.723658" lon="0.500474"><ele>1934.8</ele></trkpt>
      <trkpt lat="42.723361" lon="0.500390"><ele>1940.8</ele></trkpt>
      <trkpt lat="42.722968" lon="0.500086"><ele>1945.0</ele></trkpt>
      <trkpt lat="42.722676" lon="0.500136"><ele>1940.4</ele></trkpt>
      <trkpt lat="42.722252" lon="0.500013"><ele>1936.0</ele></trkpt>
      <trkpt lat="42.721742" lon="0.500077"><ele>1935.6</ele></trkpt>
      <trkpt lat="42.721117" lon="0.499914"><ele>1939.4</ele></trkpt>
      <trkpt lat="42.720996" lon="0.500005"><ele>1939.6</ele></trkpt>
      <trkpt lat="42.720528" lon="0.499975"><ele>1947.2</ele></trkpt>
      <trkpt lat="42.720109" lon="0.499819"><ele>1954.6</ele></trkpt>
      <trkpt lat="42.719988" lon="0.499886"><ele>1956.4</ele></trkpt>
      <trkpt lat="42.719490" lon="0.499518"><ele>1973.6</ele></trkpt>
      <trkpt lat="42.719288" lon="0.499703"><ele>1978.2</ele></trkpt>
      <trkpt lat="42.719287" lon="0.499476"><ele>1981.6</ele></trkpt>
      <trkpt lat="42.719117" lon="0.499575"><ele>1986.4</ele></trkpt>
      <trkpt lat="42.719037" lon="0.499408"><ele>1990.0</ele></trkpt>
      <trkpt lat="42.718945" lon="0.499474"><ele>1992.6</ele></trkpt>
      <trkpt lat="42.718910" lon="0.499386"><ele>1994.6</ele></trkpt>
      <trkpt lat="42.718819" lon="0.499445"><ele>1997.0</ele></trkpt>
      <trkpt lat="42.718643" lon="0.499349"><ele>2002.2</ele></trkpt>
      <trkpt lat="42.718595" lon="0.499239"><ele>2004.0</ele></trkpt>
      <trkpt lat="42.718362" lon="0.499148"><ele>2010.0</ele></trkpt>
      <trkpt lat="42.718364" lon="0.499033"><ele>2012.2</ele></trkpt>
      <trkpt lat="42.718250" lon="0.499041"><ele>2014.6</ele></trkpt>
      <trkpt lat="42.718186" lon="0.498872"><ele>2018.8</ele></trkpt>
      <trkpt lat="42.717973" lon="0.498955"><ele>2024.4</ele></trkpt>
      <trkpt lat="42.717944" lon="0.498810"><ele>2027.2</ele></trkpt>
      <trkpt lat="42.717845" lon="0.498848"><ele>2029.6</ele></trkpt>
      <trkpt lat="42.717787" lon="0.498702"><ele>2033.2</ele></trkpt>
      <trkpt lat="42.717448" lon="0.498721"><ele>2041.4</ele></trkpt>
      <trkpt lat="42.717458" lon="0.498441"><ele>2046.4</ele></trkpt>
      <trkpt lat="42.717308" lon="0.498348"><ele>2051.6</ele></trkpt>
      <trkpt lat="42.717390" lon="0.498126"><ele>2056.4</ele></trkpt>
      <trkpt lat="42.717258" lon="0.498084"><ele>2059.8</ele></trkpt>
      <trkpt lat="42.717297" lon="0.497909"><ele>2063.4</ele></trkpt>
      <trkpt lat="42.716371" lon="0.497835"><ele>2085.2</ele></trkpt>
      <trkpt lat="42.715970" lon="0.497601"><ele>2095.4</ele></trkpt>
      <trkpt lat="42.715761" lon="0.497583"><ele>2100.2</ele></trkpt>
      <trkpt lat="42.715653" lon="0.497686"><ele>2103.4</ele></trkpt>
      <trkpt lat="42.715393" lon="0.498392"><ele>2103.4</ele></trkpt>
      <trkpt lat="42.715398" lon="0.498853"><ele>2103.4</ele></trkpt>
      <trkpt lat="42.715120" lon="0.498736"><ele>2111.2</ele></trkpt>
      <trkpt lat="42.715066" lon="0.498819"><ele>2112.8</ele></trkpt>
      <trkpt lat="42.715115" lon="0.499237"><ele>2118.2</ele></trkpt>
      <trkpt lat="42.714722" lon="0.500089"><ele>2126.2</ele></trkpt>
      <trkpt lat="42.714759" lon="0.500269"><ele>2129.2</ele></trkpt>
      <trkpt lat="42.714538" lon="0.500565"><ele>2133.2</ele></trkpt>
      <trkpt lat="42.714678" lon="0.500770"><ele>2137.8</ele></trkpt>
      <trkpt lat="42.714203" lon="0.501358"><ele>2151.0</ele></trkpt>
      <trkpt lat="42.714138" lon="0.501361"><ele>2152.8</ele></trkpt>
      <trkpt lat="42.714029" lon="0.501055"><ele>2157.0</ele></trkpt>
      <trkpt lat="42.713859" lon="0.500892"><ele>2160.8</ele></trkpt>
      <trkpt lat="42.712767" lon="0.500354"><ele>2183.2</ele></trkpt>
      <trkpt lat="42.712278" lon="0.499820"><ele>2201.4</ele></trkpt>
      <trkpt lat="42.712249" lon="0.500684"><ele>2219.2</ele></trkpt>
      <trkpt lat="42.712327" lon="0.500896"><ele>2223.6</ele></trkpt>
      <trkpt lat="42.712471" lon="0.500984"><ele>2228.0</ele></trkpt>
      <trkpt lat="42.712062" lon="0.501283"><ele>2247.4</ele></trkpt>
      <trkpt lat="42.712436" lon="0.501359"><ele>2258.2</ele></trkpt>
      <trkpt lat="42.712351" lon="0.501463"><ele>2261.2</ele></trkpt>
      <trkpt lat="42.712639" lon="0.501360"><ele>2261.6</ele></trkpt>
      <trkpt lat="42.712797" lon="0.501467"><ele>2262.6</ele></trkpt>
      <trkpt lat="42.712906" lon="0.501620"><ele>2267.2</ele></trkpt>
      <trkpt lat="42.712812" lon="0.501663"><ele>2270.2</ele></trkpt>
      <trkpt lat="42.712913" lon="0.501824"><ele>2273.8</ele></trkpt>
      <trkpt lat="42.712913" lon="0.502025"><ele>2273.8</ele></trkpt>
      <trkpt lat="42.713246" lon="0.502813"><ele>2288.2</ele></trkpt>
      <trkpt lat="42.713236" lon="0.503561"><ele>2302.0</ele></trkpt>
      <trkpt lat="42.713046" lon="0.503965"><ele>2313.0</ele></trkpt>
      <trkpt lat="42.713059" lon="0.504067"><ele>2315.0</ele></trkpt>
      <trkpt lat="42.713197" lon="0.504137"><ele>2318.2</ele></trkpt>
      <trkpt lat="42.713048" lon="0.504599"><ele>2327.6</ele></trkpt>
      <trkpt lat="42.713093" lon="0.505084"><ele>2338.0</ele></trkpt>
      <trkpt lat="42.712561" lon="0.504713"><ele>2356.0</ele></trkpt>
      <trkpt lat="42.712528" lon="0.504803"><ele>2357.6</ele></trkpt>
      <trkpt lat="42.712221" lon="0.504702"><ele>2367.6</ele></trkpt>
      <trkpt lat="42.712252" lon="0.504798"><ele>2369.4</ele></trkpt>
      <trkpt lat="42.712159" lon="0.504803"><ele>2371.4</ele></trkpt>
      <trkpt lat="42.712173" lon="0.504989"><ele>2376.2</ele></trkpt>
      <trkpt lat="42.712031" lon="0.504889"><ele>2380.6</ele></trkpt>
      <trkpt lat="42.712030" lon="0.505143"><ele>2385.6</ele></trkpt>
      <trkpt lat="42.711891" lon="0.504866"><ele>2391.2</ele></trkpt>
      <trkpt lat="42.711616" lon="0.504871"><ele>2398.2</ele></trkpt>
      <trkpt lat="42.711614" lon="0.505119"><ele>2403.0</ele></trkpt>
      <trkpt lat="42.711729" lon="0.505229"><ele>2406.4</ele></trkpt>
      <trkpt lat="42.711533" lon="0.505293"><ele>2411.0</ele></trkpt>
      <trkpt lat="42.711631" lon="0.505403"><ele>2415.0</ele></trkpt>
      <trkpt lat="42.711489" lon="0.505433"><ele>2419.4</ele></trkpt>
      <trkpt lat="42.711624" lon="0.505630"><ele>2424.4</ele></trkpt>
      <trkpt lat="42.711601" lon="0.505839"><ele>2427.8</ele></trkpt>
      <trkpt lat="42.711390" lon="0.505714"><ele>2432.8</ele></trkpt>
      <trkpt lat="42.711413" lon="0.505838"><ele>2437.0</ele></trkpt>
      <trkpt lat="42.711344" lon="0.505818"><ele>2438.0</ele></trkpt>
      <trkpt lat="42.711419" lon="0.506046"><ele>2440.6</ele></trkpt>
      <trkpt lat="42.711150" lon="0.505953"><ele>2447.8</ele></trkpt>
      <trkpt lat="42.711186" lon="0.506236"><ele>2453.2</ele></trkpt>
      <trkpt lat="42.710867" lon="0.505986"><ele>2465.6</ele></trkpt>
      <trkpt lat="42.710873" lon="0.506063"><ele>2467.2</ele></trkpt>
      <trkpt lat="42.710808" lon="0.506052"><ele>2471.8</ele></trkpt>
      <trkpt lat="42.710872" lon="0.506226"><ele>2475.2</ele></trkpt>
      <trkpt lat="42.710765" lon="0.506184"><ele>2478.0</ele></trkpt>
      <trkpt lat="42.710694" lon="0.506369"><ele>2485.6</ele></trkpt>
      <trkpt lat="42.710349" lon="0.506628"><ele>2493.4</ele></trkpt>
      <trkpt lat="42.710166" lon="0.507025"><ele>2500.4</ele></trkpt>
      <trkpt lat="42.710160" lon="0.506961"><ele>2501.0</ele></trkpt>
      <trkpt lat="42.709541" lon="0.507406"><ele>2509.6</ele></trkpt>
      <trkpt lat="42.709146" lon="0.507456"><ele>2513.0</ele></trkpt>
      <trkpt lat="42.709047" lon="0.507569"><ele>2512.6</ele></trkpt>
      <trkpt lat="42.708596" lon="0.507509"><ele>2511.6</ele></trkpt>
      <trkpt lat="42.708494" lon="0.507648"><ele>2511.0</ele></trkpt>
      <trkpt lat="42.707982" lon="0.507849"><ele>2513.6</ele></trkpt>
      <trkpt lat="42.707516" lon="0.507840"><ele>2516.6</ele></trkpt>
      <trkpt lat="42.707174" lon="0.508161"><ele>2512.4</ele></trkpt>
      <trkpt lat="42.707058" lon="0.508002"><ele>2513.0</ele></trkpt>
      <trkpt lat="42.706906" lon="0.507964"><ele>2513.4</ele></trkpt>
      <trkpt lat="42.706033" lon="0.508149"><ele>2519.6</ele></trkpt>
      <trkpt lat="42.705501" lon="0.508406"><ele>2522.8</ele></trkpt>
      <trkpt lat="42.705244" lon="0.508289"><ele>2528.6</ele></trkpt>
      <trkpt lat="42.705267" lon="0.508363"><ele>2529.0</ele></trkpt>
      <trkpt lat="42.705082" lon="0.508410"><ele>2534.6</ele></trkpt>
      <trkpt lat="42.704968" lon="0.508059"><ele>2535.4</ele></trkpt>
      <trkpt lat="42.704695" lon="0.508044"><ele>2540.8</ele></trkpt>
      <trkpt lat="42.704351" lon="0.507871"><ele>2546.2</ele></trkpt>
      <trkpt lat="42.704264" lon="0.507921"><ele>2549.8</ele></trkpt>
      <trkpt lat="42.704191" lon="0.507840"><ele>2555.6</ele></trkpt>
      <trkpt lat="42.704240" lon="0.507683"><ele>2562.2</ele></trkpt>
      <trkpt lat="42.704030" lon="0.507810"><ele>2566.2</ele></trkpt>
      <trkpt lat="42.703847" lon="0.508350"><ele>2567.6</ele></trkpt>
      <trkpt lat="42.704000" lon="0.508355"><ele>2567.4</ele></trkpt>
      <trkpt lat="42.703970" lon="0.508448"><ele>2567.0</ele></trkpt>
      <trkpt lat="42.705280" lon="0.508470"><ele>2526.8</ele></trkpt>
      <trkpt lat="42.705302" lon="0.508545"><ele>2526.6</ele></trkpt>
      <trkpt lat="42.705913" lon="0.508711"><ele>2516.4</ele></trkpt>
      <trkpt lat="42.706277" lon="0.508509"><ele>2509.6</ele></trkpt>
      <trkpt lat="42.706702" lon="0.508527"><ele>2509.0</ele></trkpt>
      <trkpt lat="42.706881" lon="0.508335"><ele>2506.2</ele></trkpt>
      <trkpt lat="42.707219" lon="0.508309"><ele>2506.2</ele></trkpt>
      <trkpt lat="42.708622" lon="0.507502"><ele>2506.6</ele></trkpt>
      <trkpt lat="42.709158" lon="0.507553"><ele>2507.8</ele></trkpt>
      <trkpt lat="42.709960" lon="0.507149"><ele>2502.6</ele></trkpt>
      <trkpt lat="42.710547" lon="0.506461"><ele>2484.4</ele></trkpt>
      <trkpt lat="42.710675" lon="0.506415"><ele>2482.0</ele></trkpt>
      <trkpt lat="42.710740" lon="0.506191"><ele>2474.0</ele></trkpt>
      <trkpt lat="42.710848" lon="0.506242"><ele>2471.2</ele></trkpt>
      <trkpt lat="42.710772" lon="0.506074"><ele>2466.0</ele></trkpt>
      <trkpt lat="42.710884" lon="0.506147"><ele>2462.6</ele></trkpt>
      <trkpt lat="42.710830" lon="0.506019"><ele>2459.8</ele></trkpt>
      <trkpt lat="42.711123" lon="0.506276"><ele>2447.4</ele></trkpt>
      <trkpt lat="42.711126" lon="0.505983"><ele>2440.6</ele></trkpt>
      <trkpt lat="42.711385" lon="0.506072"><ele>2431.2</ele></trkpt>
      <trkpt lat="42.711307" lon="0.505869"><ele>2428.8</ele></trkpt>
      <trkpt lat="42.711403" lon="0.505869"><ele>2425.8</ele></trkpt>
      <trkpt lat="42.711358" lon="0.505744"><ele>2422.4</ele></trkpt>
      <trkpt lat="42.711572" lon="0.505871"><ele>2416.0</ele></trkpt>
      <trkpt lat="42.711592" lon="0.505650"><ele>2412.6</ele></trkpt>
      <trkpt lat="42.711427" lon="0.505477"><ele>2407.2</ele></trkpt>
      <trkpt lat="42.711592" lon="0.505458"><ele>2402.4</ele></trkpt>
      <trkpt lat="42.711493" lon="0.505331"><ele>2398.4</ele></trkpt>
      <trkpt lat="42.711670" lon="0.505274"><ele>2393.2</ele></trkpt>
      <trkpt lat="42.711584" lon="0.505180"><ele>2390.8</ele></trkpt>
      <trkpt lat="42.711559" lon="0.504919"><ele>2385.0</ele></trkpt>
      <trkpt lat="42.711866" lon="0.504893"><ele>2378.4</ele></trkpt>
      <trkpt lat="42.711995" lon="0.505167"><ele>2371.6</ele></trkpt>
      <trkpt lat="42.711992" lon="0.504925"><ele>2367.2</ele></trkpt>
      <trkpt lat="42.712168" lon="0.505028"><ele>2362.4</ele></trkpt>
      <trkpt lat="42.712144" lon="0.504875"><ele>2359.4</ele></trkpt>
      <trkpt lat="42.712316" lon="0.504700"><ele>2350.4</ele></trkpt>
      <trkpt lat="42.712513" lon="0.504825"><ele>2344.6</ele></trkpt>
      <trkpt lat="42.712648" lon="0.504772"><ele>2340.0</ele></trkpt>
      <trkpt lat="42.713078" lon="0.505106"><ele>2325.6</ele></trkpt>
      <trkpt lat="42.713031" lon="0.504628"><ele>2315.4</ele></trkpt>
      <trkpt lat="42.713175" lon="0.504199"><ele>2306.2</ele></trkpt>
      <trkpt lat="42.713013" lon="0.503998"><ele>2300.8</ele></trkpt>
      <trkpt lat="42.713234" lon="0.503513"><ele>2289.0</ele></trkpt>
      <trkpt lat="42.713177" lon="0.503095"><ele>2280.6</ele></trkpt>
      <trkpt lat="42.713226" lon="0.502828"><ele>2275.8</ele></trkpt>
      <trkpt lat="42.712855" lon="0.502079"><ele>2260.2</ele></trkpt>
      <trkpt lat="42.712848" lon="0.501840"><ele>2259.4</ele></trkpt>
      <trkpt lat="42.712757" lon="0.501688"><ele>2257.0</ele></trkpt>
      <trkpt lat="42.712855" lon="0.501658"><ele>2253.0</ele></trkpt>
      <trkpt lat="42.712739" lon="0.501477"><ele>2247.4</ele></trkpt>
      <trkpt lat="42.712525" lon="0.501440"><ele>2243.2</ele></trkpt>
      <trkpt lat="42.712382" lon="0.501566"><ele>2245.6</ele></trkpt>
      <trkpt lat="42.712308" lon="0.501505"><ele>2242.2</ele></trkpt>
      <trkpt lat="42.712400" lon="0.501453"><ele>2238.2</ele></trkpt>
      <trkpt lat="42.712045" lon="0.501320"><ele>2229.2</ele></trkpt>
      <trkpt lat="42.712170" lon="0.501235"><ele>2225.2</ele></trkpt>
      <trkpt lat="42.712129" lon="0.501187"><ele>2222.6</ele></trkpt>
      <trkpt lat="42.712378" lon="0.501143"><ele>2214.4</ele></trkpt>
      <trkpt lat="42.712455" lon="0.501034"><ele>2211.8</ele></trkpt>
      <trkpt lat="42.712211" lon="0.500768"><ele>2204.6</ele></trkpt>
      <trkpt lat="42.712234" lon="0.499842"><ele>2187.4</ele></trkpt>
      <trkpt lat="42.712753" lon="0.500361"><ele>2170.0</ele></trkpt>
      <trkpt lat="42.713862" lon="0.500887"><ele>2149.4</ele></trkpt>
      <trkpt lat="42.714191" lon="0.501411"><ele>2140.8</ele></trkpt>
      <trkpt lat="42.714268" lon="0.501182"><ele>2136.4</ele></trkpt>
      <trkpt lat="42.714669" lon="0.500768"><ele>2128.4</ele></trkpt>
      <trkpt lat="42.714518" lon="0.500542"><ele>2123.6</ele></trkpt>
      <trkpt lat="42.714726" lon="0.500291"><ele>2120.2</ele></trkpt>
      <trkpt lat="42.714709" lon="0.500065"><ele>2117.2</ele></trkpt>
      <trkpt lat="42.715128" lon="0.499230"><ele>2108.0</ele></trkpt>
      <trkpt lat="42.715061" lon="0.498775"><ele>2102.0</ele></trkpt>
      <trkpt lat="42.715142" lon="0.498707"><ele>2099.6</ele></trkpt>
      <trkpt lat="42.715406" lon="0.498847"><ele>2093.4</ele></trkpt>
      <trkpt lat="42.715408" lon="0.498347"><ele>2089.8</ele></trkpt>
      <trkpt lat="42.715774" lon="0.497559"><ele>2088.8</ele></trkpt>
      <trkpt lat="42.715992" lon="0.497566"><ele>2083.4</ele></trkpt>
      <trkpt lat="42.716445" lon="0.497810"><ele>2071.6</ele></trkpt>
      <trkpt lat="42.717320" lon="0.497876"><ele>2050.6</ele></trkpt>
      <trkpt lat="42.717299" lon="0.498054"><ele>2047.0</ele></trkpt>
      <trkpt lat="42.717404" lon="0.498097"><ele>2043.4</ele></trkpt>
      <trkpt lat="42.717495" lon="0.498340"><ele>2035.2</ele></trkpt>
      <trkpt lat="42.717471" lon="0.498677"><ele>2028.6</ele></trkpt>
      <trkpt lat="42.717836" lon="0.498674"><ele>2019.6</ele></trkpt>
      <trkpt lat="42.717994" lon="0.498918"><ele>2011.2</ele></trkpt>
      <trkpt lat="42.718224" lon="0.498852"><ele>2005.2</ele></trkpt>
      <trkpt lat="42.718275" lon="0.499019"><ele>2001.2</ele></trkpt>
      <trkpt lat="42.718391" lon="0.498993"><ele>1998.0</ele></trkpt>
      <trkpt lat="42.718462" lon="0.499147"><ele>1994.2</ele></trkpt>
      <trkpt lat="42.718846" lon="0.499406"><ele>1983.8</ele></trkpt>
      <trkpt lat="42.719063" lon="0.499371"><ele>1976.6</ele></trkpt>
      <trkpt lat="42.719149" lon="0.499529"><ele>1972.8</ele></trkpt>
      <trkpt lat="42.719305" lon="0.499438"><ele>1968.8</ele></trkpt>
      <trkpt lat="42.719338" lon="0.499596"><ele>1965.2</ele></trkpt>
      <trkpt lat="42.719525" lon="0.499492"><ele>1961.0</ele></trkpt>
      <trkpt lat="42.719671" lon="0.499686"><ele>1956.0</ele></trkpt>
      <trkpt lat="42.719971" lon="0.499729"><ele>1949.0</ele></trkpt>
      <trkpt lat="42.720013" lon="0.499855"><ele>1945.2</ele></trkpt>
      <trkpt lat="42.720146" lon="0.499764"><ele>1942.8</ele></trkpt>
      <trkpt lat="42.720586" lon="0.499926"><ele>1934.8</ele></trkpt>
      <trkpt lat="42.721014" lon="0.499966"><ele>1929.2</ele></trkpt>
      <trkpt lat="42.721138" lon="0.499855"><ele>1927.8</ele></trkpt>
      <trkpt lat="42.721740" lon="0.500037"><ele>1925.6</ele></trkpt>
      <trkpt lat="42.722462" lon="0.499970"><ele>1926.8</ele></trkpt>
      <trkpt lat="42.722707" lon="0.500086"><ele>1929.2</ele></trkpt>
      <trkpt lat="42.723029" lon="0.500044"><ele>1933.2</ele></trkpt>
      <trkpt lat="42.723356" lon="0.500347"><ele>1933.2</ele></trkpt>
      <trkpt lat="42.723695" lon="0.500443"><ele>1925.0</ele></trkpt>
      <trkpt lat="42.724238" lon="0.500360"><ele>1920.6</ele></trkpt>
      <trkpt lat="42.724851" lon="0.500495"><ele>1922.6</ele></trkpt>
      <trkpt lat="42.724987" lon="0.501049"><ele>1923.6</ele></trkpt>
      <trkpt lat="42.724867" lon="0.501924"><ele>1926.0</ele></trkpt>
      <trkpt lat="42.724888" lon="0.502423"><ele>1928.2</ele></trkpt>
      <trkpt lat="42.724983" lon="0.502741"><ele>1927.8</ele></trkpt>
      <trkpt lat="42.725246" lon="0.503009"><ele>1926.8</ele></trkpt>
      <trkpt lat="42.725557" lon="0.502766"><ele>1922.6</ele></trkpt>
      <trkpt lat="42.725772" lon="0.502980"><ele>1920.8</ele></trkpt>
      <trkpt lat="42.725935" lon="0.503007"><ele>1921.8</ele></trkpt>
      <trkpt lat="42.726537" lon="0.502739"><ele>1926.4</ele></trkpt>
      <trkpt lat="42.726687" lon="0.502534"><ele>1925.4</ele></trkpt>
      <trkpt lat="42.727619" lon="0.502255"><ele>1927.2</ele></trkpt>
      <trkpt lat="42.727776" lon="0.502285"><ele>1925.6</ele></trkpt>
      <trkpt lat="42.728205" lon="0.502113"><ele>1921.6</ele></trkpt>
      <trkpt lat="42.728940" lon="0.501627"><ele>1928.2</ele></trkpt>
      <trkpt lat="42.729659" lon="0.501505"><ele>1939.4</ele></trkpt>
      <trkpt lat="42.730485" lon="0.500880"><ele>1962.4</ele></trkpt>
      <trkpt lat="42.730758" lon="0.500946"><ele>1966.6</ele></trkpt>
      <trkpt lat="42.730700" lon="0.501087"><ele>1965.6</ele></trkpt>
      <trkpt lat="42.730745" lon="0.501149"><ele>1965.0</ele></trkpt>
      <trkpt lat="42.730777" lon="0.501019"><ele>1961.0</ele></trkpt>
      <trkpt lat="42.731126" lon="0.500792"><ele>1955.2</ele></trkpt>
      <trkpt lat="42.731286" lon="0.500992"><ele>1951.2</ele></trkpt>
      <trkpt lat="42.731406" lon="0.500839"><ele>1943.4</ele></trkpt>
      <trkpt lat="42.731649" lon="0.500870"><ele>1935.2</ele></trkpt>
      <trkpt lat="42.731613" lon="0.500734"><ele>1932.8</ele></trkpt>
      <trkpt lat="42.731767" lon="0.500749"><ele>1928.4</ele></trkpt>
      <trkpt lat="42.731760" lon="0.500588"><ele>1925.6</ele></trkpt>
      <trkpt lat="42.731845" lon="0.500639"><ele>1922.2</ele></trkpt>
      <trkpt lat="42.731904" lon="0.500561"><ele>1920.4</ele></trkpt>
      <trkpt lat="42.731949" lon="0.500704"><ele>1917.4</ele></trkpt>
      <trkpt lat="42.732052" lon="0.500609"><ele>1914.8</ele></trkpt>
      <trkpt lat="42.732223" lon="0.500623"><ele>1911.8</ele></trkpt>
      <trkpt lat="42.732298" lon="0.500499"><ele>1909.0</ele></trkpt>
      <trkpt lat="42.732366" lon="0.500652"><ele>1905.6</ele></trkpt>
      <trkpt lat="42.732401" lon="0.500466"><ele>1903.0</ele></trkpt>
      <trkpt lat="42.732453" lon="0.500512"><ele>1901.6</ele></trkpt>
      <trkpt lat="42.732473" lon="0.500423"><ele>1899.6</ele></trkpt>
      <trkpt lat="42.732853" lon="0.500222"><ele>1894.0</ele></trkpt>
      <trkpt lat="42.733560" lon="0.500130"><ele>1880.4</ele></trkpt>
      <trkpt lat="42.733699" lon="0.499826"><ele>1873.6</ele></trkpt>
      <trkpt lat="42.733847" lon="0.499766"><ele>1867.6</ele></trkpt>
      <trkpt lat="42.733987" lon="0.499920"><ele>1863.0</ele></trkpt>
      <trkpt lat="42.734475" lon="0.499953"><ele>1850.6</ele></trkpt>
      <trkpt lat="42.734503" lon="0.499734"><ele>1846.4</ele></trkpt>
      <trkpt lat="42.734690" lon="0.499535"><ele>1840.8</ele></trkpt>
      <trkpt lat="42.734769" lon="0.499543"><ele>1839.0</ele></trkpt>
      <trkpt lat="42.734814" lon="0.499726"><ele>1835.6</ele></trkpt>
      <trkpt lat="42.734861" lon="0.499662"><ele>1834.2</ele></trkpt>
      <trkpt lat="42.735122" lon="0.499722"><ele>1827.6</ele></trkpt>
      <trkpt lat="42.735105" lon="0.499653"><ele>1825.6</ele></trkpt>
      <trkpt lat="42.735263" lon="0.499562"><ele>1818.8</ele></trkpt>
      <trkpt lat="42.735522" lon="0.499548"><ele>1809.0</ele></trkpt>
      <trkpt lat="42.735528" lon="0.499448"><ele>1806.2</ele></trkpt>
      <trkpt lat="42.735643" lon="0.499528"><ele>1802.2</ele></trkpt>
      <trkpt lat="42.735621" lon="0.499283"><ele>1797.4</ele></trkpt>
      <trkpt lat="42.735920" lon="0.499452"><ele>1789.2</ele></trkpt>
      <trkpt lat="42.736231" lon="0.499178"><ele>1777.8</ele></trkpt>
      <trkpt lat="42.736386" lon="0.499235"><ele>1773.8</ele></trkpt>
      <trkpt lat="42.736538" lon="0.499149"><ele>1768.8</ele></trkpt>
      <trkpt lat="42.736930" lon="0.499369"><ele>1758.8</ele></trkpt>
      <trkpt lat="42.737074" lon="0.499356"><ele>1753.4</ele></trkpt>
      <trkpt lat="42.737166" lon="0.499228"><ele>1748.6</ele></trkpt>
      <trkpt lat="42.737082" lon="0.499234"><ele>1746.8</ele></trkpt>
      <trkpt lat="42.736942" lon="0.499015"><ele>1742.6</ele></trkpt>
      <trkpt lat="42.737053" lon="0.498693"><ele>1738.2</ele></trkpt>
      <trkpt lat="42.737176" lon="0.498897"><ele>1733.0</ele></trkpt>
      <trkpt lat="42.737356" lon="0.498907"><ele>1726.0</ele></trkpt>
      <trkpt lat="42.737348" lon="0.498772"><ele>1723.2</ele></trkpt>
      <trkpt lat="42.737427" lon="0.498768"><ele>1721.4</ele></trkpt>
      <trkpt lat="42.737566" lon="0.498901"><ele>1716.6</ele></trkpt>
      <trkpt lat="42.737610" lon="0.499216"><ele>1711.4</ele></trkpt>
      <trkpt lat="42.737717" lon="0.499100"><ele>1704.6</ele></trkpt>
      <trkpt lat="42.737810" lon="0.499332"><ele>1701.4</ele></trkpt>
      <trkpt lat="42.738491" lon="0.498904"><ele>1698.6</ele></trkpt>
      <trkpt lat="42.738927" lon="0.499373"><ele>1697.0</ele></trkpt>
      <trkpt lat="42.739184" lon="0.499148"><ele>1694.0</ele></trkpt>
      <trkpt lat="42.739331" lon="0.498868"><ele>1694.6</ele></trkpt>
      <trkpt lat="42.739517" lon="0.498984"><ele>1690.8</ele></trkpt>
      <trkpt lat="42.740464" lon="0.498961"><ele>1691.2</ele></trkpt>
      <trkpt lat="42.740877" lon="0.498843"><ele>1686.8</ele></trkpt>
      <trkpt lat="42.741258" lon="0.498560"><ele>1676.0</ele></trkpt>
      <trkpt lat="42.741750" lon="0.498569"><ele>1663.4</ele></trkpt>
      <trkpt lat="42.741559" lon="0.498410"><ele>1656.2</ele></trkpt>
      <trkpt lat="42.741833" lon="0.498420"><ele>1647.4</ele></trkpt>
      <trkpt lat="42.741754" lon="0.498313"><ele>1643.0</ele></trkpt>
      <trkpt lat="42.741798" lon="0.498238"><ele>1640.2</ele></trkpt>
      <trkpt lat="42.741666" lon="0.498216"><ele>1636.0</ele></trkpt>
      <trkpt lat="42.741720" lon="0.498076"><ele>1632.6</ele></trkpt>
      <trkpt lat="42.741581" lon="0.498131"><ele>1629.2</ele></trkpt>
      <trkpt lat="42.741730" lon="0.497848"><ele>1621.8</ele></trkpt>
      <trkpt lat="42.741431" lon="0.497930"><ele>1613.2</ele></trkpt>
      <trkpt lat="42.741657" lon="0.497562"><ele>1605.8</ele></trkpt>
      <trkpt lat="42.741424" lon="0.497663"><ele>1600.0</ele></trkpt>
      <trkpt lat="42.741627" lon="0.497298"><ele>1592.8</ele></trkpt>
      <trkpt lat="42.741325" lon="0.497447"><ele>1585.8</ele></trkpt>
      <trkpt lat="42.741361" lon="0.497280"><ele>1582.4</ele></trkpt>
      <trkpt lat="42.741605" lon="0.496916"><ele>1575.4</ele></trkpt>
      <trkpt lat="42.741947" lon="0.496889"><ele>1568.8</ele></trkpt>
      <trkpt lat="42.742190" lon="0.496218"><ele>1558.0</ele></trkpt>
      <trkpt lat="42.742578" lon="0.495914"><ele>1550.6</ele></trkpt>
      <trkpt lat="42.743162" lon="0.495174"><ele>1535.6</ele></trkpt>
      <trkpt lat="42.743298" lon="0.494465"><ele>1527.8</ele></trkpt>
      <trkpt lat="42.743532" lon="0.493997"><ele>1525.2</ele></trkpt>
      <trkpt lat="42.743813" lon="0.493715"><ele>1527.2</ele></trkpt>
      <trkpt lat="42.743904" lon="0.493362"><ele>1525.6</ele></trkpt>
      <trkpt lat="42.743930" lon="0.492562"><ele>1520.6</ele></trkpt>
      <trkpt lat="42.744324" lon="0.491805"><ele>1511.4</ele></trkpt>
      <trkpt lat="42.744520" lon="0.491690"><ele>1504.0</ele></trkpt>
      <trkpt lat="42.744624" lon="0.491815"><ele>1500.2</ele></trkpt>
      <trkpt lat="42.744920" lon="0.491517"><ele>1493.2</ele></trkpt>
      <trkpt lat="42.745085" lon="0.491589"><ele>1491.2</ele></trkpt>
      <trkpt lat="42.745397" lon="0.491339"><ele>1486.8</ele></trkpt>
      <trkpt lat="42.745674" lon="0.491270"><ele>1490.2</ele></trkpt>
      <trkpt lat="42.746293" lon="0.491404"><ele>1488.4</ele></trkpt>
      <trkpt lat="42.746972" lon="0.491337"><ele>1490.8</ele></trkpt>
      <trkpt lat="42.747561" lon="0.491956"><ele>1499.2</ele></trkpt>
      <trkpt lat="42.747887" lon="0.492128"><ele>1492.0</ele></trkpt>
      <trkpt lat="42.748316" lon="0.492891"><ele>1488.4</ele></trkpt>
      <trkpt lat="42.748693" lon="0.493245"><ele>1494.4</ele></trkpt>
      <trkpt lat="42.749081" lon="0.493970"><ele>1497.2</ele></trkpt>
      <trkpt lat="42.749264" lon="0.494136"><ele>1496.0</ele></trkpt>
      <trkpt lat="42.749263" lon="0.494516"><ele>1491.6</ele></trkpt>
      <trkpt lat="42.749291" lon="0.494582"><ele>1490.2</ele></trkpt>
      <trkpt lat="42.749411" lon="0.494482"><ele>1486.6</ele></trkpt>
      <trkpt lat="42.749450" lon="0.495005"><ele>1477.6</ele></trkpt>
      <trkpt lat="42.749595" lon="0.494785"><ele>1472.4</ele></trkpt>
      <trkpt lat="42.749570" lon="0.495321"><ele>1463.0</ele></trkpt>
      <trkpt lat="42.749695" lon="0.494998"><ele>1457.2</ele></trkpt>
      <trkpt lat="42.749768" lon="0.495246"><ele>1453.0</ele></trkpt>
      <trkpt lat="42.749826" lon="0.494832"><ele>1448.0</ele></trkpt>
      <trkpt lat="42.749964" lon="0.494577"><ele>1444.2</ele></trkpt>
      <trkpt lat="42.750027" lon="0.494607"><ele>1442.6</ele></trkpt>
      <trkpt lat="42.749996" lon="0.494879"><ele>1439.2</ele></trkpt>
      <trkpt lat="42.750121" lon="0.494956"><ele>1435.0</ele></trkpt>
      <trkpt lat="42.750108" lon="0.495095"><ele>1431.2</ele></trkpt>
      <trkpt lat="42.750195" lon="0.495116"><ele>1429.0</ele></trkpt>
      <trkpt lat="42.750679" lon="0.494616"><ele>1418.2</ele></trkpt>
      <trkpt lat="42.750608" lon="0.495179"><ele>1407.4</ele></trkpt>
      <trkpt lat="42.750737" lon="0.495208"><ele>1404.6</ele></trkpt>
      <trkpt lat="42.750855" lon="0.495099"><ele>1401.8</ele></trkpt>
      <trkpt lat="42.750913" lon="0.495186"><ele>1400.2</ele></trkpt>
      <trkpt lat="42.750741" lon="0.495700"><ele>1390.4</ele></trkpt>
      <trkpt lat="42.750483" lon="0.495972"><ele>1386.6</ele></trkpt>
      <trkpt lat="42.750438" lon="0.496410"><ele>1381.0</ele></trkpt>
      <trkpt lat="42.750943" lon="0.497187"><ele>1367.2</ele></trkpt>
      <trkpt lat="42.750940" lon="0.496672"><ele>1357.6</ele></trkpt>
      <trkpt lat="42.751225" lon="0.497185"><ele>1349.6</ele></trkpt>
      <trkpt lat="42.751251" lon="0.496936"><ele>1346.2</ele></trkpt>
      <trkpt lat="42.751164" lon="0.496549"><ele>1341.4</ele></trkpt>
      <trkpt lat="42.751304" lon="0.496731"><ele>1338.6</ele></trkpt>
      <trkpt lat="42.751416" lon="0.497128"><ele>1333.2</ele></trkpt>
      <trkpt lat="42.751437" lon="0.496623"><ele>1326.2</ele></trkpt>
      <trkpt lat="42.751507" lon="0.496580"><ele>1324.2</ele></trkpt>
      <trkpt lat="42.751774" lon="0.497465"><ele>1309.8</ele></trkpt>
      <trkpt lat="42.752115" lon="0.497839"><ele>1303.8</ele></trkpt>
      <trkpt lat="42.752213" lon="0.498298"><ele>1297.6</ele></trkpt>
      <trkpt lat="42.752589" lon="0.498712"><ele>1291.4</ele></trkpt>
      <trkpt lat="42.753232" lon="0.499251"><ele>1282.2</ele></trkpt>
      <trkpt lat="42.753992" lon="0.499727"><ele>1271.4</ele></trkpt>
      <trkpt lat="42.754804" lon="0.499567"><ele>1259.6</ele></trkpt>
      <trkpt lat="42.755641" lon="0.499961"><ele>1245.6</ele></trkpt>
      <trkpt lat="42.756082" lon="0.500519"><ele>1236.4</ele></trkpt>
      <trkpt lat="42.756359" lon="0.501055"><ele>1228.4</ele></trkpt>
      <trkpt lat="42.756653" lon="0.501389"><ele>1221.8</ele></trkpt>
      <trkpt lat="42.757143" lon="0.501714"><ele>1214.2</ele></trkpt>
      <trkpt lat="42.757440" lon="0.502149"><ele>1207.8</ele></trkpt>
      <trkpt lat="42.758579" lon="0.502495"><ele>1190.2</ele></trkpt>
      <trkpt lat="42.759113" lon="0.502476"><ele>1183.4</ele></trkpt>
      <trkpt lat="42.759451" lon="0.502689"><ele>1179.4</ele></trkpt>
      <trkpt lat="42.760028" lon="0.502150"><ele>1172.0</ele></trkpt>
      <trkpt lat="42.760316" lon="0.502092"><ele>1169.2</ele></trkpt>
      <trkpt lat="42.760619" lon="0.501845"><ele>1166.8</ele></trkpt>
      <trkpt lat="42.761126" lon="0.501829"><ele>1164.4</ele></trkpt>
      <trkpt lat="42.761387" lon="0.501989"><ele>1163.6</ele></trkpt>
      <trkpt lat="42.761711" lon="0.501732"><ele>1160.0</ele></trkpt>
      <trkpt lat="42.762452" lon="0.501655"><ele>1153.4</ele></trkpt>
      <trkpt lat="42.762898" lon="0.501827"><ele>1147.4</ele></trkpt>
      <trkpt lat="42.763667" lon="0.501928"><ele>1139.4</ele></trkpt>
      <trkpt lat="42.765015" lon="0.501732"><ele>1129.0</ele></trkpt>
      <trkpt lat="42.765569" lon="0.501436"><ele>1126.8</ele></trkpt>
      <trkpt lat="42.766378" lon="0.501453"><ele>1122.8</ele></trkpt>
      <trkpt lat="42.766672" lon="0.501361"><ele>1120.2</ele></trkpt>
      <trkpt lat="42.766603" lon="0.500807"><ele>1116.8</ele></trkpt>
      <trkpt lat="42.766271" lon="0.500514"><ele>1118.6</ele></trkpt>
      <trkpt lat="42.765904" lon="0.500407"><ele>1119.2</ele></trkpt>
      <trkpt lat="42.765732" lon="0.500185"><ele>1119.0</ele></trkpt>
      <trkpt lat="42.765521" lon="0.499663"><ele>1120.6</ele></trkpt>
      <trkpt lat="42.765361" lon="0.498765"><ele>1124.2</ele></trkpt>
      <trkpt lat="42.764607" lon="0.498315"><ele>1144.6</ele></trkpt>
      <trkpt lat="42.764232" lon="0.497796"><ele>1163.8</ele></trkpt>
      <trkpt lat="42.764025" lon="0.497653"><ele>1169.4</ele></trkpt>
      <trkpt lat="42.764187" lon="0.497525"><ele>1172.8</ele></trkpt>
      <trkpt lat="42.764232" lon="0.497377"><ele>1176.8</ele></trkpt>
      <trkpt lat="42.763822" lon="0.496950"><ele>1192.0</ele></trkpt>
      <trkpt lat="42.763897" lon="0.496820"><ele>1196.4</ele></trkpt>
      <trkpt lat="42.763787" lon="0.496614"><ele>1204.8</ele></trkpt>
      <trkpt lat="42.763883" lon="0.496509"><ele>1210.0</ele></trkpt>
      <trkpt lat="42.763761" lon="0.496403"><ele>1215.2</ele></trkpt>
      <trkpt lat="42.763840" lon="0.496298"><ele>1220.6</ele></trkpt>
      <trkpt lat="42.763672" lon="0.496025"><ele>1231.4</ele></trkpt>
      <trkpt lat="42.763561" lon="0.495568"><ele>1243.0</ele></trkpt>
      <trkpt lat="42.763169" lon="0.495503"><ele>1258.0</ele></trkpt>
      <trkpt lat="42.762754" lon="0.495214"><ele>1277.8</ele></trkpt>
      <trkpt lat="42.762319" lon="0.494752"><ele>1296.4</ele></trkpt>
      <trkpt lat="42.762345" lon="0.494622"><ele>1301.8</ele></trkpt>
      <trkpt lat="42.762055" lon="0.494354"><ele>1314.8</ele></trkpt>
      <trkpt lat="42.762463" lon="0.494286"><ele>1327.2</ele></trkpt>
      <trkpt lat="42.762711" lon="0.494364"><ele>1333.6</ele></trkpt>
      <trkpt lat="42.762439" lon="0.494034"><ele>1344.0</ele></trkpt>
      <trkpt lat="42.761917" lon="0.493676"><ele>1363.8</ele></trkpt>
      <trkpt lat="42.762113" lon="0.493547"><ele>1374.4</ele></trkpt>
      <trkpt lat="42.761840" lon="0.493365"><ele>1385.8</ele></trkpt>
      <trkpt lat="42.762066" lon="0.493231"><ele>1394.2</ele></trkpt>
      <trkpt lat="42.761788" lon="0.493098"><ele>1403.8</ele></trkpt>
      <trkpt lat="42.761565" lon="0.492638"><ele>1417.2</ele></trkpt>
      <trkpt lat="42.761282" lon="0.493091"><ele>1430.0</ele></trkpt>
      <trkpt lat="42.761137" lon="0.493021"><ele>1436.8</ele></trkpt>
      <trkpt lat="42.761184" lon="0.492774"><ele>1443.2</ele></trkpt>
      <trkpt lat="42.760941" lon="0.492906"><ele>1454.0</ele></trkpt>
      <trkpt lat="42.760961" lon="0.492622"><ele>1460.6</ele></trkpt>
      <trkpt lat="42.761066" lon="0.492419"><ele>1467.0</ele></trkpt>
      <trkpt lat="42.760905" lon="0.492425"><ele>1472.6</ele></trkpt>
      <trkpt lat="42.760927" lon="0.492260"><ele>1478.6</ele></trkpt>
      <trkpt lat="42.760769" lon="0.492346"><ele>1483.8</ele></trkpt>
      <trkpt lat="42.760805" lon="0.492017"><ele>1492.0</ele></trkpt>
      <trkpt lat="42.760646" lon="0.492150"><ele>1498.4</ele></trkpt>
      <trkpt lat="42.760720" lon="0.491612"><ele>1511.0</ele></trkpt>
      <trkpt lat="42.760632" lon="0.491531"><ele>1517.0</ele></trkpt>
      <trkpt lat="42.760694" lon="0.491544"><ele>1518.4</ele></trkpt>
      <trkpt lat="42.760491" lon="0.491764"><ele>1526.4</ele></trkpt>
      <trkpt lat="42.760454" lon="0.491334"><ele>1534.8</ele></trkpt>
      <trkpt lat="42.760159" lon="0.491802"><ele>1549.0</ele></trkpt>
      <trkpt lat="42.760121" lon="0.491279"><ele>1560.0</ele></trkpt>
      <trkpt lat="42.760209" lon="0.490828"><ele>1567.4</ele></trkpt>
      <trkpt lat="42.759942" lon="0.491098"><ele>1574.6</ele></trkpt>
      <trkpt lat="42.759962" lon="0.490787"><ele>1580.6</ele></trkpt>
      <trkpt lat="42.759894" lon="0.490756"><ele>1583.0</ele></trkpt>
      <trkpt lat="42.759834" lon="0.490506"><ele>1589.6</ele></trkpt>
      <trkpt lat="42.759907" lon="0.490428"><ele>1591.4</ele></trkpt>
      <trkpt lat="42.759942" lon="0.490147"><ele>1596.8</ele></trkpt>
      <trkpt lat="42.759790" lon="0.489650"><ele>1607.6</ele></trkpt>
      <trkpt lat="42.759730" lon="0.489006"><ele>1615.2</ele></trkpt>
      <trkpt lat="42.759514" lon="0.488509"><ele>1625.2</ele></trkpt>
      <trkpt lat="42.759376" lon="0.487854"><ele>1642.4</ele></trkpt>
      <trkpt lat="42.759096" lon="0.487076"><ele>1650.6</ele></trkpt>
      <trkpt lat="42.759027" lon="0.486549"><ele>1651.8</ele></trkpt>
      <trkpt lat="42.758983" lon="0.486516"><ele>1652.2</ele></trkpt>
      <trkpt lat="42.758683" lon="0.486889"><ele>1658.2</ele></trkpt>
      <trkpt lat="42.758336" lon="0.486678"><ele>1665.8</ele></trkpt>
      <trkpt lat="42.758248" lon="0.486712"><ele>1667.0</ele></trkpt>
      <trkpt lat="42.758217" lon="0.486627"><ele>1666.6</ele></trkpt>
      <trkpt lat="42.758400" lon="0.486465"><ele>1666.2</ele></trkpt>
      <trkpt lat="42.758474" lon="0.486278"><ele>1667.0</ele></trkpt>
      <trkpt lat="42.758643" lon="0.485468"><ele>1686.0</ele></trkpt>
      <trkpt lat="42.758562" lon="0.485448"><ele>1688.2</ele></trkpt>
      <trkpt lat="42.758433" lon="0.485159"><ele>1695.8</ele></trkpt>
      <trkpt lat="42.758195" lon="0.484380"><ele>1709.0</ele></trkpt>
      <trkpt lat="42.758297" lon="0.483465"><ele>1715.0</ele></trkpt>
      <trkpt lat="42.758406" lon="0.483094"><ele>1719.8</ele></trkpt>
      <trkpt lat="42.758318" lon="0.482816"><ele>1724.8</ele></trkpt>
      <trkpt lat="42.758397" lon="0.482699"><ele>1727.2</ele></trkpt>
      <trkpt lat="42.758392" lon="0.482264"><ele>1736.6</ele></trkpt>
      <trkpt lat="42.758158" lon="0.480248"><ele>1783.8</ele></trkpt>
      <trkpt lat="42.758205" lon="0.480067"><ele>1786.8</ele></trkpt>
      <trkpt lat="42.758097" lon="0.479666"><ele>1794.6</ele></trkpt>
      <trkpt lat="42.758065" lon="0.478474"><ele>1826.0</ele></trkpt>
      <trkpt lat="42.757776" lon="0.477585"><ele>1844.0</ele></trkpt>
      <trkpt lat="42.757773" lon="0.477226"><ele>1850.2</ele></trkpt>
      <trkpt lat="42.757672" lon="0.476977"><ele>1856.6</ele></trkpt>
      <trkpt lat="42.757725" lon="0.476463"><ele>1865.8</ele></trkpt>
      <trkpt lat="42.757607" lon="0.476215"><ele>1871.0</ele></trkpt>
      <trkpt lat="42.757417" lon="0.475023"><ele>1893.6</ele></trkpt>
      <trkpt lat="42.757451" lon="0.474523"><ele>1900.6</ele></trkpt>
      <trkpt lat="42.757161" lon="0.473129"><ele>1924.4</ele></trkpt>
      <trkpt lat="42.757139" lon="0.472188"><ele>1941.6</ele></trkpt>
      <trkpt lat="42.756969" lon="0.471761"><ele>1954.2</ele></trkpt>
      <trkpt lat="42.756959" lon="0.471287"><ele>1963.2</ele></trkpt>
      <trkpt lat="42.756835" lon="0.471003"><ele>1969.0</ele></trkpt>
      <trkpt lat="42.756680" lon="0.470240"><ele>1984.4</ele></trkpt>
      <trkpt lat="42.756693" lon="0.469792"><ele>1993.2</ele></trkpt>
      <trkpt lat="42.756461" lon="0.468746"><ele>2010.2</ele></trkpt>
      <trkpt lat="42.756242" lon="0.468310"><ele>2019.0</ele></trkpt>
      <trkpt lat="42.756069" lon="0.467716"><ele>2033.0</ele></trkpt>
      <trkpt lat="42.756094" lon="0.467545"><ele>2036.4</ele></trkpt>
      <trkpt lat="42.755992" lon="0.467162"><ele>2044.4</ele></trkpt>
      <trkpt lat="42.756077" lon="0.467070"><ele>2048.0</ele></trkpt>
      <trkpt lat="42.756074" lon="0.466932"><ele>2051.0</ele></trkpt>
      <trkpt lat="42.755840" lon="0.466540"><ele>2063.8</ele></trkpt>
      <trkpt lat="42.755739" lon="0.466139"><ele>2073.2</ele></trkpt>
      <trkpt lat="42.755733" lon="0.465494"><ele>2085.6</ele></trkpt>
      <trkpt lat="42.755542" lon="0.464441"><ele>2114.6</ele></trkpt>
      <trkpt lat="42.755588" lon="0.464372"><ele>2117.8</ele></trkpt>
      <trkpt lat="42.755505" lon="0.464251"><ele>2122.6</ele></trkpt>
      <trkpt lat="42.755460" lon="0.463908"><ele>2131.0</ele></trkpt>
      <trkpt lat="42.755583" lon="0.462897"><ele>2143.2</ele></trkpt>
      <trkpt lat="42.755495" lon="0.462430"><ele>2143.6</ele></trkpt>
      <trkpt lat="42.755824" lon="0.462010"><ele>2128.4</ele></trkpt>
      <trkpt lat="42.755825" lon="0.461765"><ele>2126.4</ele></trkpt>
      <trkpt lat="42.755952" lon="0.461363"><ele>2116.0</ele></trkpt>
      <trkpt lat="42.755927" lon="0.460944"><ele>2104.8</ele></trkpt>
      <trkpt lat="42.756393" lon="0.459966"><ele>2076.0</ele></trkpt>
      <trkpt lat="42.756652" lon="0.458723"><ele>2042.4</ele></trkpt>
      <trkpt lat="42.757194" lon="0.457797"><ele>2013.0</ele></trkpt>
      <trkpt lat="42.757753" lon="0.457300"><ele>1989.6</ele></trkpt>
      <trkpt lat="42.757587" lon="0.457106"><ele>1979.4</ele></trkpt>
      <trkpt lat="42.757609" lon="0.456112"><ele>1962.2</ele></trkpt>
      <trkpt lat="42.757439" lon="0.455532"><ele>1952.0</ele></trkpt>
      <trkpt lat="42.757457" lon="0.455393"><ele>1948.6</ele></trkpt>
      <trkpt lat="42.757291" lon="0.455238"><ele>1945.0</ele></trkpt>
      <trkpt lat="42.757365" lon="0.455040"><ele>1936.2</ele></trkpt>
      <trkpt lat="42.757213" lon="0.454886"><ele>1928.8</ele></trkpt>
      <trkpt lat="42.757030" lon="0.454305"><ele>1918.6</ele></trkpt>
      <trkpt lat="42.757078" lon="0.454017"><ele>1915.2</ele></trkpt>
      <trkpt lat="42.757152" lon="0.453926"><ele>1912.4</ele></trkpt>
      <trkpt lat="42.757481" lon="0.453930"><ele>1901.2</ele></trkpt>
      <trkpt lat="42.757623" lon="0.453679"><ele>1891.6</ele></trkpt>
      <trkpt lat="42.757887" lon="0.453759"><ele>1878.8</ele></trkpt>
      <trkpt lat="42.758101" lon="0.453390"><ele>1862.6</ele></trkpt>
      <trkpt lat="42.758262" lon="0.452853"><ele>1847.6</ele></trkpt>
      <trkpt lat="42.758476" lon="0.452601"><ele>1843.2</ele></trkpt>
      <trkpt lat="42.758505" lon="0.452230"><ele>1834.6</ele></trkpt>
      <trkpt lat="42.758891" lon="0.452001"><ele>1811.0</ele></trkpt>
      <trkpt lat="42.758963" lon="0.451809"><ele>1802.8</ele></trkpt>
      <trkpt lat="42.759107" lon="0.451821"><ele>1795.6</ele></trkpt>
      <trkpt lat="42.759183" lon="0.451635"><ele>1789.4</ele></trkpt>
      <trkpt lat="42.759283" lon="0.451618"><ele>1785.4</ele></trkpt>
      <trkpt lat="42.759239" lon="0.451317"><ele>1778.0</ele></trkpt>
      <trkpt lat="42.759354" lon="0.450871"><ele>1760.2</ele></trkpt>
      <trkpt lat="42.759501" lon="0.450876"><ele>1752.4</ele></trkpt>
      <trkpt lat="42.759694" lon="0.450613"><ele>1736.0</ele></trkpt>
      <trkpt lat="42.760210" lon="0.450456"><ele>1718.0</ele></trkpt>
      <trkpt lat="42.760302" lon="0.450327"><ele>1712.8</ele></trkpt>
      <trkpt lat="42.760464" lon="0.449829"><ele>1698.4</ele></trkpt>
      <trkpt lat="42.760446" lon="0.449438"><ele>1688.0</ele></trkpt>
      <trkpt lat="42.760706" lon="0.449279"><ele>1674.2</ele></trkpt>
      <trkpt lat="42.760852" lon="0.448901"><ele>1655.2</ele></trkpt>
      <trkpt lat="42.760992" lon="0.448792"><ele>1646.0</ele></trkpt>
      <trkpt lat="42.760809" lon="0.448316"><ele>1634.8</ele></trkpt>
      <trkpt lat="42.760830" lon="0.447776"><ele>1627.8</ele></trkpt>
      <trkpt lat="42.761123" lon="0.446624"><ele>1609.4</ele></trkpt>
      <trkpt lat="42.761457" lon="0.445910"><ele>1605.2</ele></trkpt>
      <trkpt lat="42.761839" lon="0.445671"><ele>1603.8</ele></trkpt>
      <trkpt lat="42.762529" lon="0.445521"><ele>1605.0</ele></trkpt>
      <trkpt lat="42.763479" lon="0.444959"><ele>1592.4</ele></trkpt>
      <trkpt lat="42.763593" lon="0.444548"><ele>1580.0</ele></trkpt>
      <trkpt lat="42.763961" lon="0.444274"><ele>1568.2</ele></trkpt>
      <trkpt lat="42.764170" lon="0.443910"><ele>1561.8</ele></trkpt>
      <trkpt lat="42.764891" lon="0.443120"><ele>1552.4</ele></trkpt>
      <trkpt lat="42.765002" lon="0.442782"><ele>1546.6</ele></trkpt>
      <trkpt lat="42.765332" lon="0.442376"><ele>1542.6</ele></trkpt>
      <trkpt lat="42.765545" lon="0.441876"><ele>1540.6</ele></trkpt>
      <trkpt lat="42.766118" lon="0.441188"><ele>1537.2</ele></trkpt>
      <trkpt lat="42.766538" lon="0.441003"><ele>1537.4</ele></trkpt>
      <trkpt lat="42.766913" lon="0.440703"><ele>1534.2</ele></trkpt>
      <trkpt lat="42.767013" lon="0.440734"><ele>1536.6</ele></trkpt>
      <trkpt lat="42.767156" lon="0.440572"><ele>1537.2</ele></trkpt>
      <trkpt lat="42.767525" lon="0.440562"><ele>1535.2</ele></trkpt>
      <trkpt lat="42.767932" lon="0.440330"><ele>1531.2</ele></trkpt>
      <trkpt lat="42.768050" lon="0.440105"><ele>1526.4</ele></trkpt>
      <trkpt lat="42.768210" lon="0.440112"><ele>1520.4</ele></trkpt>
      <trkpt lat="42.768462" lon="0.439922"><ele>1511.8</ele></trkpt>
      <trkpt lat="42.768878" lon="0.439334"><ele>1497.6</ele></trkpt>
      <trkpt lat="42.769263" lon="0.438958"><ele>1495.0</ele></trkpt>
      <trkpt lat="42.769519" lon="0.438817"><ele>1497.8</ele></trkpt>
      <trkpt lat="42.769650" lon="0.438844"><ele>1497.2</ele></trkpt>
      <trkpt lat="42.769953" lon="0.438446"><ele>1497.2</ele></trkpt>
      <trkpt lat="42.770060" lon="0.437955"><ele>1496.8</ele></trkpt>
      <trkpt lat="42.770456" lon="0.437068"><ele>1488.4</ele></trkpt>
      <trkpt lat="42.770750" lon="0.436892"><ele>1484.4</ele></trkpt>
      <trkpt lat="42.770979" lon="0.436486"><ele>1482.4</ele></trkpt>
      <trkpt lat="42.771029" lon="0.436241"><ele>1483.0</ele></trkpt>
      <trkpt lat="42.771149" lon="0.436227"><ele>1482.8</ele></trkpt>
      <trkpt lat="42.771156" lon="0.436114"><ele>1482.6</ele></trkpt>
      <trkpt lat="42.771338" lon="0.435985"><ele>1484.2</ele></trkpt>
      <trkpt lat="42.771400" lon="0.435781"><ele>1483.8</ele></trkpt>
      <trkpt lat="42.771611" lon="0.435540"><ele>1486.8</ele></trkpt>
      <trkpt lat="42.771895" lon="0.434360"><ele>1490.2</ele></trkpt>
      <trkpt lat="42.772134" lon="0.433992"><ele>1488.8</ele></trkpt>
      <trkpt lat="42.772530" lon="0.432796"><ele>1494.0</ele></trkpt>
      <trkpt lat="42.772734" lon="0.432651"><ele>1496.2</ele></trkpt>
      <trkpt lat="42.772861" lon="0.432390"><ele>1497.6</ele></trkpt>
      <trkpt lat="42.772795" lon="0.432025"><ele>1499.2</ele></trkpt>
      <trkpt lat="42.772818" lon="0.431186"><ele>1498.0</ele></trkpt>
      <trkpt lat="42.772946" lon="0.430125"><ele>1499.4</ele></trkpt>
      <trkpt lat="42.773678" lon="0.427674"><ele>1514.0</ele></trkpt>
      <trkpt lat="42.773919" lon="0.427253"><ele>1518.0</ele></trkpt>
      <trkpt lat="42.774006" lon="0.426643"><ele>1525.2</ele></trkpt>
      <trkpt lat="42.775614" lon="0.424915"><ele>1480.4</ele></trkpt>
      <trkpt lat="42.776311" lon="0.422734"><ele>1473.4</ele></trkpt>
      <trkpt lat="42.776629" lon="0.422498"><ele>1465.6</ele></trkpt>
      <trkpt lat="42.777204" lon="0.422318"><ele>1451.6</ele></trkpt>
      <trkpt lat="42.777866" lon="0.421753"><ele>1438.0</ele></trkpt>
      <trkpt lat="42.778118" lon="0.421701"><ele>1434.8</ele></trkpt>
      <trkpt lat="42.779095" lon="0.421811"><ele>1423.6</ele></trkpt>
      <trkpt lat="42.779833" lon="0.421649"><ele>1416.4</ele></trkpt>
      <trkpt lat="42.779968" lon="0.421538"><ele>1414.2</ele></trkpt>
      <trkpt lat="42.780104" lon="0.421578"><ele>1418.2</ele></trkpt>
      <trkpt lat="42.780299" lon="0.421224"><ele>1413.6</ele></trkpt>
      <trkpt lat="42.780765" lon="0.420803"><ele>1412.4</ele></trkpt>
      <trkpt lat="42.781647" lon="0.420678"><ele>1404.6</ele></trkpt>
      <trkpt lat="42.781994" lon="0.420805"><ele>1402.2</ele></trkpt>
      <trkpt lat="42.783160" lon="0.421535"><ele>1396.4</ele></trkpt>
      <trkpt lat="42.783651" lon="0.421341"><ele>1397.0</ele></trkpt>
      <trkpt lat="42.783968" lon="0.421347"><ele>1398.0</ele></trkpt>
      <trkpt lat="42.784208" lon="0.421519"><ele>1397.2</ele></trkpt>
      <trkpt lat="42.784617" lon="0.422107"><ele>1392.8</ele></trkpt>
      <trkpt lat="42.785147" lon="0.422392"><ele>1389.6</ele></trkpt>
      <trkpt lat="42.785342" lon="0.422656"><ele>1390.8</ele></trkpt>
      <trkpt lat="42.786116" lon="0.423075"><ele>1399.8</ele></trkpt>
      <trkpt lat="42.786610" lon="0.424308"><ele>1410.6</ele></trkpt>
      <trkpt lat="42.786628" lon="0.424239"><ele>1410.6</ele></trkpt>
      <trkpt lat="42.787474" lon="0.425774"><ele>1407.6</ele></trkpt>
      <trkpt lat="42.788076" lon="0.426442"><ele>1402.8</ele></trkpt>
      <trkpt lat="42.788300" lon="0.426810"><ele>1400.2</ele></trkpt>
      <trkpt lat="42.788945" lon="0.427086"><ele>1394.8</ele></trkpt>
      <trkpt lat="42.789166" lon="0.427071"><ele>1390.2</ele></trkpt>
      <trkpt lat="42.789247" lon="0.427419"><ele>1384.4</ele></trkpt>
      <trkpt lat="42.789809" lon="0.427049"><ele>1381.2</ele></trkpt>
      <trkpt lat="42.790130" lon="0.427038"><ele>1374.2</ele></trkpt>
      <trkpt lat="42.790336" lon="0.427148"><ele>1366.4</ele></trkpt>
      <trkpt lat="42.790588" lon="0.426848"><ele>1354.0</ele></trkpt>
      <trkpt lat="42.791039" lon="0.426687"><ele>1345.0</ele></trkpt>
      <trkpt lat="42.791387" lon="0.426677"><ele>1341.4</ele></trkpt>
      <trkpt lat="42.792458" lon="0.427020"><ele>1334.4</ele></trkpt>
      <trkpt lat="42.792885" lon="0.426712"><ele>1335.4</ele></trkpt>
      <trkpt lat="42.792959" lon="0.426420"><ele>1332.2</ele></trkpt>
      <trkpt lat="42.792858" lon="0.426045"><ele>1328.2</ele></trkpt>
      <trkpt lat="42.792974" lon="0.425768"><ele>1327.4</ele></trkpt>
      <trkpt lat="42.793074" lon="0.425748"><ele>1329.0</ele></trkpt>
      <trkpt lat="42.792895" lon="0.425009"><ele>1325.4</ele></trkpt>
      <trkpt lat="42.792866" lon="0.424571"><ele>1322.4</ele></trkpt>
      <trkpt lat="42.792928" lon="0.424457"><ele>1320.8</ele></trkpt>
      <trkpt lat="42.793203" lon="0.424333"><ele>1315.6</ele></trkpt>
      <trkpt lat="42.793301" lon="0.423402"><ele>1300.0</ele></trkpt>
      <trkpt lat="42.793692" lon="0.422195"><ele>1285.2</ele></trkpt>
      <trkpt lat="42.793726" lon="0.421693"><ele>1277.2</ele></trkpt>
      <trkpt lat="42.793359" lon="0.420502"><ele>1253.6</ele></trkpt>
      <trkpt lat="42.793365" lon="0.420334"><ele>1251.0</ele></trkpt>
      <trkpt lat="42.793500" lon="0.420168"><ele>1247.6</ele></trkpt>
      <trkpt lat="42.793314" lon="0.420159"><ele>1244.8</ele></trkpt>
      <trkpt lat="42.793155" lon="0.420023"><ele>1239.4</ele></trkpt>
      <trkpt lat="42.792889" lon="0.419319"><ele>1218.4</ele></trkpt>
      <trkpt lat="42.792934" lon="0.419169"><ele>1214.4</ele></trkpt>
      <trkpt lat="42.792850" lon="0.419076"><ele>1210.6</ele></trkpt>
      <trkpt lat="42.792807" lon="0.418818"><ele>1204.4</ele></trkpt>
      <trkpt lat="42.792937" lon="0.418822"><ele>1198.8</ele></trkpt>
      <trkpt lat="42.792917" lon="0.418685"><ele>1194.6</ele></trkpt>
      <trkpt lat="42.792978" lon="0.418646"><ele>1189.6</ele></trkpt>
      <trkpt lat="42.792788" lon="0.418314"><ele>1179.8</ele></trkpt>
      <trkpt lat="42.792616" lon="0.418263"><ele>1175.2</ele></trkpt>
      <trkpt lat="42.792729" lon="0.418210"><ele>1172.2</ele></trkpt>
      <trkpt lat="42.792621" lon="0.418160"><ele>1168.4</ele></trkpt>
      <trkpt lat="42.792710" lon="0.418042"><ele>1164.2</ele></trkpt>
      <trkpt lat="42.792462" lon="0.417969"><ele>1157.4</ele></trkpt>
      <trkpt lat="42.792299" lon="0.418049"><ele>1153.6</ele></trkpt>
      <trkpt lat="42.792310" lon="0.417930"><ele>1151.0</ele></trkpt>
      <trkpt lat="42.792486" lon="0.417786"><ele>1146.2</ele></trkpt>
      <trkpt lat="42.792299" lon="0.417750"><ele>1141.0</ele></trkpt>
      <trkpt lat="42.792376" lon="0.417628"><ele>1137.4</ele></trkpt>
      <trkpt lat="42.792113" lon="0.417634"><ele>1130.8</ele></trkpt>
      <trkpt lat="42.792468" lon="0.417245"><ele>1117.4</ele></trkpt>
      <trkpt lat="42.792095" lon="0.417062"><ele>1105.2</ele></trkpt>
      <trkpt lat="42.792374" lon="0.416863"><ele>1095.8</ele></trkpt>
      <trkpt lat="42.792208" lon="0.416745"><ele>1089.0</ele></trkpt>
      <trkpt lat="42.792439" lon="0.416404"><ele>1077.2</ele></trkpt>
      <trkpt lat="42.791989" lon="0.416100"><ele>1060.6</ele></trkpt>
      <trkpt lat="42.792369" lon="0.415777"><ele>1047.8</ele></trkpt>
      <trkpt lat="42.792935" lon="0.415622"><ele>1039.4</ele></trkpt>
      <trkpt lat="42.793493" lon="0.415082"><ele>1023.2</ele></trkpt>
      <trkpt lat="42.795339" lon="0.413739"><ele>986.2</ele></trkpt>
      <trkpt lat="42.795404" lon="0.413537"><ele>982.6</ele></trkpt>
      <trkpt lat="42.795776" lon="0.413251"><ele>974.2</ele></trkpt>
      <trkpt lat="42.795808" lon="0.412695"><ele>967.0</ele></trkpt>
      <trkpt lat="42.795630" lon="0.412325"><ele>963.4</ele></trkpt>
      <trkpt lat="42.796212" lon="0.411832"><ele>961.4</ele></trkpt>
      <trkpt lat="42.796510" lon="0.411014"><ele>957.2</ele></trkpt>
      <trkpt lat="42.796610" lon="0.409171"><ele>952.8</ele></trkpt>
      <trkpt lat="42.797277" lon="0.409195"><ele>951.0</ele></trkpt>
      <trkpt lat="42.797830" lon="0.409476"><ele>950.6</ele></trkpt>
      <trkpt lat="42.798040" lon="0.409071"><ele>951.2</ele></trkpt>
      <trkpt lat="42.798492" lon="0.408790"><ele>950.4</ele></trkpt>
      <trkpt lat="42.797763" lon="0.408331"><ele>951.8</ele></trkpt>
      <trkpt lat="42.797196" lon="0.408542"><ele>953.0</ele></trkpt>
      <trkpt lat="42.797086" lon="0.408640"><ele>953.0</ele></trkpt>
      <trkpt lat="42.797096" lon="0.408851"><ele>953.0</ele></trkpt>
    </trkseg>
  </trk>
</gpx>
