<?xml version="1.0" encoding="UTF-8"?>
<gpx version="1.1" creator="gpx-processor" xmlns="http://www.topografix.com/GPX/1/1">
  <metadata><name>Tympakio Running</name></metadata>
  <trk>
    <name>Tympakio Running</name>
    <trkseg>
      <trkpt lat="35.032323" lon="24.765097"><ele>49.2</ele></trkpt>
      <trkpt lat="35.032202" lon="24.764966"><ele>46.0</ele></trkpt>
      <trkpt lat="35.032095" lon="24.765029"><ele>47.0</ele></trkpt>
      <trkpt lat="35.031555" lon="24.765920"><ele>46.2</ele></trkpt>
      <trkpt lat="35.031337" lon="24.765973"><ele>43.4</ele></trkpt>
      <trkpt lat="35.031029" lon="24.765908"><ele>39.6</ele></trkpt>
      <trkpt lat="35.030590" lon="24.766111"><ele>31.8</ele></trkpt>
      <trkpt lat="35.030126" lon="24.766725"><ele>23.0</ele></trkpt>
      <trkpt lat="35.029484" lon="24.765768"><ele>23.2</ele></trkpt>
      <trkpt lat="35.029237" lon="24.765770"><ele>21.4</ele></trkpt>
      <trkpt lat="35.029554" lon="24.765799"><ele>23.4</ele></trkpt>
      <trkpt lat="35.029830" lon="24.766182"><ele>23.8</ele></trkpt>
      <trkpt lat="35.030027" lon="24.766568"><ele>22.8</ele></trkpt>
      <trkpt lat="35.030045" lon="24.767017"><ele>21.2</ele></trkpt>
      <trkpt lat="35.029825" lon="24.768660"><ele>24.8</ele></trkpt>
      <trkpt lat="35.029720" lon="24.768849"><ele>24.6</ele></trkpt>
      <trkpt lat="35.029369" lon="24.769151"><ele>26.4</ele></trkpt>
      <trkpt lat="35.029217" lon="24.769557"><ele>30.2</ele></trkpt>
      <trkpt lat="35.029128" lon="24.769563"><ele>30.0</ele></trkpt>
      <trkpt lat="35.028866" lon="24.769289"><ele>25.8</ele></trkpt>
      <trkpt lat="35.028329" lon="24.769057"><ele>24.0</ele></trkpt>
      <trkpt lat="35.027753" lon="24.768974"><ele>23.2</ele></trkpt>
      <trkpt lat="35.027087" lon="24.769115"><ele>23.6</ele></trkpt>
      <trkpt lat="35.026696" lon="24.769360"><ele>23.0</ele></trkpt>
      <trkpt lat="35.026508" lon="24.769552"><ele>24.0</ele></trkpt>
      <trkpt lat="35.025868" lon="24.770648"><ele>23.0</ele></trkpt>
      <trkpt lat="35.025706" lon="24.771153"><ele>21.8</ele></trkpt>
      <trkpt lat="35.025308" lon="24.771779"><ele>22.6</ele></trkpt>
      <trkpt lat="35.025244" lon="24.772030"><ele>22.4</ele></trkpt>
      <trkpt lat="35.024755" lon="24.772383"><ele>28.6</ele></trkpt>
      <trkpt lat="35.024109" lon="24.773520"><ele>40.2</ele></trkpt>
      <trkpt lat="35.023315" lon="24.774367"><ele>50.0</ele></trkpt>
      <trkpt lat="35.022252" lon="24.776086"><ele>58.4</ele></trkpt>
      <trkpt lat="35.021801" lon="24.776635"><ele>70.4</ele></trkpt>
      <trkpt lat="35.021592" lon="24.776649"><ele>77.2</ele></trkpt>
      <trkpt lat="35.021092" lon="24.776446"><ele>83.0</ele></trkpt>
      <trkpt lat="35.020839" lon="24.776512"><ele>81.6</ele></trkpt>
      <trkpt lat="35.019523" lon="24.777418"><ele>79.6</ele></trkpt>
      <trkpt lat="35.018049" lon="24.778172"><ele>81.6</ele></trkpt>
      <trkpt lat="35.017459" lon="24.778733"><ele>78.4</ele></trkpt>
      <trkpt lat="35.017291" lon="24.779077"><ele>77.6</ele></trkpt>
      <trkpt lat="35.017131" lon="24.780014"><ele>68.4</ele></trkpt>
      <trkpt lat="35.017186" lon="24.780146"><ele>68.4</ele></trkpt>
      <trkpt lat="35.016925" lon="24.780484"><ele>69.0</ele></trkpt>
      <trkpt lat="35.016356" lon="24.781656"><ele>73.4</ele></trkpt>
      <trkpt lat="35.016014" lon="24.781836"><ele>74.0</ele></trkpt>
      <trkpt lat="35.015697" lon="24.781674"><ele>74.2</ele></trkpt>
      <trkpt lat="35.015563" lon="24.781932"><ele>75.8</ele></trkpt>
      <trkpt lat="35.015553" lon="24.782156"><ele>76.0</ele></trkpt>
      <trkpt lat="35.015678" lon="24.782351"><ele>74.6</ele></trkpt>
      <trkpt lat="35.016002" lon="24.782441"><ele>70.8</ele></trkpt>
      <trkpt lat="35.016080" lon="24.782592"><ele>68.2</ele></trkpt>
      <trkpt lat="35.016021" lon="24.782768"><ele>67.4</ele></trkpt>
      <trkpt lat="35.015776" lon="24.782801"><ele>69.0</ele></trkpt>
      <trkpt lat="35.015724" lon="24.782920"><ele>68.4</ele></trkpt>
      <trkpt lat="35.015965" lon="24.783866"><ele>62.0</ele></trkpt>
      <trkpt lat="35.015946" lon="24.783583"><ele>62.8</ele></trkpt>
      <trkpt lat="35.015688" lon="24.782813"><ele>69.6</ele></trkpt>
      <trkpt lat="35.015139" lon="24.782741"><ele>73.2</ele></trkpt>
      <trkpt lat="35.014757" lon="24.783393"><ele>74.4</ele></trkpt>
      <trkpt lat="35.014479" lon="24.784373"><ele>78.4</ele></trkpt>
      <trkpt lat="35.013996" lon="24.784612"><ele>87.4</ele></trkpt>
      <trkpt lat="35.013583" lon="24.785011"><ele>95.6</ele></trkpt>
      <trkpt lat="35.012528" lon="24.785346"><ele>99.0</ele></trkpt>
      <trkpt lat="35.011822" lon="24.785146"><ele>97.2</ele></trkpt>
      <trkpt lat="35.010868" lon="24.785210"><ele>83.2</ele></trkpt>
      <trkpt lat="35.010063" lon="24.785777"><ele>90.2</ele></trkpt>
      <trkpt lat="35.009569" lon="24.785843"><ele>90.2</ele></trkpt>
      <trkpt lat="35.009209" lon="24.786228"><ele>90.8</ele></trkpt>
      <trkpt lat="35.008831" lon="24.786420"><ele>90.8</ele></trkpt>
      <trkpt lat="35.007896" lon="24.787166"><ele>99.6</ele></trkpt>
      <trkpt lat="35.007442" lon="24.787221"><ele>100.8</ele></trkpt>
      <trkpt lat="35.005981" lon="24.787661"><ele>91.8</ele></trkpt>
      <trkpt lat="35.005511" lon="24.788058"><ele>90.4</ele></trkpt>
      <trkpt lat="35.005052" lon="24.788167"><ele>95.0</ele></trkpt>
      <trkpt lat="35.004766" lon="24.788385"><ele>101.0</ele></trkpt>
      <trkpt lat="35.004266" lon="24.788555"><ele>108.8</ele></trkpt>
      <trkpt lat="35.003761" lon="24.788695"><ele>109.2</ele></trkpt>
      <trkpt lat="35.002918" lon="24.788731"><ele>101.0</ele></trkpt>
      <trkpt lat="35.002510" lon="24.788977"><ele>92.8</ele></trkpt>
      <trkpt lat="35.002256" lon="24.788918"><ele>90.0</ele></trkpt>
      <trkpt lat="35.001703" lon="24.789089"><ele>84.2</ele></trkpt>
      <trkpt lat="35.001499" lon="24.789317"><ele>80.6</ele></trkpt>
      <trkpt lat="35.001687" lon="24.789892"><ele>83.2</ele></trkpt>
      <trkpt lat="35.001454" lon="24.790495"><ele>79.4</ele></trkpt>
      <trkpt lat="35.001244" lon="24.790361"><ele>78.0</ele></trkpt>
      <trkpt lat="35.000587" lon="24.790570"><ele>89.0</ele></trkpt>
      <trkpt lat="35.000237" lon="24.790399"><ele>96.6</ele></trkpt>
      <trkpt lat="34.999910" lon="24.790521"><ele>98.0</ele></trkpt>
      <trkpt lat="34.999091" lon="24.790160"><ele>118.4</ele></trkpt>
      <trkpt lat="34.998492" lon="24.789489"><ele>124.8</ele></trkpt>
      <trkpt lat="34.998144" lon="24.789789"><ele>128.8</ele></trkpt>
      <trkpt lat="34.997714" lon="24.789938"><ele>128.4</ele></trkpt>
      <trkpt lat="34.997424" lon="24.789878"><ele>126.8</ele></trkpt>
      <trkpt lat="34.997154" lon="24.789979"><ele>126.2</ele></trkpt>
      <trkpt lat="34.996885" lon="24.789900"><ele>127.0</ele></trkpt>
      <trkpt lat="34.996225" lon="24.790138"><ele>134.2</ele></trkpt>
      <trkpt lat="34.995754" lon="24.789921"><ele>133.0</ele></trkpt>
      <trkpt lat="34.995403" lon="24.789881"><ele>134.6</ele></trkpt>
      <trkpt lat="34.995099" lon="24.790026"><ele>137.0</ele></trkpt>
      <trkpt lat="34.994889" lon="24.790234"><ele>139.0</ele></trkpt>
      <trkpt lat="34.994198" lon="24.790182"><ele>150.6</ele></trkpt>
      <trkpt lat="34.994134" lon="24.790098"><ele>152.6</ele></trkpt>
      <trkpt lat="34.994114" lon="24.790153"><ele>152.6</ele></trkpt>
      <trkpt lat="34.994131" lon="24.789555"><ele>163.2</ele></trkpt>
      <trkpt lat="34.994217" lon="24.789435"><ele>161.4</ele></trkpt>
      <trkpt lat="34.994267" lon="24.789116"><ele>163.6</ele></trkpt>
      <trkpt lat="34.994525" lon="24.788727"><ele>164.2</ele></trkpt>
      <trkpt lat="34.994711" lon="24.788588"><ele>165.4</ele></trkpt>
      <trkpt lat="34.994948" lon="24.788211"><ele>172.0</ele></trkpt>
      <trkpt lat="34.995155" lon="24.788163"><ele>168.8</ele></trkpt>
      <trkpt lat="34.995302" lon="24.787953"><ele>171.6</ele></trkpt>
      <trkpt lat="34.995497" lon="24.787874"><ele>169.2</ele></trkpt>
      <trkpt lat="34.995647" lon="24.787694"><ele>167.0</ele></trkpt>
      <trkpt lat="34.995917" lon="24.787704"><ele>158.8</ele></trkpt>
      <trkpt lat="34.996171" lon="24.787850"><ele>151.0</ele></trkpt>
      <trkpt lat="34.996333" lon="24.787772"><ele>146.0</ele></trkpt>
      <trkpt lat="34.996558" lon="24.787425"><ele>138.4</ele></trkpt>
      <trkpt lat="34.996541" lon="24.787012"><ele>140.8</ele></trkpt>
      <trkpt lat="34.996782" lon="24.786609"><ele>135.6</ele></trkpt>
      <trkpt lat="34.996839" lon="24.786354"><ele>131.6</ele></trkpt>
      <trkpt lat="34.997009" lon="24.786117"><ele>123.6</ele></trkpt>
      <trkpt lat="34.997090" lon="24.786430"><ele>124.4</ele></trkpt>
      <trkpt lat="34.997117" lon="24.786341"><ele>123.0</ele></trkpt>
      <trkpt lat="34.997039" lon="24.786206"><ele>123.6</ele></trkpt>
      <trkpt lat="34.997232" lon="24.785862"><ele>117.2</ele></trkpt>
      <trkpt lat="34.998076" lon="24.785975"><ele>107.2</ele></trkpt>
      <trkpt lat="34.998540" lon="24.785847"><ele>102.2</ele></trkpt>
      <trkpt lat="34.998587" lon="24.785258"><ele>96.0</ele></trkpt>
      <trkpt lat="34.998761" lon="24.784809"><ele>90.0</ele></trkpt>
      <trkpt lat="34.998866" lon="24.784749"><ele>89.0</ele></trkpt>
      <trkpt lat="34.998936" lon="24.784327"><ele>84.8</ele></trkpt>
      <trkpt lat="34.999080" lon="24.784037"><ele>80.2</ele></trkpt>
      <trkpt lat="34.999474" lon="24.783842"><ele>72.8</ele></trkpt>
      <trkpt lat="34.999638" lon="24.783166"><ele>71.4</ele></trkpt>
      <trkpt lat="35.000119" lon="24.783322"><ele>64.6</ele></trkpt>
      <trkpt lat="35.000348" lon="24.782738"><ele>63.2</ele></trkpt>
      <trkpt lat="35.000315" lon="24.782683"><ele>63.4</ele></trkpt>
      <trkpt lat="35.000556" lon="24.782770"><ele>64.0</ele></trkpt>
      <trkpt lat="35.000398" lon="24.782784"><ele>63.0</ele></trkpt>
      <trkpt lat="35.000068" lon="24.783316"><ele>64.6</ele></trkpt>
      <trkpt lat="34.999739" lon="24.783319"><ele>69.6</ele></trkpt>
      <trkpt lat="34.999417" lon="24.783931"><ele>74.2</ele></trkpt>
      <trkpt lat="34.999000" lon="24.784362"><ele>85.2</ele></trkpt>
      <trkpt lat="34.998871" lon="24.784778"><ele>89.4</ele></trkpt>
      <trkpt lat="34.998557" lon="24.785414"><ele>97.2</ele></trkpt>
      <trkpt lat="34.998466" lon="24.785452"><ele>98.4</ele></trkpt>
      <trkpt lat="34.998564" lon="24.785520"><ele>98.4</ele></trkpt>
      <trkpt lat="34.998508" lon="24.785843"><ele>102.8</ele></trkpt>
      <trkpt lat="34.998076" lon="24.785944"><ele>107.2</ele></trkpt>
      <trkpt lat="34.997336" lon="24.785881"><ele>115.4</ele></trkpt>
      <trkpt lat="34.997375" lon="24.785842"><ele>114.4</ele></trkpt>
      <trkpt lat="34.997217" lon="24.785893"><ele>117.6</ele></trkpt>
      <trkpt lat="34.996555" lon="24.787224"><ele>139.0</ele></trkpt>
      <trkpt lat="34.996550" lon="24.787541"><ele>138.6</ele></trkpt>
      <trkpt lat="34.996263" lon="24.787792"><ele>148.2</ele></trkpt>
      <trkpt lat="34.996072" lon="24.787816"><ele>153.8</ele></trkpt>
      <trkpt lat="34.995640" lon="24.787670"><ele>167.6</ele></trkpt>
      <trkpt lat="34.995005" lon="24.787755"><ele>183.4</ele></trkpt>
      <trkpt lat="34.994982" lon="24.787822"><ele>182.0</ele></trkpt>
      <trkpt lat="34.995652" lon="24.787746"><ele>166.4</ele></trkpt>
      <trkpt lat="34.995026" lon="24.788176"><ele>171.2</ele></trkpt>
      <trkpt lat="34.994778" lon="24.788460"><ele>167.0</ele></trkpt>
      <trkpt lat="34.994661" lon="24.788722"><ele>162.4</ele></trkpt>
      <trkpt lat="34.994279" lon="24.789059"><ele>163.8</ele></trkpt>
      <trkpt lat="34.994119" lon="24.789560"><ele>163.6</ele></trkpt>
      <trkpt lat="34.994096" lon="24.790010"><ele>155.0</ele></trkpt>
      <trkpt lat="34.994180" lon="24.790195"><ele>150.8</ele></trkpt>
      <trkpt lat="34.994144" lon="24.790125"><ele>152.2</ele></trkpt>
      <trkpt lat="34.993332" lon="24.790574"><ele>167.6</ele></trkpt>
      <trkpt lat="34.992556" lon="24.790864"><ele>176.6</ele></trkpt>
      <trkpt lat="34.992314" lon="24.791253"><ele>181.2</ele></trkpt>
      <trkpt lat="34.992073" lon="24.791423"><ele>187.6</ele></trkpt>
      <trkpt lat="34.991246" lon="24.792393"><ele>203.8</ele></trkpt>
      <trkpt lat="34.991061" lon="24.792686"><ele>207.0</ele></trkpt>
      <trkpt lat="34.991270" lon="24.793206"><ele>208.2</ele></trkpt>
      <trkpt lat="34.990534" lon="24.794288"><ele>228.2</ele></trkpt>
      <trkpt lat="34.990529" lon="24.794567"><ele>229.0</ele></trkpt>
      <trkpt lat="34.989983" lon="24.795605"><ele>240.8</ele></trkpt>
      <trkpt lat="34.989554" lon="24.795927"><ele>248.4</ele></trkpt>
      <trkpt lat="34.989143" lon="24.796471"><ele>243.8</ele></trkpt>
      <trkpt lat="34.988293" lon="24.796521"><ele>254.0</ele></trkpt>
      <trkpt lat="34.987961" lon="24.796662"><ele>252.6</ele></trkpt>
      <trkpt lat="34.987279" lon="24.797623"><ele>261.4</ele></trkpt>
      <trkpt lat="34.986576" lon="24.797999"><ele>267.2</ele></trkpt>
      <trkpt lat="34.985997" lon="24.798728"><ele>267.2</ele></trkpt>
      <trkpt lat="34.985718" lon="24.799289"><ele>267.2</ele></trkpt>
      <trkpt lat="34.985188" lon="24.799862"><ele>258.8</ele></trkpt>
      <trkpt lat="34.985482" lon="24.799508"><ele>264.6</ele></trkpt>
      <trkpt lat="34.985527" lon="24.799144"><ele>266.2</ele></trkpt>
      <trkpt lat="34.984935" lon="24.798437"><ele>268.4</ele></trkpt>
      <trkpt lat="34.984447" lon="24.798498"><ele>272.4</ele></trkpt>
      <trkpt lat="34.983692" lon="24.798315"><ele>287.0</ele></trkpt>
      <trkpt lat="34.983293" lon="24.798357"><ele>291.0</ele></trkpt>
      <trkpt lat="34.982986" lon="24.798288"><ele>295.2</ele></trkpt>
      <trkpt lat="34.982559" lon="24.797798"><ele>302.4</ele></trkpt>
      <trkpt lat="34.982209" lon="24.797593"><ele>304.2</ele></trkpt>
      <trkpt lat="34.981999" lon="24.797346"><ele>302.8</ele></trkpt>
      <trkpt lat="34.981365" lon="24.797153"><ele>304.6</ele></trkpt>
      <trkpt lat="34.980639" lon="24.796770"><ele>307.2</ele></trkpt>
      <trkpt lat="34.980031" lon="24.796561"><ele>312.0</ele></trkpt>
      <trkpt lat="34.979904" lon="24.796402"><ele>312.4</ele></trkpt>
      <trkpt lat="34.979705" lon="24.795827"><ele>313.0</ele></trkpt>
      <trkpt lat="34.978521" lon="24.794995"><ele>313.4</ele></trkpt>
      <trkpt lat="34.978462" lon="24.794646"><ele>311.4</ele></trkpt>
      <trkpt lat="34.978673" lon="24.793574"><ele>316.6</ele></trkpt>
      <trkpt lat="34.978946" lon="24.793324"><ele>321.6</ele></trkpt>
      <trkpt lat="34.978963" lon="24.793132"><ele>322.4</ele></trkpt>
      <trkpt lat="34.978708" lon="24.791950"><ele>318.0</ele></trkpt>
      <trkpt lat="34.978317" lon="24.791450"><ele>317.6</ele></trkpt>
      <trkpt lat="34.977204" lon="24.791317"><ele>325.6</ele></trkpt>
      <trkpt lat="34.976825" lon="24.791181"><ele>327.8</ele></trkpt>
      <trkpt lat="34.976409" lon="24.791187"><ele>330.4</ele></trkpt>
      <trkpt lat="34.975303" lon="24.790868"><ele>334.8</ele></trkpt>
      <trkpt lat="34.974154" lon="24.790217"><ele>336.4</ele></trkpt>
      <trkpt lat="34.974053" lon="24.790111"><ele>336.2</ele></trkpt>
      <trkpt lat="34.974125" lon="24.790037"><ele>337.0</ele></trkpt>
      <trkpt lat="34.974102" lon="24.790134"><ele>336.4</ele></trkpt>
      <trkpt lat="34.973929" lon="24.789842"><ele>335.6</ele></trkpt>
      <trkpt lat="34.973735" lon="24.789752"><ele>333.0</ele></trkpt>
      <trkpt lat="34.973312" lon="24.789768"><ele>323.8</ele></trkpt>
      <trkpt lat="34.972975" lon="24.789945"><ele>317.0</ele></trkpt>
      <trkpt lat="34.972594" lon="24.790280"><ele>311.4</ele></trkpt>
      <trkpt lat="34.972323" lon="24.790021"><ele>307.8</ele></trkpt>
      <trkpt lat="34.971660" lon="24.789645"><ele>305.4</ele></trkpt>
      <trkpt lat="34.971205" lon="24.789543"><ele>303.4</ele></trkpt>
      <trkpt lat="34.971013" lon="24.789081"><ele>300.0</ele></trkpt>
      <trkpt lat="34.970696" lon="24.788609"><ele>295.4</ele></trkpt>
      <trkpt lat="34.969678" lon="24.787366"><ele>289.6</ele></trkpt>
      <trkpt lat="34.969549" lon="24.787259"><ele>290.4</ele></trkpt>
      <trkpt lat="34.969000" lon="24.787181"><ele>289.2</ele></trkpt>
      <trkpt lat="34.967475" lon="24.786244"><ele>286.6</ele></trkpt>
      <trkpt lat="34.967253" lon="24.785841"><ele>280.8</ele></trkpt>
      <trkpt lat="34.967108" lon="24.785038"><ele>275.8</ele></trkpt>
      <trkpt lat="34.966752" lon="24.784797"><ele>274.8</ele></trkpt>
      <trkpt lat="34.966348" lon="24.783898"><ele>272.2</ele></trkpt>
      <trkpt lat="34.965727" lon="24.783390"><ele>266.0</ele></trkpt>
      <trkpt lat="34.965053" lon="24.783025"><ele>265.6</ele></trkpt>
      <trkpt lat="34.964038" lon="24.782770"><ele>270.0</ele></trkpt>
      <trkpt lat="34.962233" lon="24.781834"><ele>261.2</ele></trkpt>
      <trkpt lat="34.961526" lon="24.781299"><ele>257.8</ele></trkpt>
      <trkpt lat="34.961104" lon="24.780774"><ele>261.4</ele></trkpt>
      <trkpt lat="34.960029" lon="24.780128"><ele>275.0</ele></trkpt>
      <trkpt lat="34.959453" lon="24.779632"><ele>278.6</ele></trkpt>
      <trkpt lat="34.959182" lon="24.779115"><ele>278.2</ele></trkpt>
      <trkpt lat="34.958862" lon="24.779198"><ele>276.8</ele></trkpt>
      <trkpt lat="34.958412" lon="24.779178"><ele>275.2</ele></trkpt>
      <trkpt lat="34.957012" lon="24.778955"><ele>269.4</ele></trkpt>
      <trkpt lat="34.956414" lon="24.779160"><ele>261.8</ele></trkpt>
      <trkpt lat="34.956281" lon="24.779127"><ele>260.0</ele></trkpt>
      <trkpt lat="34.955942" lon="24.778408"><ele>258.8</ele></trkpt>
      <trkpt lat="34.954955" lon="24.777288"><ele>247.8</ele></trkpt>
      <trkpt lat="34.954178" lon="24.776268"><ele>241.8</ele></trkpt>
      <trkpt lat="34.953243" lon="24.775790"><ele>242.8</ele></trkpt>
      <trkpt lat="34.952489" lon="24.775045"><ele>246.2</ele></trkpt>
      <trkpt lat="34.951829" lon="24.774649"><ele>242.4</ele></trkpt>
      <trkpt lat="34.951146" lon="24.774097"><ele>242.2</ele></trkpt>
      <trkpt lat="34.950300" lon="24.773660"><ele>238.0</ele></trkpt>
      <trkpt lat="34.949175" lon="24.772877"><ele>229.4</ele></trkpt>
      <trkpt lat="34.948786" lon="24.772110"><ele>225.6</ele></trkpt>
      <trkpt lat="34.948516" lon="24.771863"><ele>223.8</ele></trkpt>
      <trkpt lat="34.948124" lon="24.771210"><ele>221.6</ele></trkpt>
      <trkpt lat="34.947820" lon="24.770326"><ele>217.6</ele></trkpt>
      <trkpt lat="34.947528" lon="24.770107"><ele>217.4</ele></trkpt>
      <trkpt lat="34.947393" lon="24.769775"><ele>213.6</ele></trkpt>
      <trkpt lat="34.946673" lon="24.769315"><ele>208.4</ele></trkpt>
      <trkpt lat="34.945925" lon="24.768547"><ele>199.2</ele></trkpt>
      <trkpt lat="34.945681" lon="24.768061"><ele>198.0</ele></trkpt>
      <trkpt lat="34.944502" lon="24.767146"><ele>186.2</ele></trkpt>
      <trkpt lat="34.943733" lon="24.766229"><ele>172.2</ele></trkpt>
      <trkpt lat="34.943092" lon="24.766028"><ele>164.8</ele></trkpt>
      <trkpt lat="34.942445" lon="24.765227"><ele>154.6</ele></trkpt>
      <trkpt lat="34.942416" lon="24.765078"><ele>153.8</ele></trkpt>
      <trkpt lat="34.942513" lon="24.764946"><ele>153.4</ele></trkpt>
      <trkpt lat="34.943251" lon="24.764937"><ele>153.0</ele></trkpt>
      <trkpt lat="34.943753" lon="24.764402"><ele>142.4</ele></trkpt>
      <trkpt lat="34.944165" lon="24.764408"><ele>144.0</ele></trkpt>
      <trkpt lat="34.944261" lon="24.764262"><ele>142.2</ele></trkpt>
      <trkpt lat="34.944219" lon="24.764175"><ele>141.0</ele></trkpt>
      <trkpt lat="34.943309" lon="24.764045"><ele>135.6</ele></trkpt>
      <trkpt lat="34.942146" lon="24.763656"><ele>131.2</ele></trkpt>
      <trkpt lat="34.941458" lon="24.763222"><ele>124.0</ele></trkpt>
      <trkpt lat="34.940825" lon="24.763038"><ele>122.0</ele></trkpt>
      <trkpt lat="34.940480" lon="24.762713"><ele>126.2</ele></trkpt>
      <trkpt lat="34.939660" lon="24.762279"><ele>133.0</ele></trkpt>
      <trkpt lat="34.938868" lon="24.762341"><ele>135.2</ele></trkpt>
      <trkpt lat="34.938769" lon="24.762210"><ele>134.8</ele></trkpt>
      <trkpt lat="34.938737" lon="24.761435"><ele>143.2</ele></trkpt>
      <trkpt lat="34.938610" lon="24.761052"><ele>143.4</ele></trkpt>
      <trkpt lat="34.938371" lon="24.760867"><ele>144.0</ele></trkpt>
      <trkpt lat="34.937979" lon="24.760819"><ele>152.0</ele></trkpt>
      <trkpt lat="34.937884" lon="24.760696"><ele>155.2</ele></trkpt>
      <trkpt lat="34.937568" lon="24.760674"><ele>166.4</ele></trkpt>
      <trkpt lat="34.937355" lon="24.760950"><ele>167.4</ele></trkpt>
      <trkpt lat="34.937129" lon="24.761589"><ele>171.2</ele></trkpt>
      <trkpt lat="34.936975" lon="24.761700"><ele>176.8</ele></trkpt>
      <trkpt lat="34.936686" lon="24.760458"><ele>200.2</ele></trkpt>
      <trkpt lat="34.936713" lon="24.758588"><ele>213.2</ele></trkpt>
      <trkpt lat="34.936405" lon="24.757790"><ele>216.6</ele></trkpt>
      <trkpt lat="34.935850" lon="24.757010"><ele>228.2</ele></trkpt>
      <trkpt lat="34.935718" lon="24.756426"><ele>229.8</ele></trkpt>
      <trkpt lat="34.935806" lon="24.755519"><ele>231.8</ele></trkpt>
      <trkpt lat="34.935760" lon="24.754563"><ele>230.0</ele></trkpt>
      <trkpt lat="34.935513" lon="24.753606"><ele>233.8</ele></trkpt>
      <trkpt lat="34.935382" lon="24.752619"><ele>233.8</ele></trkpt>
      <trkpt lat="34.934318" lon="24.751120"><ele>238.2</ele></trkpt>
      <trkpt lat="34.934123" lon="24.751127"><ele>238.6</ele></trkpt>
      <trkpt lat="34.933971" lon="24.751600"><ele>243.0</ele></trkpt>
      <trkpt lat="34.933510" lon="24.752203"><ele>247.4</ele></trkpt>
      <trkpt lat="34.933425" lon="24.752606"><ele>250.2</ele></trkpt>
      <trkpt lat="34.933642" lon="24.753616"><ele>262.6</ele></trkpt>
      <trkpt lat="34.934034" lon="24.754286"><ele>268.0</ele></trkpt>
      <trkpt lat="34.933994" lon="24.754469"><ele>269.8</ele></trkpt>
      <trkpt lat="34.933545" lon="24.754643"><ele>277.6</ele></trkpt>
      <trkpt lat="34.932771" lon="24.754626"><ele>289.8</ele></trkpt>
      <trkpt lat="34.931933" lon="24.754818"><ele>301.6</ele></trkpt>
      <trkpt lat="34.931587" lon="24.754666"><ele>306.4</ele></trkpt>
      <trkpt lat="34.931028" lon="24.754578"><ele>317.2</ele></trkpt>
      <trkpt lat="34.928604" lon="24.754657"><ele>363.0</ele></trkpt>
      <trkpt lat="34.927765" lon="24.754552"><ele>377.2</ele></trkpt>
      <trkpt lat="34.927639" lon="24.754788"><ele>379.0</ele></trkpt>
      <trkpt lat="34.927854" lon="24.755388"><ele>380.4</ele></trkpt>
      <trkpt lat="34.927713" lon="24.755675"><ele>376.6</ele></trkpt>
      <trkpt lat="34.927834" lon="24.755957"><ele>382.6</ele></trkpt>
      <trkpt lat="34.928005" lon="24.755941"><ele>385.8</ele></trkpt>
      <trkpt lat="34.927994" lon="24.756076"><ele>387.2</ele></trkpt>
      <trkpt lat="34.927913" lon="24.756066"><ele>388.0</ele></trkpt>
      <trkpt lat="34.927898" lon="24.755965"><ele>387.4</ele></trkpt>
      <trkpt lat="34.927983" lon="24.755999"><ele>386.8</ele></trkpt>
      <trkpt lat="34.927984" lon="24.756098"><ele>387.4</ele></trkpt>
      <trkpt lat="34.927898" lon="24.756192"><ele>389.0</ele></trkpt>
      <trkpt lat="34.927924" lon="24.755943"><ele>387.0</ele></trkpt>
      <trkpt lat="34.927967" lon="24.756094"><ele>387.6</ele></trkpt>
      <trkpt lat="34.927722" lon="24.756000"><ele>374.4</ele></trkpt>
      <trkpt lat="34.927977" lon="24.756068"><ele>387.4</ele></trkpt>
      <trkpt lat="34.927880" lon="24.755906"><ele>385.8</ele></trkpt>
      <trkpt lat="34.927693" lon="24.755909"><ele>371.6</ele></trkpt>
      <trkpt lat="34.927712" lon="24.755996"><ele>373.6</ele></trkpt>
      <trkpt lat="34.927766" lon="24.755887"><ele>377.4</ele></trkpt>
      <trkpt lat="34.927445" lon="24.755875"><ele>343.6</ele></trkpt>
      <trkpt lat="34.927383" lon="24.755924"><ele>335.0</ele></trkpt>
      <trkpt lat="34.927552" lon="24.756133"><ele>352.2</ele></trkpt>
      <trkpt lat="34.927239" lon="24.756106"><ele>318.4</ele></trkpt>
      <trkpt lat="34.927152" lon="24.756190"><ele>310.2</ele></trkpt>
      <trkpt lat="34.927962" lon="24.755993"><ele>387.0</ele></trkpt>
      <trkpt lat="34.927773" lon="24.755970"><ele>378.2</ele></trkpt>
      <trkpt lat="34.927735" lon="24.756118"><ele>373.4</ele></trkpt>
      <trkpt lat="34.927958" lon="24.755999"><ele>387.0</ele></trkpt>
      <trkpt lat="34.927799" lon="24.756002"><ele>380.2</ele></trkpt>
      <trkpt lat="34.927773" lon="24.756125"><ele>377.4</ele></trkpt>
      <trkpt lat="34.927653" lon="24.755740"><ele>372.2</ele></trkpt>
      <trkpt lat="34.927841" lon="24.755393"><ele>380.8</ele></trkpt>
      <trkpt lat="34.927586" lon="24.754821"><ele>377.0</ele></trkpt>
      <trkpt lat="34.927778" lon="24.754557"><ele>377.2</ele></trkpt>
      <trkpt lat="34.929503" lon="24.754630"><ele>342.6</ele></trkpt>
      <trkpt lat="34.931050" lon="24.754563"><ele>316.6</ele></trkpt>
      <trkpt lat="34.932025" lon="24.754787"><ele>299.4</ele></trkpt>
      <trkpt lat="34.932713" lon="24.754632"><ele>290.8</ele></trkpt>
      <trkpt lat="34.932904" lon="24.754512"><ele>285.8</ele></trkpt>
      <trkpt lat="34.933465" lon="24.754566"><ele>277.6</ele></trkpt>
      <trkpt lat="34.934072" lon="24.754409"><ele>268.4</ele></trkpt>
      <trkpt lat="34.934129" lon="24.754256"><ele>266.4</ele></trkpt>
      <trkpt lat="34.933603" lon="24.753506"><ele>261.6</ele></trkpt>
      <trkpt lat="34.933397" lon="24.752471"><ele>249.2</ele></trkpt>
      <trkpt lat="34.933671" lon="24.751887"><ele>245.0</ele></trkpt>
      <trkpt lat="34.933972" lon="24.751602"><ele>243.0</ele></trkpt>
      <trkpt lat="34.934139" lon="24.751024"><ele>237.8</ele></trkpt>
      <trkpt lat="34.934274" lon="24.750992"><ele>237.6</ele></trkpt>
      <trkpt lat="34.934857" lon="24.751918"><ele>236.2</ele></trkpt>
      <trkpt lat="34.935343" lon="24.752517"><ele>233.6</ele></trkpt>
      <trkpt lat="34.935520" lon="24.752927"><ele>232.4</ele></trkpt>
      <trkpt lat="34.935860" lon="24.754667"><ele>224.2</ele></trkpt>
      <trkpt lat="34.935785" lon="24.756462"><ele>227.0</ele></trkpt>
      <trkpt lat="34.935946" lon="24.757030"><ele>224.4</ele></trkpt>
      <trkpt lat="34.936514" lon="24.757864"><ele>213.0</ele></trkpt>
      <trkpt lat="34.936772" lon="24.758568"><ele>211.2</ele></trkpt>
      <trkpt lat="34.936770" lon="24.760328"><ele>198.0</ele></trkpt>
      <trkpt lat="34.936853" lon="24.760936"><ele>186.8</ele></trkpt>
      <trkpt lat="34.936960" lon="24.761171"><ele>180.6</ele></trkpt>
      <trkpt lat="34.937000" lon="24.761801"><ele>174.0</ele></trkpt>
      <trkpt lat="34.937145" lon="24.761760"><ele>168.6</ele></trkpt>
      <trkpt lat="34.937301" lon="24.761119"><ele>168.6</ele></trkpt>
      <trkpt lat="34.937431" lon="24.760868"><ele>166.4</ele></trkpt>
      <trkpt lat="34.937636" lon="24.760682"><ele>164.6</ele></trkpt>
      <trkpt lat="34.938463" lon="24.760928"><ele>143.0</ele></trkpt>
      <trkpt lat="34.938840" lon="24.761288"><ele>144.4</ele></trkpt>
      <trkpt lat="34.938778" lon="24.762013"><ele>136.2</ele></trkpt>
      <trkpt lat="34.938850" lon="24.762353"><ele>135.0</ele></trkpt>
      <trkpt lat="34.939096" lon="24.762376"><ele>135.4</ele></trkpt>
      <trkpt lat="34.939467" lon="24.762265"><ele>134.0</ele></trkpt>
      <trkpt lat="34.939824" lon="24.762331"><ele>131.2</ele></trkpt>
      <trkpt lat="34.940241" lon="24.762518"><ele>129.0</ele></trkpt>
      <trkpt lat="34.940973" lon="24.763096"><ele>121.8</ele></trkpt>
      <trkpt lat="34.941429" lon="24.763154"><ele>124.2</ele></trkpt>
      <trkpt lat="34.942249" lon="24.763670"><ele>131.6</ele></trkpt>
      <trkpt lat="34.942704" lon="24.763753"><ele>131.0</ele></trkpt>
      <trkpt lat="34.943325" lon="24.764011"><ele>135.2</ele></trkpt>
      <trkpt lat="34.944103" lon="24.764146"><ele>140.4</ele></trkpt>
      <trkpt lat="34.944206" lon="24.764246"><ele>141.8</ele></trkpt>
      <trkpt lat="34.944136" lon="24.764427"><ele>144.2</ele></trkpt>
      <trkpt lat="34.943696" lon="24.764507"><ele>143.8</ele></trkpt>
      <trkpt lat="34.943326" lon="24.764890"><ele>151.6</ele></trkpt>
      <trkpt lat="34.942627" lon="24.764950"><ele>154.2</ele></trkpt>
      <trkpt lat="34.942472" lon="24.765135"><ele>154.8</ele></trkpt>
      <trkpt lat="34.942630" lon="24.765485"><ele>157.6</ele></trkpt>
      <trkpt lat="34.943175" lon="24.766011"><ele>166.0</ele></trkpt>
      <trkpt lat="34.943915" lon="24.767060"><ele>173.2</ele></trkpt>
      <trkpt lat="34.944187" lon="24.768224"><ele>181.2</ele></trkpt>
      <trkpt lat="34.943771" lon="24.768456"><ele>181.2</ele></trkpt>
      <trkpt lat="34.942893" lon="24.769571"><ele>180.0</ele></trkpt>
      <trkpt lat="34.941927" lon="24.769769"><ele>167.8</ele></trkpt>
      <trkpt lat="34.941592" lon="24.770192"><ele>164.8</ele></trkpt>
      <trkpt lat="34.941319" lon="24.770215"><ele>162.2</ele></trkpt>
      <trkpt lat="34.941340" lon="24.770341"><ele>160.6</ele></trkpt>
      <trkpt lat="34.941675" lon="24.770497"><ele>158.2</ele></trkpt>
      <trkpt lat="34.942269" lon="24.770323"><ele>160.6</ele></trkpt>
      <trkpt lat="34.942122" lon="24.770338"><ele>160.2</ele></trkpt>
      <trkpt lat="34.942327" lon="24.770394"><ele>159.4</ele></trkpt>
      <trkpt lat="34.942430" lon="24.770591"><ele>156.8</ele></trkpt>
      <trkpt lat="34.942635" lon="24.771336"><ele>145.0</ele></trkpt>
      <trkpt lat="34.942534" lon="24.771395"><ele>142.2</ele></trkpt>
      <trkpt lat="34.942230" lon="24.771162"><ele>143.4</ele></trkpt>
      <trkpt lat="34.942270" lon="24.771594"><ele>138.2</ele></trkpt>
      <trkpt lat="34.942037" lon="24.771574"><ele>137.4</ele></trkpt>
      <trkpt lat="34.941972" lon="24.771647"><ele>136.6</ele></trkpt>
      <trkpt lat="34.942103" lon="24.771854"><ele>138.4</ele></trkpt>
      <trkpt lat="34.941991" lon="24.771820"><ele>138.4</ele></trkpt>
      <trkpt lat="34.941779" lon="24.772021"><ele>143.0</ele></trkpt>
      <trkpt lat="34.941309" lon="24.772020"><ele>133.8</ele></trkpt>
      <trkpt lat="34.941049" lon="24.771879"><ele>120.4</ele></trkpt>
      <trkpt lat="34.940936" lon="24.772180"><ele>129.4</ele></trkpt>
      <trkpt lat="34.941125" lon="24.771923"><ele>124.4</ele></trkpt>
      <trkpt lat="34.941402" lon="24.772024"><ele>137.2</ele></trkpt>
      <trkpt lat="34.941893" lon="24.771986"><ele>141.6</ele></trkpt>
      <trkpt lat="34.942018" lon="24.771880"><ele>139.2</ele></trkpt>
      <trkpt lat="34.941997" lon="24.771798"><ele>138.0</ele></trkpt>
      <trkpt lat="34.942143" lon="24.771789"><ele>137.6</ele></trkpt>
      <trkpt lat="34.942025" lon="24.771646"><ele>137.0</ele></trkpt>
      <trkpt lat="34.942080" lon="24.771567"><ele>137.6</ele></trkpt>
      <trkpt lat="34.942287" lon="24.771580"><ele>138.4</ele></trkpt>
      <trkpt lat="34.942252" lon="24.771149"><ele>144.0</ele></trkpt>
      <trkpt lat="34.942501" lon="24.771327"><ele>143.2</ele></trkpt>
      <trkpt lat="34.942601" lon="24.771272"><ele>145.8</ele></trkpt>
      <trkpt lat="34.942453" lon="24.770718"><ele>155.2</ele></trkpt>
      <trkpt lat="34.942268" lon="24.770346"><ele>160.2</ele></trkpt>
      <trkpt lat="34.942159" lon="24.770308"><ele>160.8</ele></trkpt>
      <trkpt lat="34.941658" lon="24.770485"><ele>158.6</ele></trkpt>
      <trkpt lat="34.941373" lon="24.770304"><ele>161.8</ele></trkpt>
      <trkpt lat="34.941370" lon="24.770178"><ele>163.4</ele></trkpt>
      <trkpt lat="34.941690" lon="24.770060"><ele>166.4</ele></trkpt>
      <trkpt lat="34.942037" lon="24.769752"><ele>167.6</ele></trkpt>
      <trkpt lat="34.942719" lon="24.769636"><ele>177.6</ele></trkpt>
      <trkpt lat="34.942995" lon="24.769492"><ele>180.8</ele></trkpt>
      <trkpt lat="34.943764" lon="24.768531"><ele>181.4</ele></trkpt>
      <trkpt lat="34.944330" lon="24.768129"><ele>182.6</ele></trkpt>
      <trkpt lat="34.944497" lon="24.767277"><ele>186.4</ele></trkpt>
      <trkpt lat="34.944571" lon="24.767201"><ele>187.6</ele></trkpt>
      <trkpt lat="34.944687" lon="24.767231"><ele>189.0</ele></trkpt>
      <trkpt lat="34.945755" lon="24.768124"><ele>198.6</ele></trkpt>
      <trkpt lat="34.946048" lon="24.768621"><ele>199.6</ele></trkpt>
      <trkpt lat="34.947475" lon="24.769910"><ele>215.2</ele></trkpt>
      <trkpt lat="34.947587" lon="24.770151"><ele>217.8</ele></trkpt>
      <trkpt lat="34.947851" lon="24.770427"><ele>218.6</ele></trkpt>
      <trkpt lat="34.948142" lon="24.771223"><ele>221.6</ele></trkpt>
      <trkpt lat="34.948435" lon="24.771775"><ele>223.4</ele></trkpt>
      <trkpt lat="34.948793" lon="24.772165"><ele>225.8</ele></trkpt>
      <trkpt lat="34.949322" lon="24.773005"><ele>231.0</ele></trkpt>
      <trkpt lat="34.951404" lon="24.774276"><ele>242.4</ele></trkpt>
      <trkpt lat="34.951671" lon="24.774564"><ele>242.2</ele></trkpt>
      <trkpt lat="34.952613" lon="24.775159"><ele>246.4</ele></trkpt>
      <trkpt lat="34.953223" lon="24.775757"><ele>243.0</ele></trkpt>
      <trkpt lat="34.954198" lon="24.776275"><ele>241.6</ele></trkpt>
      <trkpt lat="34.955990" lon="24.778489"><ele>258.8</ele></trkpt>
      <trkpt lat="34.956344" lon="24.779066"><ele>261.2</ele></trkpt>
      <trkpt lat="34.957571" lon="24.779053"><ele>270.0</ele></trkpt>
      <trkpt lat="34.958732" lon="24.779259"><ele>276.2</ele></trkpt>
      <trkpt lat="34.959291" lon="24.779195"><ele>279.0</ele></trkpt>
      <trkpt lat="34.959459" lon="24.779601"><ele>278.8</ele></trkpt>
      <trkpt lat="34.959781" lon="24.779992"><ele>275.6</ele></trkpt>
      <trkpt lat="34.960411" lon="24.780428"><ele>270.0</ele></trkpt>
      <trkpt lat="34.961126" lon="24.780760"><ele>261.6</ele></trkpt>
      <trkpt lat="34.961352" lon="24.780967"><ele>260.0</ele></trkpt>
      <trkpt lat="34.961586" lon="24.781356"><ele>257.4</ele></trkpt>
      <trkpt lat="34.962442" lon="24.781985"><ele>263.0</ele></trkpt>
      <trkpt lat="34.963843" lon="24.782693"><ele>268.2</ele></trkpt>
      <trkpt lat="34.965105" lon="24.783045"><ele>265.6</ele></trkpt>
      <trkpt lat="34.965785" lon="24.783431"><ele>266.6</ele></trkpt>
      <trkpt lat="34.966351" lon="24.783921"><ele>272.4</ele></trkpt>
      <trkpt lat="34.966726" lon="24.784779"><ele>274.8</ele></trkpt>
      <trkpt lat="34.967130" lon="24.785108"><ele>275.8</ele></trkpt>
      <trkpt lat="34.967221" lon="24.785783"><ele>279.8</ele></trkpt>
      <trkpt lat="34.967432" lon="24.786238"><ele>286.0</ele></trkpt>
      <trkpt lat="34.968978" lon="24.787140"><ele>289.6</ele></trkpt>
      <trkpt lat="34.969664" lon="24.787381"><ele>289.6</ele></trkpt>
      <trkpt lat="34.970696" lon="24.788620"><ele>295.6</ele></trkpt>
      <trkpt lat="34.971242" lon="24.789541"><ele>303.0</ele></trkpt>
      <trkpt lat="34.971722" lon="24.789674"><ele>306.0</ele></trkpt>
      <trkpt lat="34.972613" lon="24.790215"><ele>311.2</ele></trkpt>
      <trkpt lat="34.973028" lon="24.789951"><ele>318.2</ele></trkpt>
      <trkpt lat="34.973612" lon="24.789729"><ele>330.4</ele></trkpt>
      <trkpt lat="34.973932" lon="24.789879"><ele>335.4</ele></trkpt>
      <trkpt lat="34.974185" lon="24.790252"><ele>336.6</ele></trkpt>
      <trkpt lat="34.974433" lon="24.790437"><ele>337.0</ele></trkpt>
      <trkpt lat="34.975444" lon="24.790941"><ele>333.8</ele></trkpt>
      <trkpt lat="34.976520" lon="24.791240"><ele>330.0</ele></trkpt>
      <trkpt lat="34.976964" lon="24.791217"><ele>327.0</ele></trkpt>
      <trkpt lat="34.977281" lon="24.791356"><ele>325.2</ele></trkpt>
      <trkpt lat="34.978404" lon="24.791536"><ele>317.4</ele></trkpt>
      <trkpt lat="34.978698" lon="24.791992"><ele>318.0</ele></trkpt>
      <trkpt lat="34.978784" lon="24.792594"><ele>319.2</ele></trkpt>
      <trkpt lat="34.978983" lon="24.793224"><ele>322.2</ele></trkpt>
      <trkpt lat="34.978932" lon="24.793415"><ele>321.0</ele></trkpt>
      <trkpt lat="34.978721" lon="24.793578"><ele>317.8</ele></trkpt>
      <trkpt lat="34.978674" lon="24.793710"><ele>316.4</ele></trkpt>
      <trkpt lat="34.978516" lon="24.794867"><ele>313.0</ele></trkpt>
      <trkpt lat="34.978599" lon="24.795125"><ele>314.6</ele></trkpt>
      <trkpt lat="34.979712" lon="24.795847"><ele>313.0</ele></trkpt>
      <trkpt lat="34.980024" lon="24.796572"><ele>311.8</ele></trkpt>
      <trkpt lat="34.982061" lon="24.797393"><ele>303.0</ele></trkpt>
      <trkpt lat="34.982264" lon="24.797667"><ele>304.2</ele></trkpt>
      <trkpt lat="34.982582" lon="24.797859"><ele>302.6</ele></trkpt>
      <trkpt lat="34.983103" lon="24.798402"><ele>293.0</ele></trkpt>
      <trkpt lat="34.983803" lon="24.798314"><ele>284.6</ele></trkpt>
      <trkpt lat="34.984210" lon="24.798468"><ele>275.6</ele></trkpt>
      <trkpt lat="34.984994" lon="24.798476"><ele>268.0</ele></trkpt>
      <trkpt lat="34.985510" lon="24.799153"><ele>266.0</ele></trkpt>
      <trkpt lat="34.985574" lon="24.799343"><ele>265.8</ele></trkpt>
      <trkpt lat="34.985698" lon="24.799384"><ele>266.6</ele></trkpt>
      <trkpt lat="34.985818" lon="24.799288"><ele>267.6</ele></trkpt>
      <trkpt lat="34.986164" lon="24.798576"><ele>267.0</ele></trkpt>
      <trkpt lat="34.986790" lon="24.797933"><ele>265.8</ele></trkpt>
      <trkpt lat="34.987458" lon="24.797583"><ele>259.2</ele></trkpt>
      <trkpt lat="34.987762" lon="24.797145"><ele>256.6</ele></trkpt>
      <trkpt lat="34.987819" lon="24.796854"><ele>254.4</ele></trkpt>
      <trkpt lat="34.988077" lon="24.796616"><ele>253.0</ele></trkpt>
      <trkpt lat="34.988485" lon="24.796516"><ele>253.2</ele></trkpt>
      <trkpt lat="34.989224" lon="24.796503"><ele>242.2</ele></trkpt>
      <trkpt lat="34.989598" lon="24.795992"><ele>246.0</ele></trkpt>
      <trkpt lat="34.990164" lon="24.795638"><ele>235.2</ele></trkpt>
      <trkpt lat="34.990401" lon="24.794998"><ele>231.6</ele></trkpt>
      <trkpt lat="34.990629" lon="24.794670"><ele>226.0</ele></trkpt>
      <trkpt lat="34.990672" lon="24.794186"><ele>224.4</ele></trkpt>
      <trkpt lat="34.991116" lon="24.793711"><ele>213.8</ele></trkpt>
      <trkpt lat="34.991281" lon="24.793368"><ele>209.8</ele></trkpt>
      <trkpt lat="34.991338" lon="24.793065"><ele>205.6</ele></trkpt>
      <trkpt lat="34.991136" lon="24.792823"><ele>206.4</ele></trkpt>
      <trkpt lat="34.991152" lon="24.792634"><ele>205.0</ele></trkpt>
      <trkpt lat="34.991661" lon="24.791984"><ele>197.6</ele></trkpt>
      <trkpt lat="34.992390" lon="24.791247"><ele>179.2</ele></trkpt>
      <trkpt lat="34.992482" lon="24.791256"><ele>176.6</ele></trkpt>
      <trkpt lat="34.992798" lon="24.791709"><ele>170.2</ele></trkpt>
      <trkpt lat="34.992364" lon="24.791258"><ele>179.6</ele></trkpt>
      <trkpt lat="34.992664" lon="24.790898"><ele>172.8</ele></trkpt>
      <trkpt lat="34.994140" lon="24.790231"><ele>151.4</ele></trkpt>
      <trkpt lat="34.995122" lon="24.790190"><ele>135.4</ele></trkpt>
      <trkpt lat="34.995196" lon="24.790020"><ele>136.0</ele></trkpt>
      <trkpt lat="34.995524" lon="24.789868"><ele>134.0</ele></trkpt>
      <trkpt lat="34.996227" lon="24.790155"><ele>134.2</ele></trkpt>
      <trkpt lat="34.996868" lon="24.789899"><ele>127.2</ele></trkpt>
      <trkpt lat="34.997223" lon="24.789987"><ele>126.4</ele></trkpt>
      <trkpt lat="34.997499" lon="24.789895"><ele>127.4</ele></trkpt>
      <trkpt lat="34.997778" lon="24.789955"><ele>128.6</ele></trkpt>
      <trkpt lat="34.997721" lon="24.789900"><ele>128.4</ele></trkpt>
      <trkpt lat="34.998034" lon="24.789842"><ele>129.2</ele></trkpt>
      <trkpt lat="34.998343" lon="24.789523"><ele>125.0</ele></trkpt>
      <trkpt lat="34.998521" lon="24.789448"><ele>123.4</ele></trkpt>
      <trkpt lat="34.999029" lon="24.790172"><ele>119.0</ele></trkpt>
      <trkpt lat="34.999936" lon="24.790559"><ele>98.0</ele></trkpt>
      <trkpt lat="35.000342" lon="24.790372"><ele>94.0</ele></trkpt>
      <trkpt lat="35.000352" lon="24.790277"><ele>94.0</ele></trkpt>
      <trkpt lat="35.000331" lon="24.790435"><ele>94.4</ele></trkpt>
      <trkpt lat="35.000516" lon="24.790624"><ele>90.8</ele></trkpt>
      <trkpt lat="35.000880" lon="24.790553"><ele>83.0</ele></trkpt>
      <trkpt lat="35.001005" lon="24.790388"><ele>80.0</ele></trkpt>
      <trkpt lat="35.001240" lon="24.790335"><ele>78.0</ele></trkpt>
      <trkpt lat="35.001538" lon="24.790441"><ele>80.2</ele></trkpt>
      <trkpt lat="35.001740" lon="24.789816"><ele>84.8</ele></trkpt>
      <trkpt lat="35.001596" lon="24.789249"><ele>82.0</ele></trkpt>
      <trkpt lat="35.001810" lon="24.789036"><ele>86.6</ele></trkpt>
      <trkpt lat="35.002238" lon="24.788926"><ele>89.8</ele></trkpt>
      <trkpt lat="35.002526" lon="24.788991"><ele>93.2</ele></trkpt>
      <trkpt lat="35.002996" lon="24.788707"><ele>102.2</ele></trkpt>
      <trkpt lat="35.003509" lon="24.788748"><ele>107.8</ele></trkpt>
      <trkpt lat="35.003974" lon="24.788640"><ele>110.6</ele></trkpt>
      <trkpt lat="35.004848" lon="24.788360"><ele>99.8</ele></trkpt>
      <trkpt lat="35.005033" lon="24.788157"><ele>95.2</ele></trkpt>
      <trkpt lat="35.005593" lon="24.788020"><ele>90.2</ele></trkpt>
      <trkpt lat="35.006073" lon="24.787626"><ele>92.8</ele></trkpt>
      <trkpt lat="35.006477" lon="24.787546"><ele>95.8</ele></trkpt>
      <trkpt lat="35.006856" lon="24.787354"><ele>98.6</ele></trkpt>
      <trkpt lat="35.007881" lon="24.787191"><ele>99.8</ele></trkpt>
      <trkpt lat="35.008214" lon="24.786823"><ele>95.8</ele></trkpt>
      <trkpt lat="35.008516" lon="24.786704"><ele>94.6</ele></trkpt>
      <trkpt lat="35.008823" lon="24.786412"><ele>90.6</ele></trkpt>
      <trkpt lat="35.009171" lon="24.786282"><ele>90.8</ele></trkpt>
      <trkpt lat="35.009648" lon="24.785828"><ele>90.6</ele></trkpt>
      <trkpt lat="35.010187" lon="24.785725"><ele>89.6</ele></trkpt>
      <trkpt lat="35.010986" lon="24.785209"><ele>83.8</ele></trkpt>
      <trkpt lat="35.011346" lon="24.785150"><ele>88.0</ele></trkpt>
      <trkpt lat="35.012497" lon="24.785362"><ele>98.2</ele></trkpt>
      <trkpt lat="35.013633" lon="24.785039"><ele>93.4</ele></trkpt>
      <trkpt lat="35.014041" lon="24.784585"><ele>86.0</ele></trkpt>
      <trkpt lat="35.014279" lon="24.784527"><ele>80.8</ele></trkpt>
      <trkpt lat="35.014541" lon="24.784322"><ele>77.0</ele></trkpt>
      <trkpt lat="35.014741" lon="24.783376"><ele>74.8</ele></trkpt>
      <trkpt lat="35.015161" lon="24.782783"><ele>72.8</ele></trkpt>
      <trkpt lat="35.015735" lon="24.782844"><ele>68.8</ele></trkpt>
      <trkpt lat="35.016078" lon="24.782641"><ele>67.8</ele></trkpt>
      <trkpt lat="35.015916" lon="24.781823"><ele>74.4</ele></trkpt>
      <trkpt lat="35.016171" lon="24.781784"><ele>73.8</ele></trkpt>
      <trkpt lat="35.016428" lon="24.781572"><ele>73.0</ele></trkpt>
      <trkpt lat="35.017111" lon="24.780113"><ele>68.0</ele></trkpt>
      <trkpt lat="35.017303" lon="24.779108"><ele>77.6</ele></trkpt>
      <trkpt lat="35.017490" lon="24.778658"><ele>78.6</ele></trkpt>
      <trkpt lat="35.018080" lon="24.778135"><ele>81.6</ele></trkpt>
      <trkpt lat="35.019592" lon="24.777370"><ele>79.6</ele></trkpt>
      <trkpt lat="35.021107" lon="24.776326"><ele>82.4</ele></trkpt>
      <trkpt lat="35.021131" lon="24.776493"><ele>83.0</ele></trkpt>
      <trkpt lat="35.021658" lon="24.776776"><ele>74.6</ele></trkpt>
      <trkpt lat="35.021755" lon="24.776757"><ele>71.0</ele></trkpt>
      <trkpt lat="35.022998" lon="24.774809"><ele>50.2</ele></trkpt>
      <trkpt lat="35.024128" lon="24.773476"><ele>40.2</ele></trkpt>
      <trkpt lat="35.024816" lon="24.772200"><ele>27.0</ele></trkpt>
      <trkpt lat="35.025287" lon="24.771800"><ele>22.6</ele></trkpt>
      <trkpt lat="35.025760" lon="24.771043"><ele>22.2</ele></trkpt>
      <trkpt lat="35.025932" lon="24.770516"><ele>23.8</ele></trkpt>
      <trkpt lat="35.026618" lon="24.769421"><ele>23.2</ele></trkpt>
      <trkpt lat="35.027128" lon="24.769089"><ele>23.4</ele></trkpt>
      <trkpt lat="35.027878" lon="24.769000"><ele>23.6</ele></trkpt>
      <trkpt lat="35.028581" lon="24.769158"><ele>24.8</ele></trkpt>
      <trkpt lat="35.029222" lon="24.769567"><ele>30.4</ele></trkpt>
      <trkpt lat="35.029420" lon="24.769120"><ele>26.2</ele></trkpt>
      <trkpt lat="35.029748" lon="24.768881"><ele>24.8</ele></trkpt>
      <trkpt lat="35.029878" lon="24.768651"><ele>24.8</ele></trkpt>
      <trkpt lat="35.030131" lon="24.766909"><ele>22.2</ele></trkpt>
      <trkpt lat="35.030283" lon="24.766601"><ele>24.4</ele></trkpt>
      <trkpt lat="35.030696" lon="24.766074"><ele>33.2</ele></trkpt>
      <trkpt lat="35.031169" lon="24.765920"><ele>41.6</ele></trkpt>
      <trkpt lat="35.031576" lon="24.765935"><ele>46.6</ele></trkpt>
      <trkpt lat="35.031707" lon="24.765824"><ele>49.6</ele></trkpt>
      <trkpt lat="35.032130" lon="24.765028"><ele>47.2</ele></trkpt>
      <trkpt lat="35.032240" lon="24.764967"><ele>46.2</ele></trkpt>
      <trkpt lat="35.032312" lon="24.765020"><ele>47.6</ele></trkpt>
    </trkseg>
  </trk>
</gpx>
