<?xml version="1.0" encoding="UTF-8"?>
<gpx version="1.1" creator="gpx-processor" xmlns="http://www.topografix.com/GPX/1/1">
  <metadata><name>Rome Marathon</name></metadata>
  <trk>
    <name>Rome Marathon</name>
    <trkseg>
      <trkpt lat="41.892546" lon="12.488296"><ele>28.4</ele></trkpt>
      <trkpt lat="41.891905" lon="12.489499"><ele>29.8</ele></trkpt>
      <trkpt lat="41.891278" lon="12.490916"><ele>29.4</ele></trkpt>
      <trkpt lat="41.891023" lon="12.492736"><ele>29.6</ele></trkpt>
      <trkpt lat="41.890636" lon="12.493576"><ele>31.0</ele></trkpt>
      <trkpt lat="41.890301" lon="12.493922"><ele>33.4</ele></trkpt>
      <trkpt lat="41.889776" lon="12.493793"><ele>34.8</ele></trkpt>
      <trkpt lat="41.889352" lon="12.493424"><ele>36.0</ele></trkpt>
      <trkpt lat="41.889252" lon="12.492901"><ele>36.0</ele></trkpt>
      <trkpt lat="41.889281" lon="12.491828"><ele>34.0</ele></trkpt>
      <trkpt lat="41.889209" lon="12.491286"><ele>32.6</ele></trkpt>
      <trkpt lat="41.889044" lon="12.490905"><ele>30.6</ele></trkpt>
      <trkpt lat="41.888630" lon="12.490358"><ele>27.6</ele></trkpt>
      <trkpt lat="41.887848" lon="12.490012"><ele>27.4</ele></trkpt>
      <trkpt lat="41.886624" lon="12.489663"><ele>27.4</ele></trkpt>
      <trkpt lat="41.885387" lon="12.489344"><ele>27.6</ele></trkpt>
      <trkpt lat="41.884709" lon="12.489311"><ele>28.2</ele></trkpt>
      <trkpt lat="41.884354" lon="12.489146"><ele>28.0</ele></trkpt>
      <trkpt lat="41.883267" lon="12.487993"><ele>28.4</ele></trkpt>
      <trkpt lat="41.879810" lon="12.483532"><ele>31.8</ele></trkpt>
      <trkpt lat="41.877531" lon="12.481998"><ele>23.6</ele></trkpt>
      <trkpt lat="41.877279" lon="12.481909"><ele>23.0</ele></trkpt>
      <trkpt lat="41.876818" lon="12.481971"><ele>22.2</ele></trkpt>
      <trkpt lat="41.876493" lon="12.482201"><ele>22.2</ele></trkpt>
      <trkpt lat="41.876341" lon="12.482895"><ele>22.2</ele></trkpt>
      <trkpt lat="41.875219" lon="12.484755"><ele>25.0</ele></trkpt>
      <trkpt lat="41.872285" lon="12.490154"><ele>33.2</ele></trkpt>
      <trkpt lat="41.871736" lon="12.492045"><ele>33.4</ele></trkpt>
      <trkpt lat="41.871424" lon="12.494088"><ele>33.4</ele></trkpt>
      <trkpt lat="41.871226" lon="12.494751"><ele>32.8</ele></trkpt>
      <trkpt lat="41.871164" lon="12.495824"><ele>35.0</ele></trkpt>
      <trkpt lat="41.871087" lon="12.496127"><ele>35.4</ele></trkpt>
      <trkpt lat="41.870570" lon="12.496151"><ele>34.4</ele></trkpt>
      <trkpt lat="41.868695" lon="12.495949"><ele>25.0</ele></trkpt>
      <trkpt lat="41.867396" lon="12.496101"><ele>22.8</ele></trkpt>
      <trkpt lat="41.867297" lon="12.495844"><ele>22.6</ele></trkpt>
      <trkpt lat="41.867399" lon="12.494873"><ele>22.0</ele></trkpt>
      <trkpt lat="41.867336" lon="12.494301"><ele>22.0</ele></trkpt>
      <trkpt lat="41.867327" lon="12.488033"><ele>22.2</ele></trkpt>
      <trkpt lat="41.867410" lon="12.485032"><ele>24.2</ele></trkpt>
      <trkpt lat="41.867349" lon="12.484019"><ele>25.2</ele></trkpt>
      <trkpt lat="41.867439" lon="12.481524"><ele>18.8</ele></trkpt>
      <trkpt lat="41.867667" lon="12.480314"><ele>17.8</ele></trkpt>
      <trkpt lat="41.867698" lon="12.479630"><ele>17.4</ele></trkpt>
      <trkpt lat="41.866707" lon="12.479360"><ele>17.2</ele></trkpt>
      <trkpt lat="41.865156" lon="12.479178"><ele>17.0</ele></trkpt>
      <trkpt lat="41.862924" lon="12.478727"><ele>16.2</ele></trkpt>
      <trkpt lat="41.860827" lon="12.478395"><ele>16.0</ele></trkpt>
      <trkpt lat="41.860031" lon="12.478411"><ele>16.2</ele></trkpt>
      <trkpt lat="41.857738" lon="12.477823"><ele>16.4</ele></trkpt>
      <trkpt lat="41.856785" lon="12.477384"><ele>16.4</ele></trkpt>
      <trkpt lat="41.852429" lon="12.476639"><ele>14.6</ele></trkpt>
      <trkpt lat="41.852332" lon="12.476417"><ele>14.4</ele></trkpt>
      <trkpt lat="41.852444" lon="12.475045"><ele>18.0</ele></trkpt>
      <trkpt lat="41.852432" lon="12.473370"><ele>21.4</ele></trkpt>
      <trkpt lat="41.852569" lon="12.473222"><ele>21.8</ele></trkpt>
      <trkpt lat="41.856154" lon="12.471642"><ele>22.2</ele></trkpt>
      <trkpt lat="41.861233" lon="12.470239"><ele>22.0</ele></trkpt>
      <trkpt lat="41.861841" lon="12.472750"><ele>21.0</ele></trkpt>
      <trkpt lat="41.862671" lon="12.474252"><ele>20.4</ele></trkpt>
      <trkpt lat="41.863168" lon="12.474820"><ele>20.2</ele></trkpt>
      <trkpt lat="41.863738" lon="12.475195"><ele>20.0</ele></trkpt>
      <trkpt lat="41.864357" lon="12.475343"><ele>19.8</ele></trkpt>
      <trkpt lat="41.864770" lon="12.475314"><ele>19.8</ele></trkpt>
      <trkpt lat="41.865471" lon="12.475001"><ele>19.6</ele></trkpt>
      <trkpt lat="41.865818" lon="12.474637"><ele>19.8</ele></trkpt>
      <trkpt lat="41.868089" lon="12.472961"><ele>19.8</ele></trkpt>
      <trkpt lat="41.869037" lon="12.472533"><ele>18.6</ele></trkpt>
      <trkpt lat="41.870581" lon="12.471555"><ele>17.8</ele></trkpt>
      <trkpt lat="41.871513" lon="12.470578"><ele>19.0</ele></trkpt>
      <trkpt lat="41.871543" lon="12.470139"><ele>20.2</ele></trkpt>
      <trkpt lat="41.871071" lon="12.467843"><ele>18.2</ele></trkpt>
      <trkpt lat="41.871144" lon="12.467542"><ele>17.8</ele></trkpt>
      <trkpt lat="41.871438" lon="12.467471"><ele>17.2</ele></trkpt>
      <trkpt lat="41.872158" lon="12.467574"><ele>16.6</ele></trkpt>
      <trkpt lat="41.874123" lon="12.467580"><ele>17.6</ele></trkpt>
      <trkpt lat="41.874340" lon="12.467824"><ele>17.8</ele></trkpt>
      <trkpt lat="41.875676" lon="12.471199"><ele>20.2</ele></trkpt>
      <trkpt lat="41.875835" lon="12.471298"><ele>20.0</ele></trkpt>
      <trkpt lat="41.876787" lon="12.471048"><ele>18.6</ele></trkpt>
      <trkpt lat="41.877149" lon="12.471751"><ele>18.4</ele></trkpt>
      <trkpt lat="41.877628" lon="12.473003"><ele>18.8</ele></trkpt>
      <trkpt lat="41.876717" lon="12.473763"><ele>18.2</ele></trkpt>
      <trkpt lat="41.876696" lon="12.474055"><ele>18.2</ele></trkpt>
      <trkpt lat="41.878333" lon="12.478201"><ele>19.2</ele></trkpt>
      <trkpt lat="41.878744" lon="12.479062"><ele>19.0</ele></trkpt>
      <trkpt lat="41.878837" lon="12.479073"><ele>18.8</ele></trkpt>
      <trkpt lat="41.882307" lon="12.476696"><ele>20.4</ele></trkpt>
      <trkpt lat="41.883073" lon="12.476494"><ele>21.2</ele></trkpt>
      <trkpt lat="41.883577" lon="12.476754"><ele>22.0</ele></trkpt>
      <trkpt lat="41.885943" lon="12.479671"><ele>22.4</ele></trkpt>
      <trkpt lat="41.887157" lon="12.480609"><ele>23.0</ele></trkpt>
      <trkpt lat="41.887996" lon="12.481060"><ele>21.4</ele></trkpt>
      <trkpt lat="41.888649" lon="12.480472"><ele>24.0</ele></trkpt>
      <trkpt lat="41.889566" lon="12.480149"><ele>24.2</ele></trkpt>
      <trkpt lat="41.890315" lon="12.479703"><ele>24.0</ele></trkpt>
      <trkpt lat="41.890945" lon="12.479051"><ele>23.4</ele></trkpt>
      <trkpt lat="41.891490" lon="12.478233"><ele>22.6</ele></trkpt>
      <trkpt lat="41.891736" lon="12.477592"><ele>22.4</ele></trkpt>
      <trkpt lat="41.891886" lon="12.476818"><ele>22.8</ele></trkpt>
      <trkpt lat="41.891718" lon="12.473978"><ele>23.6</ele></trkpt>
      <trkpt lat="41.891876" lon="12.472845"><ele>22.8</ele></trkpt>
      <trkpt lat="41.892305" lon="12.471902"><ele>23.0</ele></trkpt>
      <trkpt lat="41.894498" lon="12.468976"><ele>22.6</ele></trkpt>
      <trkpt lat="41.896955" lon="12.465961"><ele>22.6</ele></trkpt>
      <trkpt lat="41.899394" lon="12.464340"><ele>22.6</ele></trkpt>
      <trkpt lat="41.900086" lon="12.464348"><ele>23.0</ele></trkpt>
      <trkpt lat="41.900784" lon="12.464738"><ele>23.8</ele></trkpt>
      <trkpt lat="41.902289" lon="12.462822"><ele>20.0</ele></trkpt>
      <trkpt lat="41.902349" lon="12.462393"><ele>20.0</ele></trkpt>
      <trkpt lat="41.902293" lon="12.459721"><ele>21.2</ele></trkpt>
      <trkpt lat="41.902345" lon="12.458852"><ele>22.4</ele></trkpt>
      <trkpt lat="41.902501" lon="12.458484"><ele>23.4</ele></trkpt>
      <trkpt lat="41.902961" lon="12.458148"><ele>24.0</ele></trkpt>
      <trkpt lat="41.903302" lon="12.457675"><ele>24.8</ele></trkpt>
      <trkpt lat="41.905230" lon="12.457847"><ele>22.2</ele></trkpt>
      <trkpt lat="41.905747" lon="12.457782"><ele>21.6</ele></trkpt>
      <trkpt lat="41.905871" lon="12.457900"><ele>21.6</ele></trkpt>
      <trkpt lat="41.905829" lon="12.458583"><ele>22.4</ele></trkpt>
      <trkpt lat="41.906024" lon="12.458983"><ele>23.0</ele></trkpt>
      <trkpt lat="41.906053" lon="12.459421"><ele>23.2</ele></trkpt>
      <trkpt lat="41.905409" lon="12.468318"><ele>23.2</ele></trkpt>
      <trkpt lat="41.905290" lon="12.468508"><ele>23.4</ele></trkpt>
      <trkpt lat="41.903154" lon="12.469811"><ele>25.4</ele></trkpt>
      <trkpt lat="41.903069" lon="12.469996"><ele>25.6</ele></trkpt>
      <trkpt lat="41.903880" lon="12.472626"><ele>25.2</ele></trkpt>
      <trkpt lat="41.904295" lon="12.473090"><ele>25.4</ele></trkpt>
      <trkpt lat="41.904997" lon="12.473603"><ele>25.2</ele></trkpt>
      <trkpt lat="41.904994" lon="12.474970"><ele>24.0</ele></trkpt>
      <trkpt lat="41.905149" lon="12.475063"><ele>23.4</ele></trkpt>
      <trkpt lat="41.905969" lon="12.475136"><ele>24.0</ele></trkpt>
      <trkpt lat="41.906697" lon="12.475053"><ele>24.4</ele></trkpt>
      <trkpt lat="41.907546" lon="12.474719"><ele>24.0</ele></trkpt>
      <trkpt lat="41.909835" lon="12.472973"><ele>25.2</ele></trkpt>
      <trkpt lat="41.909214" lon="12.470104"><ele>22.6</ele></trkpt>
      <trkpt lat="41.907655" lon="12.463990"><ele>23.0</ele></trkpt>
      <trkpt lat="41.907431" lon="12.462878"><ele>23.2</ele></trkpt>
      <trkpt lat="41.907542" lon="12.462652"><ele>23.6</ele></trkpt>
      <trkpt lat="41.908627" lon="12.462226"><ele>24.2</ele></trkpt>
      <trkpt lat="41.909051" lon="12.462176"><ele>24.4</ele></trkpt>
      <trkpt lat="41.910076" lon="12.461718"><ele>24.2</ele></trkpt>
      <trkpt lat="41.910269" lon="12.461739"><ele>24.2</ele></trkpt>
      <trkpt lat="41.910380" lon="12.461933"><ele>24.4</ele></trkpt>
      <trkpt lat="41.910802" lon="12.463606"><ele>25.0</ele></trkpt>
      <trkpt lat="41.911008" lon="12.463967"><ele>24.8</ele></trkpt>
      <trkpt lat="41.911288" lon="12.465019"><ele>24.8</ele></trkpt>
      <trkpt lat="41.911484" lon="12.465851"><ele>25.0</ele></trkpt>
      <trkpt lat="41.911502" lon="12.466692"><ele>25.2</ele></trkpt>
      <trkpt lat="41.912000" lon="12.468568"><ele>25.6</ele></trkpt>
      <trkpt lat="41.912155" lon="12.468656"><ele>25.6</ele></trkpt>
      <trkpt lat="41.912513" lon="12.468636"><ele>25.8</ele></trkpt>
      <trkpt lat="41.913666" lon="12.468340"><ele>26.4</ele></trkpt>
      <trkpt lat="41.912781" lon="12.464289"><ele>25.0</ele></trkpt>
      <trkpt lat="41.910753" lon="12.456314"><ele>25.4</ele></trkpt>
      <trkpt lat="41.910515" lon="12.455194"><ele>26.2</ele></trkpt>
      <trkpt lat="41.910608" lon="12.454918"><ele>26.2</ele></trkpt>
      <trkpt lat="41.914760" lon="12.453834"><ele>27.0</ele></trkpt>
      <trkpt lat="41.915548" lon="12.453737"><ele>26.6</ele></trkpt>
      <trkpt lat="41.915810" lon="12.453863"><ele>27.0</ele></trkpt>
      <trkpt lat="41.916198" lon="12.454345"><ele>27.2</ele></trkpt>
      <trkpt lat="41.916332" lon="12.455193"><ele>27.0</ele></trkpt>
      <trkpt lat="41.915356" lon="12.456724"><ele>27.2</ele></trkpt>
      <trkpt lat="41.915046" lon="12.457966"><ele>27.2</ele></trkpt>
      <trkpt lat="41.914984" lon="12.460399"><ele>27.2</ele></trkpt>
      <trkpt lat="41.915210" lon="12.461886"><ele>27.4</ele></trkpt>
      <trkpt lat="41.915538" lon="12.462854"><ele>27.8</ele></trkpt>
      <trkpt lat="41.916043" lon="12.462833"><ele>28.8</ele></trkpt>
      <trkpt lat="41.916480" lon="12.463178"><ele>28.4</ele></trkpt>
      <trkpt lat="41.919259" lon="12.461610"><ele>28.0</ele></trkpt>
      <trkpt lat="41.919502" lon="12.461588"><ele>28.0</ele></trkpt>
      <trkpt lat="41.919702" lon="12.461764"><ele>28.0</ele></trkpt>
      <trkpt lat="41.919977" lon="12.462695"><ele>28.4</ele></trkpt>
      <trkpt lat="41.920008" lon="12.463268"><ele>29.0</ele></trkpt>
      <trkpt lat="41.919158" lon="12.466525"><ele>29.4</ele></trkpt>
      <trkpt lat="41.918724" lon="12.468690"><ele>30.4</ele></trkpt>
      <trkpt lat="41.919168" lon="12.469445"><ele>30.8</ele></trkpt>
      <trkpt lat="41.919316" lon="12.469542"><ele>30.6</ele></trkpt>
      <trkpt lat="41.919974" lon="12.469209"><ele>30.0</ele></trkpt>
      <trkpt lat="41.920423" lon="12.468834"><ele>29.6</ele></trkpt>
      <trkpt lat="41.921042" lon="12.467881"><ele>29.4</ele></trkpt>
      <trkpt lat="41.921262" lon="12.467241"><ele>29.4</ele></trkpt>
      <trkpt lat="41.921859" lon="12.463910"><ele>28.0</ele></trkpt>
      <trkpt lat="41.922075" lon="12.463120"><ele>28.0</ele></trkpt>
      <trkpt lat="41.922671" lon="12.461862"><ele>27.4</ele></trkpt>
      <trkpt lat="41.923939" lon="12.459907"><ele>27.0</ele></trkpt>
      <trkpt lat="41.924167" lon="12.458712"><ele>26.2</ele></trkpt>
      <trkpt lat="41.925583" lon="12.458554"><ele>26.2</ele></trkpt>
      <trkpt lat="41.926098" lon="12.458409"><ele>26.4</ele></trkpt>
      <trkpt lat="41.926207" lon="12.458301"><ele>26.4</ele></trkpt>
      <trkpt lat="41.926345" lon="12.457851"><ele>26.2</ele></trkpt>
      <trkpt lat="41.928386" lon="12.456898"><ele>26.8</ele></trkpt>
      <trkpt lat="41.930544" lon="12.456330"><ele>26.8</ele></trkpt>
      <trkpt lat="41.930901" lon="12.456285"><ele>27.4</ele></trkpt>
      <trkpt lat="41.931011" lon="12.456383"><ele>27.4</ele></trkpt>
      <trkpt lat="41.931185" lon="12.457118"><ele>26.2</ele></trkpt>
      <trkpt lat="41.931137" lon="12.458200"><ele>25.8</ele></trkpt>
      <trkpt lat="41.931260" lon="12.458590"><ele>25.8</ele></trkpt>
      <trkpt lat="41.931678" lon="12.459305"><ele>25.8</ele></trkpt>
      <trkpt lat="41.930905" lon="12.461480"><ele>25.4</ele></trkpt>
      <trkpt lat="41.930766" lon="12.462171"><ele>25.0</ele></trkpt>
      <trkpt lat="41.932282" lon="12.463550"><ele>24.4</ele></trkpt>
      <trkpt lat="41.934078" lon="12.465989"><ele>24.0</ele></trkpt>
      <trkpt lat="41.934690" lon="12.467535"><ele>24.4</ele></trkpt>
      <trkpt lat="41.934986" lon="12.468717"><ele>24.4</ele></trkpt>
      <trkpt lat="41.935558" lon="12.475255"><ele>23.8</ele></trkpt>
      <trkpt lat="41.935481" lon="12.476322"><ele>23.6</ele></trkpt>
      <trkpt lat="41.935252" lon="12.477382"><ele>23.6</ele></trkpt>
      <trkpt lat="41.934636" lon="12.478664"><ele>23.4</ele></trkpt>
      <trkpt lat="41.934284" lon="12.478891"><ele>22.6</ele></trkpt>
      <trkpt lat="41.933935" lon="12.478971"><ele>21.8</ele></trkpt>
      <trkpt lat="41.933627" lon="12.478902"><ele>21.2</ele></trkpt>
      <trkpt lat="41.933123" lon="12.478496"><ele>20.0</ele></trkpt>
      <trkpt lat="41.932759" lon="12.476303"><ele>18.0</ele></trkpt>
      <trkpt lat="41.930509" lon="12.476526"><ele>18.6</ele></trkpt>
      <trkpt lat="41.930361" lon="12.476413"><ele>18.6</ele></trkpt>
      <trkpt lat="41.930097" lon="12.473133"><ele>17.6</ele></trkpt>
      <trkpt lat="41.931982" lon="12.472722"><ele>18.0</ele></trkpt>
      <trkpt lat="41.932045" lon="12.472642"><ele>18.0</ele></trkpt>
      <trkpt lat="41.931852" lon="12.470666"><ele>18.4</ele></trkpt>
      <trkpt lat="41.931495" lon="12.468735"><ele>18.6</ele></trkpt>
      <trkpt lat="41.928970" lon="12.469675"><ele>20.2</ele></trkpt>
      <trkpt lat="41.928833" lon="12.469647"><ele>20.2</ele></trkpt>
      <trkpt lat="41.928504" lon="12.469141"><ele>19.6</ele></trkpt>
      <trkpt lat="41.928361" lon="12.469068"><ele>19.2</ele></trkpt>
      <trkpt lat="41.924978" lon="12.470508"><ele>19.0</ele></trkpt>
      <trkpt lat="41.924471" lon="12.470673"><ele>19.2</ele></trkpt>
      <trkpt lat="41.924346" lon="12.470569"><ele>19.4</ele></trkpt>
      <trkpt lat="41.924325" lon="12.470290"><ele>20.0</ele></trkpt>
      <trkpt lat="41.926045" lon="12.464305"><ele>23.2</ele></trkpt>
      <trkpt lat="41.928240" lon="12.463185"><ele>23.4</ele></trkpt>
      <trkpt lat="41.928723" lon="12.463017"><ele>24.2</ele></trkpt>
      <trkpt lat="41.929435" lon="12.461708"><ele>27.0</ele></trkpt>
      <trkpt lat="41.929122" lon="12.461436"><ele>27.4</ele></trkpt>
      <trkpt lat="41.928069" lon="12.461122"><ele>27.0</ele></trkpt>
      <trkpt lat="41.927067" lon="12.461158"><ele>27.0</ele></trkpt>
      <trkpt lat="41.926712" lon="12.461260"><ele>27.2</ele></trkpt>
      <trkpt lat="41.926064" lon="12.461635"><ele>26.8</ele></trkpt>
      <trkpt lat="41.925378" lon="12.462231"><ele>26.2</ele></trkpt>
      <trkpt lat="41.924923" lon="12.462898"><ele>26.4</ele></trkpt>
      <trkpt lat="41.924129" lon="12.464576"><ele>26.6</ele></trkpt>
      <trkpt lat="41.923721" lon="12.465994"><ele>26.4</ele></trkpt>
      <trkpt lat="41.923440" lon="12.467601"><ele>26.4</ele></trkpt>
      <trkpt lat="41.923175" lon="12.468394"><ele>26.2</ele></trkpt>
      <trkpt lat="41.922480" lon="12.469629"><ele>26.6</ele></trkpt>
      <trkpt lat="41.921372" lon="12.470554"><ele>26.4</ele></trkpt>
      <trkpt lat="41.918885" lon="12.471793"><ele>25.4</ele></trkpt>
      <trkpt lat="41.918073" lon="12.471847"><ele>25.4</ele></trkpt>
      <trkpt lat="41.916306" lon="12.471545"><ele>24.8</ele></trkpt>
      <trkpt lat="41.915814" lon="12.471568"><ele>24.6</ele></trkpt>
      <trkpt lat="41.914751" lon="12.471714"><ele>25.0</ele></trkpt>
      <trkpt lat="41.913285" lon="12.472280"><ele>18.8</ele></trkpt>
      <trkpt lat="41.912076" lon="12.472481"><ele>15.0</ele></trkpt>
      <trkpt lat="41.911618" lon="12.472999"><ele>18.4</ele></trkpt>
      <trkpt lat="41.911134" lon="12.472867"><ele>18.4</ele></trkpt>
      <trkpt lat="41.910079" lon="12.473306"><ele>19.0</ele></trkpt>
      <trkpt lat="41.909594" lon="12.473798"><ele>20.2</ele></trkpt>
      <trkpt lat="41.907740" lon="12.475223"><ele>21.0</ele></trkpt>
      <trkpt lat="41.907070" lon="12.475154"><ele>20.8</ele></trkpt>
      <trkpt lat="41.906847" lon="12.475267"><ele>20.8</ele></trkpt>
      <trkpt lat="41.906733" lon="12.475552"><ele>20.8</ele></trkpt>
      <trkpt lat="41.906560" lon="12.477184"><ele>21.4</ele></trkpt>
      <trkpt lat="41.906522" lon="12.477892"><ele>22.0</ele></trkpt>
      <trkpt lat="41.906587" lon="12.478029"><ele>22.4</ele></trkpt>
      <trkpt lat="41.908097" lon="12.477424"><ele>24.0</ele></trkpt>
      <trkpt lat="41.908406" lon="12.477217"><ele>24.2</ele></trkpt>
      <trkpt lat="41.909752" lon="12.476761"><ele>25.4</ele></trkpt>
      <trkpt lat="41.910611" lon="12.476096"><ele>25.2</ele></trkpt>
      <trkpt lat="41.910836" lon="12.476136"><ele>25.0</ele></trkpt>
      <trkpt lat="41.910900" lon="12.476424"><ele>25.0</ele></trkpt>
      <trkpt lat="41.910496" lon="12.476884"><ele>25.6</ele></trkpt>
      <trkpt lat="41.910252" lon="12.476961"><ele>26.0</ele></trkpt>
      <trkpt lat="41.909908" lon="12.477263"><ele>26.4</ele></trkpt>
      <trkpt lat="41.906598" lon="12.481100"><ele>28.2</ele></trkpt>
      <trkpt lat="41.905687" lon="12.482283"><ele>29.8</ele></trkpt>
      <trkpt lat="41.905006" lon="12.482880"><ele>32.2</ele></trkpt>
      <trkpt lat="41.904461" lon="12.483814"><ele>33.0</ele></trkpt>
      <trkpt lat="41.902890" lon="12.485485"><ele>36.2</ele></trkpt>
      <trkpt lat="41.902690" lon="12.485109"><ele>35.6</ele></trkpt>
      <trkpt lat="41.902403" lon="12.483734"><ele>33.4</ele></trkpt>
      <trkpt lat="41.901529" lon="12.480497"><ele>30.0</ele></trkpt>
      <trkpt lat="41.901536" lon="12.480319"><ele>30.0</ele></trkpt>
      <trkpt lat="41.901732" lon="12.480064"><ele>29.8</ele></trkpt>
      <trkpt lat="41.903154" lon="12.479532"><ele>28.8</ele></trkpt>
      <trkpt lat="41.904530" lon="12.478828"><ele>29.6</ele></trkpt>
      <trkpt lat="41.904029" lon="12.477632"><ele>30.4</ele></trkpt>
      <trkpt lat="41.903649" lon="12.476395"><ele>31.2</ele></trkpt>
      <trkpt lat="41.903337" lon="12.475715"><ele>30.8</ele></trkpt>
      <trkpt lat="41.902020" lon="12.471937"><ele>31.4</ele></trkpt>
      <trkpt lat="41.901905" lon="12.471838"><ele>31.6</ele></trkpt>
      <trkpt lat="41.901399" lon="12.472079"><ele>30.8</ele></trkpt>
      <trkpt lat="41.900496" lon="12.472703"><ele>29.8</ele></trkpt>
      <trkpt lat="41.900448" lon="12.473131"><ele>29.8</ele></trkpt>
      <trkpt lat="41.900362" lon="12.473185"><ele>29.6</ele></trkpt>
      <trkpt lat="41.900182" lon="12.473185"><ele>29.4</ele></trkpt>
      <trkpt lat="41.900009" lon="12.472949"><ele>28.8</ele></trkpt>
      <trkpt lat="41.899789" lon="12.472861"><ele>28.4</ele></trkpt>
      <trkpt lat="41.898020" lon="12.473027"><ele>27.6</ele></trkpt>
      <trkpt lat="41.897814" lon="12.473366"><ele>28.0</ele></trkpt>
      <trkpt lat="41.897753" lon="12.474017"><ele>28.2</ele></trkpt>
      <trkpt lat="41.897038" lon="12.474155"><ele>28.0</ele></trkpt>
      <trkpt lat="41.896573" lon="12.474555"><ele>27.8</ele></trkpt>
      <trkpt lat="41.896426" lon="12.475740"><ele>29.0</ele></trkpt>
      <trkpt lat="41.896214" lon="12.476383"><ele>29.4</ele></trkpt>
      <trkpt lat="41.896047" lon="12.477240"><ele>28.8</ele></trkpt>
      <trkpt lat="41.895982" lon="12.478859"><ele>30.4</ele></trkpt>
      <trkpt lat="41.895431" lon="12.479458"><ele>31.8</ele></trkpt>
      <trkpt lat="41.895074" lon="12.480002"><ele>31.8</ele></trkpt>
      <trkpt lat="41.895045" lon="12.480914"><ele>32.6</ele></trkpt>
      <trkpt lat="41.894317" lon="12.481325"><ele>35.6</ele></trkpt>
      <trkpt lat="41.893928" lon="12.481814"><ele>38.2</ele></trkpt>
      <trkpt lat="41.893549" lon="12.481820"><ele>38.8</ele></trkpt>
      <trkpt lat="41.892644" lon="12.480785"><ele>32.8</ele></trkpt>
      <trkpt lat="41.891744" lon="12.480402"><ele>28.0</ele></trkpt>
      <trkpt lat="41.890433" lon="12.480830"><ele>26.0</ele></trkpt>
      <trkpt lat="41.889343" lon="12.481354"><ele>25.2</ele></trkpt>
      <trkpt lat="41.886577" lon="12.486164"><ele>32.8</ele></trkpt>
      <trkpt lat="41.885174" lon="12.488853"><ele>30.8</ele></trkpt>
      <trkpt lat="41.885281" lon="12.489169"><ele>30.8</ele></trkpt>
      <trkpt lat="41.885397" lon="12.489260"><ele>30.8</ele></trkpt>
      <trkpt lat="41.886943" lon="12.489775"><ele>31.4</ele></trkpt>
      <trkpt lat="41.887933" lon="12.489981"><ele>31.6</ele></trkpt>
      <trkpt lat="41.888676" lon="12.490405"><ele>32.2</ele></trkpt>
      <trkpt lat="41.888982" lon="12.490764"><ele>32.6</ele></trkpt>
      <trkpt lat="41.889229" lon="12.491338"><ele>35.2</ele></trkpt>
      <trkpt lat="41.889411" lon="12.493417"><ele>40.0</ele></trkpt>
      <trkpt lat="41.889709" lon="12.493727"><ele>39.0</ele></trkpt>
      <trkpt lat="41.890309" lon="12.493919"><ele>37.0</ele></trkpt>
      <trkpt lat="41.890600" lon="12.493686"><ele>36.2</ele></trkpt>
      <trkpt lat="41.891002" lon="12.492765"><ele>33.0</ele></trkpt>
      <trkpt lat="41.891322" lon="12.490850"><ele>32.8</ele></trkpt>
      <trkpt lat="41.891931" lon="12.489474"><ele>33.0</ele></trkpt>
      <trkpt lat="41.892581" lon="12.488327"><ele>32.6</ele></trkpt>
    </trkseg>
  </trk>
</gpx>
