<?xml version="1.0" encoding="UTF-8" standalone="yes"?>
<gpx
 version="1.1"
 creator="Generated by MapOut iPhone App. See https://mapout.app"
 xmlns="http://www.topografix.com/GPX/1/1"
 xmlns:xsi="http://www.w3.org/2001/XMLSchema-instance"
 xmlns:gpxx="http://www.garmin.com/xmlschemas/GpxExtensions/v3"
 xmlns:mapout="https://mapout.app/xmlschemas/MapOutExtensions"
 xsi:schemaLocation="http://www.topografix.com/GPX/1/1 https://www.topografix.com/GPX/1/1/gpx.xsd http://www.garmin.com/xmlschemas/GpxExtensions/v3 https://www8.garmin.com/xmlschemas/GpxExtensionsv3.xsd https://mapout.app/xmlschemas/MapOutExtensions https://mapout.app/xmlschemas/MapOutExtensions.xsd">
  <metadata>
    <name>Drawn 5 Aug 2026 at 09:13</name>
    <author><name>iPhone</name></author>
    <time>2026-08-05T07:13:04Z</time>
    <bounds minlat="46.62269692923898" minlon="-1.1488632462330783" maxlat="46.66521552546254" maxlon="-1.0651506770932604"/>
  </metadata>
  <trk>
    <trkseg>
      <trkpt lat="46.65334909593698" lon="-1.0653176678052301">
        <ele>44</ele>
      </trkpt>
      <trkpt lat="46.65364962807553" lon="-1.0652098035475805">
        <ele>42</ele>
      </trkpt>
      <trkpt lat="46.65390806790006" lon="-1.0651535380507275">
        <ele>41</ele>
      </trkpt>
      <trkpt lat="46.65398722105665" lon="-1.0651506770932604">
        <ele>40</ele>
      </trkpt>
      <trkpt lat="46.65410165935533" lon="-1.0651563990081947">
        <ele>40</ele>
      </trkpt>
      <trkpt lat="46.6543133702079" lon="-1.0652155254625146">
        <ele>40</ele>
      </trkpt>
      <trkpt lat="46.6543133702079" lon="-1.0652155254625146">
        <ele>40</ele>
      </trkpt>
      <trkpt lat="46.65441541102423" lon="-1.0655788670608362">
        <ele>42</ele>
      </trkpt>
      <trkpt lat="46.6544964714858" lon="-1.0657724585161099">
        <ele>43</ele>
      </trkpt>
      <trkpt lat="46.65459946595461" lon="-1.0661586877741682">
        <ele>47</ele>
      </trkpt>
      <trkpt lat="46.65471771886325" lon="-1.0667375548350113">
        <ele>56</ele>
      </trkpt>
      <trkpt lat="46.65516688918559" lon="-1.0671562082776969">
        <ele>62</ele>
      </trkpt>
      <trkpt lat="46.65552736982644" lon="-1.067274461186337">
        <ele>66</ele>
      </trkpt>
      <trkpt lat="46.65596986458135" lon="-1.0673497997329704">
        <ele>72</ele>
      </trkpt>
      <trkpt lat="46.65643333969102" lon="-1.0673707800877292">
        <ele>76</ele>
      </trkpt>
      <trkpt lat="46.65677951554454" lon="-1.0672525271790891">
        <ele>75</ele>
      </trkpt>
      <trkpt lat="46.6571914934198" lon="-1.0672420370017097">
        <ele>77</ele>
      </trkpt>
      <trkpt lat="46.65750143047874" lon="-1.0673173755483434">
        <ele>81</ele>
      </trkpt>
      <trkpt lat="46.65785428189968" lon="-1.067392714094977">
        <ele>78</ele>
      </trkpt>
      <trkpt lat="46.65823002098036" lon="-1.0678857524318071">
        <ele>85</ele>
      </trkpt>
      <trkpt lat="46.6583921419035" lon="-1.0682939156971132">
        <ele>95</ele>
      </trkpt>
      <trkpt lat="46.65850937333109" lon="-1.0682867825679212">
        <ele>93</ele>
      </trkpt>
      <trkpt lat="46.65850937333398" lon="-1.0682867826029929">
        <ele>93</ele>
      </trkpt>
      <trkpt lat="46.65832157161931" lon="-1.0696604997138974">
        <ele>94</ele>
      </trkpt>
      <trkpt lat="46.65832157161931" lon="-1.0696604997138974">
        <ele>94</ele>
      </trkpt>
      <trkpt lat="46.65896051878696" lon="-1.0699494564180745">
        <ele>93</ele>
      </trkpt>
      <trkpt lat="46.65934349829838" lon="-1.0701465782254225">
        <ele>93</ele>
      </trkpt>
      <trkpt lat="46.65934388708755" lon="-1.0701449551783262">
        <ele>93</ele>
      </trkpt>
      <trkpt lat="46.6593658210948" lon="-1.070053404539379">
        <ele>93</ele>
      </trkpt>
      <trkpt lat="46.65938775510205" lon="-1.0699618539004319">
        <ele>93</ele>
      </trkpt>
      <trkpt lat="46.65938775510205" lon="-1.0699618539004319">
        <ele>93</ele>
      </trkpt>
      <trkpt lat="46.65928189967576" lon="-1.0697386992179982">
        <ele>92</ele>
      </trkpt>
      <trkpt lat="46.65928189967576" lon="-1.0697386992179982">
        <ele>92</ele>
      </trkpt>
      <trkpt lat="46.65911119588023" lon="-1.0693696357047424">
        <ele>90</ele>
      </trkpt>
      <trkpt lat="46.65910261300782" lon="-1.0693066946404661">
        <ele>90</ele>
      </trkpt>
      <trkpt lat="46.65909498378792" lon="-1.0692437535761901">
        <ele>89</ele>
      </trkpt>
      <trkpt lat="46.65911214953272" lon="-1.0691598321571552">
        <ele>89</ele>
      </trkpt>
      <trkpt lat="46.65914362006485" lon="-1.0690749570856313">
        <ele>88</ele>
      </trkpt>
      <trkpt lat="46.6591827198169" lon="-1.069011062368866">
        <ele>88</ele>
      </trkpt>
      <trkpt lat="46.65925519740607" lon="-1.068953843219524">
        <ele>87</ele>
      </trkpt>
      <trkpt lat="46.65933435056266" lon="-1.0689366774747213">
        <ele>87</ele>
      </trkpt>
      <trkpt lat="46.65990368109861" lon="-1.0689128361624955">
        <ele>85</ele>
      </trkpt>
      <trkpt lat="46.66" lon="-1.0688813656303575">
        <ele>84</ele>
      </trkpt>
      <trkpt lat="46.66000000000002" lon="-1.0688813656303575">
        <ele>84</ele>
      </trkpt>
      <trkpt lat="46.66007819950411" lon="-1.0688565706656425">
        <ele>84</ele>
      </trkpt>
      <trkpt lat="46.66014495517835" lon="-1.0688641998855548">
        <ele>84</ele>
      </trkpt>
      <trkpt lat="46.6604444020599" lon="-1.069012016021355">
        <ele>85</ele>
      </trkpt>
      <trkpt lat="46.66072954415413" lon="-1.0692084684340959">
        <ele>87</ele>
      </trkpt>
      <trkpt lat="46.66087831394241" lon="-1.0694220865916393">
        <ele>89</ele>
      </trkpt>
      <trkpt lat="46.66103852756057" lon="-1.0698016402822743">
        <ele>91</ele>
      </trkpt>
      <trkpt lat="46.66110719053978" lon="-1.0700905969864514">
        <ele>92</ele>
      </trkpt>
      <trkpt lat="46.66110719053978" lon="-1.0700905969864514">
        <ele>92</ele>
      </trkpt>
      <trkpt lat="46.66134178905209" lon="-1.069592790387176">
        <ele>88</ele>
      </trkpt>
      <trkpt lat="46.6615668510395" lon="-1.0694878886133825">
        <ele>86</ele>
      </trkpt>
      <trkpt lat="46.66170989891285" lon="-1.0693400724775823">
        <ele>84</ele>
      </trkpt>
      <trkpt lat="46.66229544154112" lon="-1.069359145527363">
        <ele>75</ele>
      </trkpt>
      <trkpt lat="46.66255674232311" lon="-1.0691798588594248">
        <ele>69</ele>
      </trkpt>
      <trkpt lat="46.66272839977114" lon="-1.0691417127598635">
        <ele>67</ele>
      </trkpt>
      <trkpt lat="46.66313084112151" lon="-1.0692361243562778">
        <ele>65</ele>
      </trkpt>
      <trkpt lat="46.66336925424377" lon="-1.0692304024413435">
        <ele>63</ele>
      </trkpt>
      <trkpt lat="46.66364295250812" lon="-1.0690720961281641">
        <ele>59</ele>
      </trkpt>
      <trkpt lat="46.66378695403397" lon="-1.069100705702835">
        <ele>58</ele>
      </trkpt>
      <trkpt lat="46.66378695403397" lon="-1.069100705702835">
        <ele>58</ele>
      </trkpt>
      <trkpt lat="46.66388422658785" lon="-1.0690053404539317">
        <ele>56</ele>
      </trkpt>
      <trkpt lat="46.66421705130652" lon="-1.0687116154873095">
        <ele>51</ele>
      </trkpt>
      <trkpt lat="46.66462235361436" lon="-1.0685332824718605">
        <ele>50</ele>
      </trkpt>
      <trkpt lat="46.66521552341531" lon="-1.0684874435137708">
        <ele>51</ele>
      </trkpt>
      <trkpt lat="46.66521552344857" lon="-1.0684874435112">
        <ele>51</ele>
      </trkpt>
      <trkpt lat="46.66521552546254" lon="-1.0684875071523869">
        <ele>51</ele>
      </trkpt>
      <trkpt lat="46.66521552546254" lon="-1.0684875071523869">
        <ele>51</ele>
      </trkpt>
      <trkpt lat="46.66515735266071" lon="-1.0686610719053908">
        <ele>52</ele>
      </trkpt>
      <trkpt lat="46.66513255769599" lon="-1.0687354567995355">
        <ele>53</ele>
      </trkpt>
      <trkpt lat="46.66487221056649" lon="-1.069012016021355">
        <ele>53</ele>
      </trkpt>
      <trkpt lat="46.66487221056649" lon="-1.0698273888994783">
        <ele>58</ele>
      </trkpt>
      <trkpt lat="46.66469483120353" lon="-1.0710289910356598">
        <ele>66</ele>
      </trkpt>
      <trkpt lat="46.66434197978258" lon="-1.071930192637796">
        <ele>69</ele>
      </trkpt>
      <trkpt lat="46.66440015258441" lon="-1.0735180240320359">
        <ele>76</ele>
      </trkpt>
      <trkpt lat="46.66460709517453" lon="-1.0751058554262758">
        <ele>80</ele>
      </trkpt>
      <trkpt lat="46.66454796872021" lon="-1.077595842075141">
        <ele>83</ele>
      </trkpt>
      <trkpt lat="46.66457753194737" lon="-1.0797415601754652">
        <ele>91</ele>
      </trkpt>
      <trkpt lat="46.66455369063515" lon="-1.0799999999999932">
        <ele>92</ele>
      </trkpt>
      <trkpt lat="46.66455369063515" lon="-1.0800000000000034">
        <ele>92</ele>
      </trkpt>
      <trkpt lat="46.66445927903873" lon="-1.0810137325958455">
        <ele>95</ele>
      </trkpt>
      <trkpt lat="46.66445927903873" lon="-1.0810137325958455">
        <ele>95</ele>
      </trkpt>
      <trkpt lat="46.66394144573719" lon="-1.0808239557505279">
        <ele>95</ele>
      </trkpt>
      <trkpt lat="46.66394144573719" lon="-1.0808239557505279">
        <ele>95</ele>
      </trkpt>
      <trkpt lat="46.66349609002481" lon="-1.08158115582682">
        <ele>97</ele>
      </trkpt>
      <trkpt lat="46.66311939729164" lon="-1.0823030707610182">
        <ele>98</ele>
      </trkpt>
      <trkpt lat="46.66268071714669" lon="-1.0828895670417733">
        <ele>99</ele>
      </trkpt>
      <trkpt lat="46.66268071714669" lon="-1.0828895670417733">
        <ele>99</ele>
      </trkpt>
      <trkpt lat="46.66204653824148" lon="-1.0831699408735491">
        <ele>101</ele>
      </trkpt>
      <trkpt lat="46.66197119969485" lon="-1.0832023650581761">
        <ele>101</ele>
      </trkpt>
      <trkpt lat="46.66168987221058" lon="-1.0831861529658626">
        <ele>101</ele>
      </trkpt>
      <trkpt lat="46.66144382986841" lon="-1.0832691207324086">
        <ele>102</ele>
      </trkpt>
      <trkpt lat="46.66115201220677" lon="-1.0834159832157195">
        <ele>102</ele>
      </trkpt>
      <trkpt lat="46.6603671562083" lon="-1.0839004386801483">
        <ele>102</ele>
      </trkpt>
      <trkpt lat="46.66000000000002" lon="-1.0841140568376917">
        <ele>102</ele>
      </trkpt>
      <trkpt lat="46.66" lon="-1.0841140568376917">
        <ele>102</ele>
      </trkpt>
      <trkpt lat="46.65935342361244" lon="-1.0844907495708598">
        <ele>102</ele>
      </trkpt>
      <trkpt lat="46.65927236315088" lon="-1.0845842075147851">
        <ele>102</ele>
      </trkpt>
      <trkpt lat="46.65927236315088" lon="-1.0845842075147851">
        <ele>102</ele>
      </trkpt>
      <trkpt lat="46.65938870875453" lon="-1.0846576387564406">
        <ele>102</ele>
      </trkpt>
      <trkpt lat="46.65955941255007" lon="-1.0848035475872626">
        <ele>102</ele>
      </trkpt>
      <trkpt lat="46.65983024985696" lon="-1.0850667556742357">
        <ele>102</ele>
      </trkpt>
      <trkpt lat="46.66" lon="-1.0852803738317791">
        <ele>102</ele>
      </trkpt>
      <trkpt lat="46.66000000000002" lon="-1.0852803738317791">
        <ele>102</ele>
      </trkpt>
      <trkpt lat="46.6602880030517" lon="-1.0856446690825896">
        <ele>102</ele>
      </trkpt>
      <trkpt lat="46.66055121113867" lon="-1.0858659164600453">
        <ele>102</ele>
      </trkpt>
      <trkpt lat="46.66094411596416" lon="-1.0861443829868429">
        <ele>102</ele>
      </trkpt>
      <trkpt lat="46.66139137898151" lon="-1.086545870684726">
        <ele>102</ele>
      </trkpt>
      <trkpt lat="46.66167747472822" lon="-1.0868310127789467">
        <ele>103</ele>
      </trkpt>
      <trkpt lat="46.66240034331491" lon="-1.0876149151249319">
        <ele>104</ele>
      </trkpt>
      <trkpt lat="46.66275510204083" lon="-1.0879620446309399">
        <ele>105</ele>
      </trkpt>
      <trkpt lat="46.66344650009538" lon="-1.0887774175090632">
        <ele>106</ele>
      </trkpt>
      <trkpt lat="46.66431337020791" lon="-1.0898731642189621">
        <ele>107</ele>
      </trkpt>
      <trkpt lat="46.66451935914554" lon="-1.0902393667747508">
        <ele>106</ele>
      </trkpt>
      <trkpt lat="46.66451935914554" lon="-1.0902393667747508">
        <ele>106</ele>
      </trkpt>
      <trkpt lat="46.66336257867635" lon="-1.0917318329200874">
        <ele>106</ele>
      </trkpt>
      <trkpt lat="46.66285618920467" lon="-1.0924251382796144">
        <ele>105</ele>
      </trkpt>
      <trkpt lat="46.66268739271411" lon="-1.092736982643528">
        <ele>105</ele>
      </trkpt>
      <trkpt lat="46.66233549494566" lon="-1.093569521266454">
        <ele>104</ele>
      </trkpt>
      <trkpt lat="46.66214762540532" lon="-1.0938851802403238">
        <ele>103</ele>
      </trkpt>
      <trkpt lat="46.66182338355905" lon="-1.0944506961663205">
        <ele>102</ele>
      </trkpt>
      <trkpt lat="46.66167461377076" lon="-1.0948121304596639">
        <ele>101</ele>
      </trkpt>
      <trkpt lat="46.66153347320238" lon="-1.0952660690444436">
        <ele>101</ele>
      </trkpt>
      <trkpt lat="46.66136276940684" lon="-1.0957457562464272">
        <ele>100</ele>
      </trkpt>
      <trkpt lat="46.66112626358957" lon="-1.0962759870303296">
        <ele>99</ele>
      </trkpt>
      <trkpt lat="46.66076482929622" lon="-1.0968395956513481">
        <ele>97</ele>
      </trkpt>
      <trkpt lat="46.66026606904445" lon="-1.0974489795918401">
        <ele>95</ele>
      </trkpt>
      <trkpt lat="46.66000000000002" lon="-1.0977283997711269">
        <ele>94</ele>
      </trkpt>
      <trkpt lat="46.66" lon="-1.0977283997711269">
        <ele>94</ele>
      </trkpt>
      <trkpt lat="46.65985313751669" lon="-1.0978819378218612">
        <ele>93</ele>
      </trkpt>
      <trkpt lat="46.65957848559985" lon="-1.0982777036048099">
        <ele>92</ele>
      </trkpt>
      <trkpt lat="46.65929048254817" lon="-1.0987907686439096">
        <ele>91</ele>
      </trkpt>
      <trkpt lat="46.65898149914172" lon="-1.0991989319092157">
        <ele>90</ele>
      </trkpt>
      <trkpt lat="46.65830249856953" lon="-1.1000000000000034">
        <ele>88</ele>
      </trkpt>
      <trkpt lat="46.65830249856953" lon="-1.0999999999999852">
        <ele>88</ele>
      </trkpt>
      <trkpt lat="46.65810795346177" lon="-1.1002298302498421">
        <ele>88</ele>
      </trkpt>
      <trkpt lat="46.65810795346177" lon="-1.1002298302498421">
        <ele>88</ele>
      </trkpt>
      <trkpt lat="46.65806217814229" lon="-1.0999999999999852">
        <ele>87</ele>
      </trkpt>
      <trkpt lat="46.65806217814229" lon="-1.1000000000000034">
        <ele>87</ele>
      </trkpt>
      <trkpt lat="46.6580001907305" lon="-1.0996910165935567">
        <ele>87</ele>
      </trkpt>
      <trkpt lat="46.657913408354" lon="-1.0993286286477242">
        <ele>86</ele>
      </trkpt>
      <trkpt lat="46.65778847987794" lon="-1.0989967575815407">
        <ele>85</ele>
      </trkpt>
      <trkpt lat="46.65764066374214" lon="-1.0986334159832192">
        <ele>85</ele>
      </trkpt>
      <trkpt lat="46.65727160022888" lon="-1.0979467861911154">
        <ele>85</ele>
      </trkpt>
      <trkpt lat="46.65696261682243" lon="-1.0974632843791756">
        <ele>87</ele>
      </trkpt>
      <trkpt lat="46.65662407018883" lon="-1.0967337402250654">
        <ele>91</ele>
      </trkpt>
      <trkpt lat="46.65639614724395" lon="-1.0961653633416018">
        <ele>94</ele>
      </trkpt>
      <trkpt lat="46.65618729734885" lon="-1.0954558458897612">
        <ele>96</ele>
      </trkpt>
      <trkpt lat="46.65618729734885" lon="-1.0954558458897612">
        <ele>96</ele>
      </trkpt>
      <trkpt lat="46.65599752050353" lon="-1.0955550257486206">
        <ele>96</ele>
      </trkpt>
      <trkpt lat="46.65575338546634" lon="-1.0957495708563834">
        <ele>97</ele>
      </trkpt>
      <trkpt lat="46.65528609574672" lon="-1.0967499523173789">
        <ele>95</ele>
      </trkpt>
      <trkpt lat="46.65528609574672" lon="-1.0967499523173789">
        <ele>95</ele>
      </trkpt>
      <trkpt lat="46.65513446500096" lon="-1.096983597177192">
        <ele>94</ele>
      </trkpt>
      <trkpt lat="46.6548703032615" lon="-1.097240129696742">
        <ele>93</ele>
      </trkpt>
      <trkpt lat="46.65471485790579" lon="-1.0973774556551628">
        <ele>93</ele>
      </trkpt>
      <trkpt lat="46.65459660499715" lon="-1.0974384894144609">
        <ele>93</ele>
      </trkpt>
      <trkpt lat="46.65439347701698" lon="-1.0974547015067744">
        <ele>93</ele>
      </trkpt>
      <trkpt lat="46.65430574098799" lon="-1.0974804501239783">
        <ele>93</ele>
      </trkpt>
      <trkpt lat="46.65420846843411" lon="-1.0975405302307872">
        <ele>93</ele>
      </trkpt>
      <trkpt lat="46.65302593934771" lon="-1.0986791913026928">
        <ele>87</ele>
      </trkpt>
      <trkpt lat="46.65229353423613" lon="-1.0995632271600262">
        <ele>82</ele>
      </trkpt>
      <trkpt lat="46.65194068281519" lon="-1.0999198931909246">
        <ele>81</ele>
      </trkpt>
      <trkpt lat="46.65184341026131" lon="-1.1000000000000034">
        <ele>81</ele>
      </trkpt>
      <trkpt lat="46.65184341026131" lon="-1.0999999999999852">
        <ele>81</ele>
      </trkpt>
      <trkpt lat="46.65109670036239" lon="-1.1006160595079006">
        <ele>79</ele>
      </trkpt>
      <trkpt lat="46.65028991035667" lon="-1.1014352469959798">
        <ele>77</ele>
      </trkpt>
      <trkpt lat="46.64952126645051" lon="-1.1022286858668553">
        <ele>75</ele>
      </trkpt>
      <trkpt lat="46.64882796109099" lon="-1.1028247186725009">
        <ele>72</ele>
      </trkpt>
      <trkpt lat="46.64846843410262" lon="-1.1031251192065463">
        <ele>71</ele>
      </trkpt>
      <trkpt lat="46.64812321190159" lon="-1.1034302880030369">
        <ele>69</ele>
      </trkpt>
      <trkpt lat="46.64788193782186" lon="-1.1035676139614576">
        <ele>68</ele>
      </trkpt>
      <trkpt lat="46.6477312607286" lon="-1.1036324623307119">
        <ele>67</ele>
      </trkpt>
      <trkpt lat="46.64758249094031" lon="-1.1036448598130693">
        <ele>66</ele>
      </trkpt>
      <trkpt lat="46.64748998664887" lon="-1.1036162502383984">
        <ele>66</ele>
      </trkpt>
      <trkpt lat="46.64721724203701" lon="-1.1033835590310743">
        <ele>65</ele>
      </trkpt>
      <trkpt lat="46.64709994278086" lon="-1.1033511348464471">
        <ele>64</ele>
      </trkpt>
      <trkpt lat="46.64700743848942" lon="-1.1033787907686292">
        <ele>64</ele>
      </trkpt>
      <trkpt lat="46.64623116536335" lon="-1.1041197787526078">
        <ele>61</ele>
      </trkpt>
      <trkpt lat="46.64595937440397" lon="-1.104386801449537">
        <ele>60</ele>
      </trkpt>
      <trkpt lat="46.64586782376502" lon="-1.1044993324432428">
        <ele>60</ele>
      </trkpt>
      <trkpt lat="46.64549208468435" lon="-1.1054043486553351">
        <ele>58</ele>
      </trkpt>
      <trkpt lat="46.64489319092123" lon="-1.1066946404729969">
        <ele>54</ele>
      </trkpt>
      <trkpt lat="46.64475872592028" lon="-1.1068806027083582">
        <ele>53</ele>
      </trkpt>
      <trkpt lat="46.6446614533664" lon="-1.1069225634178756">
        <ele>52</ele>
      </trkpt>
      <trkpt lat="46.64437535761969" lon="-1.1068615296585775">
        <ele>51</ele>
      </trkpt>
      <trkpt lat="46.64421991226398" lon="-1.1068481785237312">
        <ele>50</ele>
      </trkpt>
      <trkpt lat="46.64402727446119" lon="-1.1069320999427661">
        <ele>49</ele>
      </trkpt>
      <trkpt lat="46.64376978828916" lon="-1.1070808697310552">
        <ele>48</ele>
      </trkpt>
      <trkpt lat="46.64367823765021" lon="-1.1071409498378644">
        <ele>48</ele>
      </trkpt>
      <trkpt lat="46.64360766736602" lon="-1.107276368491307">
        <ele>47</ele>
      </trkpt>
      <trkpt lat="46.64350085828725" lon="-1.1075252717909445">
        <ele>47</ele>
      </trkpt>
      <trkpt lat="46.64342361243563" lon="-1.1077322143810648">
        <ele>46</ele>
      </trkpt>
      <trkpt lat="46.64342361243563" lon="-1.1077322143810648">
        <ele>46</ele>
      </trkpt>
      <trkpt lat="46.64340453938586" lon="-1.1078943353042003">
        <ele>46</ele>
      </trkpt>
      <trkpt lat="46.64333873736411" lon="-1.1080249856951978">
        <ele>46</ele>
      </trkpt>
      <trkpt lat="46.64314323860386" lon="-1.1082414648102084">
        <ele>46</ele>
      </trkpt>
      <trkpt lat="46.64311272172421" lon="-1.1083501811939582">
        <ele>46</ele>
      </trkpt>
      <trkpt lat="46.64311272172421" lon="-1.1083501811939582">
        <ele>46</ele>
      </trkpt>
      <trkpt lat="46.64312416555408" lon="-1.1085475872591879">
        <ele>46</ele>
      </trkpt>
      <trkpt lat="46.64317566278849" lon="-1.108892809460218">
        <ele>47</ele>
      </trkpt>
      <trkpt lat="46.64325386229259" lon="-1.1092027465191536">
        <ele>48</ele>
      </trkpt>
      <trkpt lat="46.6433740225062" lon="-1.1095489223726727">
        <ele>49</ele>
      </trkpt>
      <trkpt lat="46.64341598321572" lon="-1.1095803929048107">
        <ele>49</ele>
      </trkpt>
      <trkpt lat="46.64345985123022" lon="-1.1096032805645475">
        <ele>49</ele>
      </trkpt>
      <trkpt lat="46.643521838642" lon="-1.1096004196070803">
        <ele>49</ele>
      </trkpt>
      <trkpt lat="46.643521838642" lon="-1.1096004196070803">
        <ele>49</ele>
      </trkpt>
      <trkpt lat="46.64353042151441" lon="-1.1097282090406109">
        <ele>50</ele>
      </trkpt>
      <trkpt lat="46.6433568567614" lon="-1.1103747854281751">
        <ele>50</ele>
      </trkpt>
      <trkpt lat="46.64302880030517" lon="-1.1115496852946638">
        <ele>48</ele>
      </trkpt>
      <trkpt lat="46.64280469197026" lon="-1.1123021171085108">
        <ele>44</ele>
      </trkpt>
      <trkpt lat="46.64263875643716" lon="-1.1125405302307692">
        <ele>43</ele>
      </trkpt>
      <trkpt lat="46.64186725157353" lon="-1.1132538622925658">
        <ele>38</ele>
      </trkpt>
      <trkpt lat="46.64054453557124" lon="-1.1141769979019498">
        <ele>31</ele>
      </trkpt>
      <trkpt lat="46.64014590883082" lon="-1.1144478352088352">
        <ele>33</ele>
      </trkpt>
      <trkpt lat="46.64006961663171" lon="-1.1145050543581771">
        <ele>33</ele>
      </trkpt>
      <trkpt lat="46.64000000000001" lon="-1.1145966049971243">
        <ele>34</ele>
      </trkpt>
      <trkpt lat="46.63999999999999" lon="-1.1145966049971243">
        <ele>34</ele>
      </trkpt>
      <trkpt lat="46.63995899294297" lon="-1.1147177188632313">
        <ele>35</ele>
      </trkpt>
      <trkpt lat="46.63994945641808" lon="-1.1147777989700405">
        <ele>35</ele>
      </trkpt>
      <trkpt lat="46.63994945641808" lon="-1.1147777989700405">
        <ele>35</ele>
      </trkpt>
      <trkpt lat="46.63992275414839" lon="-1.1151010871638227">
        <ele>37</ele>
      </trkpt>
      <trkpt lat="46.63992275414839" lon="-1.1151010871638227">
        <ele>37</ele>
      </trkpt>
      <trkpt lat="46.6399208468434" lon="-1.1152021743276601">
        <ele>38</ele>
      </trkpt>
      <trkpt lat="46.63994278085065" lon="-1.1152984932290526">
        <ele>38</ele>
      </trkpt>
      <trkpt lat="46.63999999999999" lon="-1.1153547587259054">
        <ele>38</ele>
      </trkpt>
      <trkpt lat="46.64000000000001" lon="-1.1153547587259054">
        <ele>38</ele>
      </trkpt>
      <trkpt lat="46.64041674613771" lon="-1.115570284188427">
        <ele>38</ele>
      </trkpt>
      <trkpt lat="46.64045584588976" lon="-1.1156217814228346">
        <ele>39</ele>
      </trkpt>
      <trkpt lat="46.64045584588976" lon="-1.1156217814228346">
        <ele>39</ele>
      </trkpt>
      <trkpt lat="46.64046919702461" lon="-1.1156809078771548">
        <ele>39</ele>
      </trkpt>
      <trkpt lat="46.64046442876217" lon="-1.1157705512111238">
        <ele>40</ele>
      </trkpt>
      <trkpt lat="46.64043200457754" lon="-1.1158964333396761">
        <ele>41</ele>
      </trkpt>
      <trkpt lat="46.64029086400916" lon="-1.1162283044058596">
        <ele>43</ele>
      </trkpt>
      <trkpt lat="46.64022887659738" lon="-1.1164962807552781">
        <ele>45</ele>
      </trkpt>
      <trkpt lat="46.64028800305169" lon="-1.116758535189762">
        <ele>46</ele>
      </trkpt>
      <trkpt lat="46.64043772649247" lon="-1.1172048445546294">
        <ele>48</ele>
      </trkpt>
      <trkpt lat="46.64052355521648" lon="-1.1177007438489266">
        <ele>51</ele>
      </trkpt>
      <trkpt lat="46.64051974060653" lon="-1.1182014114056691">
        <ele>53</ele>
      </trkpt>
      <trkpt lat="46.64044535571239" lon="-1.1188727827579483">
        <ele>55</ele>
      </trkpt>
      <trkpt lat="46.64039099752051" lon="-1.1191073812702503">
        <ele>56</ele>
      </trkpt>
      <trkpt lat="46.64022315468244" lon="-1.1194001525843835">
        <ele>56</ele>
      </trkpt>
      <trkpt lat="46.64000000000001" lon="-1.1196395193591306">
        <ele>56</ele>
      </trkpt>
      <trkpt lat="46.63999999999999" lon="-1.1196395193591306">
        <ele>56</ele>
      </trkpt>
      <trkpt lat="46.63990463475109" lon="-1.1197415601754572">
        <ele>56</ele>
      </trkpt>
      <trkpt lat="46.63971485790577" lon="-1.1199999999999852">
        <ele>56</ele>
      </trkpt>
      <trkpt lat="46.63971485790577" lon="-1.1199999999999954">
        <ele>56</ele>
      </trkpt>
      <trkpt lat="46.63946595460614" lon="-1.1203375929811132">
        <ele>56</ele>
      </trkpt>
      <trkpt lat="46.63899294297158" lon="-1.1212368872782712">
        <ele>60</ele>
      </trkpt>
      <trkpt lat="46.63879649055884" lon="-1.1216269311462856">
        <ele>62</ele>
      </trkpt>
      <trkpt lat="46.6385561701316" lon="-1.1226654587068428">
        <ele>68</ele>
      </trkpt>
      <trkpt lat="46.63823860385275" lon="-1.1235046728971918">
        <ele>74</ele>
      </trkpt>
      <trkpt lat="46.63809746328437" lon="-1.1237631127217196">
        <ele>75</ele>
      </trkpt>
      <trkpt lat="46.63762159069235" lon="-1.1243610528323433">
        <ele>80</ele>
      </trkpt>
      <trkpt lat="46.63737173374022" lon="-1.1247434674804455">
        <ele>82</ele>
      </trkpt>
      <trkpt lat="46.63717814228495" lon="-1.1251716574480215">
        <ele>83</ele>
      </trkpt>
      <trkpt lat="46.63706847224871" lon="-1.1254558458897532">
        <ele>83</ele>
      </trkpt>
      <trkpt lat="46.63685008582872" lon="-1.1259364867442259">
        <ele>84</ele>
      </trkpt>
      <trkpt lat="46.63670513065038" lon="-1.1262178142284907">
        <ele>84</ele>
      </trkpt>
      <trkpt lat="46.63617776082395" lon="-1.127127598703028">
        <ele>83</ele>
      </trkpt>
      <trkpt lat="46.63610814419225" lon="-1.1273240511157689">
        <ele>83</ele>
      </trkpt>
      <trkpt lat="46.63608811748998" lon="-1.1275052450886851">
        <ele>83</ele>
      </trkpt>
      <trkpt lat="46.63609670036238" lon="-1.1276921609765356">
        <ele>83</ele>
      </trkpt>
      <trkpt lat="46.63631985504482" lon="-1.1286992180049544">
        <ele>84</ele>
      </trkpt>
      <trkpt lat="46.63649341979782" lon="-1.1297339309555552">
        <ele>84</ele>
      </trkpt>
      <trkpt lat="46.63656208277703" lon="-1.1301077627312561">
        <ele>85</ele>
      </trkpt>
      <trkpt lat="46.63675281327484" lon="-1.1307123784093032">
        <ele>86</ele>
      </trkpt>
      <trkpt lat="46.63707037955368" lon="-1.1315058172801786">
        <ele>88</ele>
      </trkpt>
      <trkpt lat="46.63722391760442" lon="-1.1320207896242565">
        <ele>89</ele>
      </trkpt>
      <trkpt lat="46.63750429143619" lon="-1.1330507343124121">
        <ele>89</ele>
      </trkpt>
      <trkpt lat="46.63750429143619" lon="-1.1330507343124121">
        <ele>89</ele>
      </trkpt>
      <trkpt lat="46.63755864962807" lon="-1.1332977303070715">
        <ele>89</ele>
      </trkpt>
      <trkpt lat="46.63775414838832" lon="-1.1339986648865108">
        <ele>88</ele>
      </trkpt>
      <trkpt lat="46.63786000381461" lon="-1.1343410261300737">
        <ele>87</ele>
      </trkpt>
      <trkpt lat="46.63798970055311" lon="-1.134671943543768">
        <ele>87</ele>
      </trkpt>
      <trkpt lat="46.63814705321381" lon="-1.1350238413122213">
        <ele>87</ele>
      </trkpt>
      <trkpt lat="46.6381909212283" lon="-1.1351926378027801">
        <ele>86</ele>
      </trkpt>
      <trkpt lat="46.63821094793057" lon="-1.1355721914934152">
        <ele>86</ele>
      </trkpt>
      <trkpt lat="46.63820141140568" lon="-1.1361949265687539">
        <ele>85</ele>
      </trkpt>
      <trkpt lat="46.63815945069616" lon="-1.1363904253290056">
        <ele>85</ele>
      </trkpt>
      <trkpt lat="46.63805740987983" lon="-1.1365735266068999">
        <ele>84</ele>
      </trkpt>
      <trkpt lat="46.6376778561892" lon="-1.1369540339500241">
        <ele>82</ele>
      </trkpt>
      <trkpt lat="46.63751764257104" lon="-1.1372191493419752">
        <ele>82</ele>
      </trkpt>
      <trkpt lat="46.63736887278275" lon="-1.1376969292389807">
        <ele>82</ele>
      </trkpt>
      <trkpt lat="46.63725538813656" lon="-1.138221438107949">
        <ele>83</ele>
      </trkpt>
      <trkpt lat="46.63722487125691" lon="-1.1386200648483646">
        <ele>83</ele>
      </trkpt>
      <trkpt lat="46.63721914934197" lon="-1.1399999999999955">
        <ele>84</ele>
      </trkpt>
      <trkpt lat="46.63721914934197" lon="-1.1400000000000057">
        <ele>84</ele>
      </trkpt>
      <trkpt lat="46.63721819568948" lon="-1.1402136181575491">
        <ele>84</ele>
      </trkpt>
      <trkpt lat="46.63719149341979" lon="-1.1406637421323726">
        <ele>84</ele>
      </trkpt>
      <trkpt lat="46.63712855235552" lon="-1.1410070570284245">
        <ele>84</ele>
      </trkpt>
      <trkpt lat="46.63670989891283" lon="-1.1423612435628514">
        <ele>83</ele>
      </trkpt>
      <trkpt lat="46.63655636086209" lon="-1.1427083730688594">
        <ele>83</ele>
      </trkpt>
      <trkpt lat="46.63597272553881" lon="-1.1438041197787583">
        <ele>83</ele>
      </trkpt>
      <trkpt lat="46.63577531947358" lon="-1.1442275414838889">
        <ele>84</ele>
      </trkpt>
      <trkpt lat="46.63568567613961" lon="-1.1445002860957525">
        <ele>85</ele>
      </trkpt>
      <trkpt lat="46.63558172801831" lon="-1.1449084493610586">
        <ele>86</ele>
      </trkpt>
      <trkpt lat="46.63512016021361" lon="-1.1477789433530479">
        <ele>94</ele>
      </trkpt>
      <trkpt lat="46.63506675567423" lon="-1.1482166698455141">
        <ele>95</ele>
      </trkpt>
      <trkpt lat="46.63501335113484" lon="-1.1488594316231222">
        <ele>95</ele>
      </trkpt>
      <trkpt lat="46.63501335113484" lon="-1.1488594316231222">
        <ele>95</ele>
      </trkpt>
      <trkpt lat="46.63497901964524" lon="-1.1488632462330783">
        <ele>95</ele>
      </trkpt>
      <trkpt lat="46.63430669464047" lon="-1.1488022124737802">
        <ele>95</ele>
      </trkpt>
      <trkpt lat="46.63385943162312" lon="-1.1486715620827828">
        <ele>94</ele>
      </trkpt>
      <trkpt lat="46.63360671371352" lon="-1.1484693877551078">
        <ele>94</ele>
      </trkpt>
      <trkpt lat="46.63338737364104" lon="-1.1481823383559089">
        <ele>94</ele>
      </trkpt>
      <trkpt lat="46.63321476254053" lon="-1.147782757963004">
        <ele>93</ele>
      </trkpt>
      <trkpt lat="46.63311367537669" lon="-1.1472620637039919">
        <ele>93</ele>
      </trkpt>
      <trkpt lat="46.63262635895479" lon="-1.143449361052838">
        <ele>93</ele>
      </trkpt>
      <trkpt lat="46.63257295441541" lon="-1.1432223917604483">
        <ele>93</ele>
      </trkpt>
      <trkpt lat="46.63188441731833" lon="-1.1409860766736657">
        <ele>95</ele>
      </trkpt>
      <trkpt lat="46.63180431050925" lon="-1.1405454892237326">
        <ele>94</ele>
      </trkpt>
      <trkpt lat="46.63186439061605" lon="-1.1400000000000057">
        <ele>94</ele>
      </trkpt>
      <trkpt lat="46.63186439061605" lon="-1.1399999999999955">
        <ele>94</ele>
      </trkpt>
      <trkpt lat="46.63189395384322" lon="-1.1397329773030662">
        <ele>94</ele>
      </trkpt>
      <trkpt lat="46.63218386419988" lon="-1.1386143429334306">
        <ele>93</ele>
      </trkpt>
      <trkpt lat="46.63246995994659" lon="-1.1377388899484981">
        <ele>92</ele>
      </trkpt>
      <trkpt lat="46.63250715239366" lon="-1.1373707800877315">
        <ele>90</ele>
      </trkpt>
      <trkpt lat="46.63245088689681" lon="-1.1370761014686204">
        <ele>89</ele>
      </trkpt>
      <trkpt lat="46.63240129696738" lon="-1.1367165744802548">
        <ele>87</ele>
      </trkpt>
      <trkpt lat="46.63240987983978" lon="-1.136173946213995">
        <ele>85</ele>
      </trkpt>
      <trkpt lat="46.63248998664886" lon="-1.1354529849322861">
        <ele>83</ele>
      </trkpt>
      <trkpt lat="46.63248807934388" lon="-1.1350467289719581">
        <ele>81</ele>
      </trkpt>
      <trkpt lat="46.63237650200266" lon="-1.1345794392523318">
        <ele>80</ele>
      </trkpt>
      <trkpt lat="46.63221152012206" lon="-1.1340434865534954">
        <ele>80</ele>
      </trkpt>
      <trkpt lat="46.63199790196452" lon="-1.1335800114438253">
        <ele>80</ele>
      </trkpt>
      <trkpt lat="46.631782376502" lon="-1.1333005912645386">
        <ele>80</ele>
      </trkpt>
      <trkpt lat="46.63138470341407" lon="-1.1329391569711951">
        <ele>80</ele>
      </trkpt>
      <trkpt lat="46.63118443639137" lon="-1.1327255388136517">
        <ele>80</ele>
      </trkpt>
      <trkpt lat="46.63103185199313" lon="-1.1325128743085975">
        <ele>80</ele>
      </trkpt>
      <trkpt lat="46.63094030135418" lon="-1.1322582490940256">
        <ele>80</ele>
      </trkpt>
      <trkpt lat="46.63084588975777" lon="-1.1318043105092459">
        <ele>79</ele>
      </trkpt>
      <trkpt lat="46.63077245851611" lon="-1.1315124928476017">
        <ele>79</ele>
      </trkpt>
      <trkpt lat="46.63060366202556" lon="-1.1312454701506724">
        <ele>79</ele>
      </trkpt>
      <trkpt lat="46.63036906351325" lon="-1.1309307648292917">
        <ele>80</ele>
      </trkpt>
      <trkpt lat="46.63005435819187" lon="-1.1306866297920992">
        <ele>80</ele>
      </trkpt>
      <trkpt lat="46.62981499141712" lon="-1.1305435819187442">
        <ele>81</ele>
      </trkpt>
      <trkpt lat="46.62954987602517" lon="-1.1304100705702795">
        <ele>81</ele>
      </trkpt>
      <trkpt lat="46.62929811176807" lon="-1.1302613007819904">
        <ele>82</ele>
      </trkpt>
      <trkpt lat="46.62913408353995" lon="-1.1301258821285478">
        <ele>82</ele>
      </trkpt>
      <trkpt lat="46.6284779706275" lon="-1.1291817661644052">
        <ele>85</ele>
      </trkpt>
      <trkpt lat="46.6271647911501" lon="-1.1274156017547161">
        <ele>85</ele>
      </trkpt>
      <trkpt lat="46.62651535380507" lon="-1.1266193019263735">
        <ele>85</ele>
      </trkpt>
      <trkpt lat="46.62485790577913" lon="-1.1246633606713667">
        <ele>82</ele>
      </trkpt>
      <trkpt lat="46.62472916269311" lon="-1.124493610528319">
        <ele>81</ele>
      </trkpt>
      <trkpt lat="46.62472916269311" lon="-1.124493610528319">
        <ele>81</ele>
      </trkpt>
      <trkpt lat="46.62484836925424" lon="-1.12423612435628">
        <ele>81</ele>
      </trkpt>
      <trkpt lat="46.62511348464619" lon="-1.1238203318710616">
        <ele>81</ele>
      </trkpt>
      <trkpt lat="46.62550257486171" lon="-1.1232338355903064">
        <ele>81</ele>
      </trkpt>
      <trkpt lat="46.62557600610337" lon="-1.1230679000572146">
        <ele>81</ele>
      </trkpt>
      <trkpt lat="46.625608430288" lon="-1.122908640091546">
        <ele>80</ele>
      </trkpt>
      <trkpt lat="46.62563131794774" lon="-1.1227493801258777">
        <ele>80</ele>
      </trkpt>
      <trkpt lat="46.62562845699027" lon="-1.1223497997329728">
        <ele>79</ele>
      </trkpt>
      <trkpt lat="46.62559603280564" lon="-1.1218882319282808">
        <ele>77</ele>
      </trkpt>
      <trkpt lat="46.62557028418843" lon="-1.121694640473007">
        <ele>77</ele>
      </trkpt>
      <trkpt lat="46.62547301163455" lon="-1.1215039099752004">
        <ele>76</ele>
      </trkpt>
      <trkpt lat="46.62536810986077" lon="-1.1213560938394003">
        <ele>76</ele>
      </trkpt>
      <trkpt lat="46.62524604234217" lon="-1.121203509441155">
        <ele>75</ele>
      </trkpt>
      <trkpt lat="46.62519549876025" lon="-1.1210919320999382">
        <ele>75</ele>
      </trkpt>
      <trkpt lat="46.62517547205798" lon="-1.1209641426664079">
        <ele>75</ele>
      </trkpt>
      <trkpt lat="46.62518024032043" lon="-1.1208363532328773">
        <ele>74</ele>
      </trkpt>
      <trkpt lat="46.62537001716574" lon="-1.1199999999999954">
        <ele>73</ele>
      </trkpt>
      <trkpt lat="46.62537001716574" lon="-1.1199999999999852">
        <ele>73</ele>
      </trkpt>
      <trkpt lat="46.62567613961472" lon="-1.1186553499904488">
        <ele>68</ele>
      </trkpt>
      <trkpt lat="46.62588022124737" lon="-1.1178886133892663">
        <ele>65</ele>
      </trkpt>
      <trkpt lat="46.62619874117871" lon="-1.1168872782757815">
        <ele>60</ele>
      </trkpt>
      <trkpt lat="46.62631508678237" lon="-1.1166145336639182">
        <ele>59</ele>
      </trkpt>
      <trkpt lat="46.62645432004577" lon="-1.1164037764638417">
        <ele>59</ele>
      </trkpt>
      <trkpt lat="46.62686343696357" lon="-1.1159107381270117">
        <ele>60</ele>
      </trkpt>
      <trkpt lat="46.62686343696357" lon="-1.1159107381270117">
        <ele>60</ele>
      </trkpt>
      <trkpt lat="46.62692447072286" lon="-1.1158334922754001">
        <ele>60</ele>
      </trkpt>
      <trkpt lat="46.62692447072286" lon="-1.1158334922754001">
        <ele>60</ele>
      </trkpt>
      <trkpt lat="46.6274518405493" lon="-1.1152880030516732">
        <ele>61</ele>
      </trkpt>
      <trkpt lat="46.62754625214571" lon="-1.1151544917032086">
        <ele>61</ele>
      </trkpt>
      <trkpt lat="46.62760156399008" lon="-1.1150085828723866">
        <ele>62</ele>
      </trkpt>
      <trkpt lat="46.62763398817471" lon="-1.1148722105664548">
        <ele>62</ele>
      </trkpt>
      <trkpt lat="46.62762826625977" lon="-1.1147072286858521">
        <ele>62</ele>
      </trkpt>
      <trkpt lat="46.62760347129505" lon="-1.1145746709898765">
        <ele>62</ele>
      </trkpt>
      <trkpt lat="46.62756341789051" lon="-1.1144735838260391">
        <ele>63</ele>
      </trkpt>
      <trkpt lat="46.62736315086782" lon="-1.114155063894702">
        <ele>63</ele>
      </trkpt>
      <trkpt lat="46.62695594125501" lon="-1.1135294678618963">
        <ele>65</ele>
      </trkpt>
      <trkpt lat="46.62687201983596" lon="-1.1134245660881028">
        <ele>66</ele>
      </trkpt>
      <trkpt lat="46.62679191302689" lon="-1.1133511348464471">
        <ele>66</ele>
      </trkpt>
      <trkpt lat="46.62644764447835" lon="-1.1132157161930045">
        <ele>66</ele>
      </trkpt>
      <trkpt lat="46.62636086210185" lon="-1.1131623116536187">
        <ele>67</ele>
      </trkpt>
      <trkpt lat="46.62629982834255" lon="-1.1131089071142328">
        <ele>67</ele>
      </trkpt>
      <trkpt lat="46.62612435628456" lon="-1.1128952889566894">
        <ele>68</ele>
      </trkpt>
      <trkpt lat="46.62564466908258" lon="-1.112134274270441">
        <ele>69</ele>
      </trkpt>
      <trkpt lat="46.625347129506" lon="-1.1116498188060122">
        <ele>70</ele>
      </trkpt>
      <trkpt lat="46.625347129506" lon="-1.1116498188060122">
        <ele>70</ele>
      </trkpt>
      <trkpt lat="46.62574575624642" lon="-1.1112273507533708">
        <ele>70</ele>
      </trkpt>
      <trkpt lat="46.6261472439443" lon="-1.1107705512111239">
        <ele>71</ele>
      </trkpt>
      <trkpt lat="46.62626358954797" lon="-1.110687583444578">
        <ele>71</ele>
      </trkpt>
      <trkpt lat="46.62639614724394" lon="-1.1106198741178566">
        <ele>71</ele>
      </trkpt>
      <trkpt lat="46.62650581728018" lon="-1.1105864962807406">
        <ele>71</ele>
      </trkpt>
      <trkpt lat="46.62694068281517" lon="-1.1105006675567275">
        <ele>72</ele>
      </trkpt>
      <trkpt lat="46.62787144764447" lon="-1.110396719435423">
        <ele>72</ele>
      </trkpt>
      <trkpt lat="46.6285123021171" lon="-1.1101821476253906">
        <ele>71</ele>
      </trkpt>
      <trkpt lat="46.62863341598321" lon="-1.1101163456036471">
        <ele>71</ele>
      </trkpt>
      <trkpt lat="46.62869826435247" lon="-1.1100429143619917">
        <ele>71</ele>
      </trkpt>
      <trkpt lat="46.62871543009727" lon="-1.1099828342551827">
        <ele>71</ele>
      </trkpt>
      <trkpt lat="46.62871543009727" lon="-1.1099828342551827">
        <ele>71</ele>
      </trkpt>
      <trkpt lat="46.62888327293534" lon="-1.1100190730497659">
        <ele>71</ele>
      </trkpt>
      <trkpt lat="46.62915220293724" lon="-1.1100314705321233">
        <ele>71</ele>
      </trkpt>
      <trkpt lat="46.62976730879267" lon="-1.1099847415601607">
        <ele>71</ele>
      </trkpt>
      <trkpt lat="46.62976730879267" lon="-1.1099847415601607">
        <ele>71</ele>
      </trkpt>
      <trkpt lat="46.62960137325958" lon="-1.1083950028609426">
        <ele>69</ele>
      </trkpt>
      <trkpt lat="46.62911214953271" lon="-1.1070961281708798">
        <ele>67</ele>
      </trkpt>
      <trkpt lat="46.62895861148197" lon="-1.1067032233453982">
        <ele>66</ele>
      </trkpt>
      <trkpt lat="46.6287993515163" lon="-1.1060776273125925">
        <ele>65</ele>
      </trkpt>
      <trkpt lat="46.62825672325004" lon="-1.103781232119001">
        <ele>59</ele>
      </trkpt>
      <trkpt lat="46.6277121876788" lon="-1.1027875262254287">
        <ele>57</ele>
      </trkpt>
      <trkpt lat="46.62771122044241" lon="-1.1027857612472021">
        <ele>57</ele>
      </trkpt>
      <trkpt lat="46.6276864390616" lon="-1.1025863055502427">
        <ele>57</ele>
      </trkpt>
      <trkpt lat="46.62771790959374" lon="-1.1023774556551444">
        <ele>57</ele>
      </trkpt>
      <trkpt lat="46.62783044058745" lon="-1.102133320617952">
        <ele>56</ele>
      </trkpt>
      <trkpt lat="46.62825958420751" lon="-1.1014915124928328">
        <ele>55</ele>
      </trkpt>
      <trkpt lat="46.62838546633606" lon="-1.1012159069235024">
        <ele>54</ele>
      </trkpt>
      <trkpt lat="46.62849799732977" lon="-1.1007705512111239">
        <ele>54</ele>
      </trkpt>
      <trkpt lat="46.62854663360671" lon="-1.100249856952112">
        <ele>52</ele>
      </trkpt>
      <trkpt lat="46.62853900438679" lon="-1.0999999999999852">
        <ele>51</ele>
      </trkpt>
      <trkpt lat="46.62853900438679" lon="-1.1000000000000034">
        <ele>51</ele>
      </trkpt>
      <trkpt lat="46.62845699027274" lon="-1.097013160404352">
        <ele>50</ele>
      </trkpt>
      <trkpt lat="46.62847415601755" lon="-1.0966469578485634">
        <ele>51</ele>
      </trkpt>
      <trkpt lat="46.6285304215144" lon="-1.0957276368491355">
        <ele>51</ele>
      </trkpt>
      <trkpt lat="46.62884608048827" lon="-1.0943171848178559">
        <ele>51</ele>
      </trkpt>
      <trkpt lat="46.62888041197787" lon="-1.0940492084684375">
        <ele>51</ele>
      </trkpt>
      <trkpt lat="46.62884608048827" lon="-1.0933835590310925">
        <ele>49</ele>
      </trkpt>
      <trkpt lat="46.6287650200267" lon="-1.0928361625023875">
        <ele>48</ele>
      </trkpt>
      <trkpt lat="46.62863723059317" lon="-1.0918415029563262">
        <ele>45</ele>
      </trkpt>
      <trkpt lat="46.62861148197597" lon="-1.0915220293725001">
        <ele>44</ele>
      </trkpt>
      <trkpt lat="46.62860957467098" lon="-1.09099942780851">
        <ele>43</ele>
      </trkpt>
      <trkpt lat="46.62857619683387" lon="-1.0906637421323704">
        <ele>42</ele>
      </trkpt>
      <trkpt lat="46.62845317566278" lon="-1.0900524508869003">
        <ele>41</ele>
      </trkpt>
      <trkpt lat="46.62832443257676" lon="-1.0895508296776688">
        <ele>42</ele>
      </trkpt>
      <trkpt lat="46.62793534236124" lon="-1.0881136753766962">
        <ele>43</ele>
      </trkpt>
      <trkpt lat="46.62783806980736" lon="-1.0878046919702495">
        <ele>43</ele>
      </trkpt>
      <trkpt lat="46.62765020026702" lon="-1.0873135609383975">
        <ele>43</ele>
      </trkpt>
      <trkpt lat="46.62756341789051" lon="-1.087037955369067">
        <ele>43</ele>
      </trkpt>
      <trkpt lat="46.62744039671943" lon="-1.0865601754720613">
        <ele>43</ele>
      </trkpt>
      <trkpt lat="46.62734217051306" lon="-1.0860556933053629">
        <ele>41</ele>
      </trkpt>
      <trkpt lat="46.62725252717909" lon="-1.0857419416364711">
        <ele>40</ele>
      </trkpt>
      <trkpt lat="46.627086591646" lon="-1.0850257486172072">
        <ele>38</ele>
      </trkpt>
      <trkpt lat="46.6270255578867" lon="-1.0845031470532172">
        <ele>37</ele>
      </trkpt>
      <trkpt lat="46.62697024604234" lon="-1.0843982452794236">
        <ele>37</ele>
      </trkpt>
      <trkpt lat="46.62674518405493" lon="-1.0842695021934041">
        <ele>37</ele>
      </trkpt>
      <trkpt lat="46.62624451649818" lon="-1.0841569711996983">
        <ele>35</ele>
      </trkpt>
      <trkpt lat="46.6258344459279" lon="-1.0840921228304441">
        <ele>34</ele>
      </trkpt>
      <trkpt lat="46.62561510585542" lon="-1.0841378981499177">
        <ele>34</ele>
      </trkpt>
      <trkpt lat="46.62521266450505" lon="-1.0842590120160247">
        <ele>33</ele>
      </trkpt>
      <trkpt lat="46.62473393095556" lon="-1.0843848941445771">
        <ele>33</ele>
      </trkpt>
      <trkpt lat="46.6245994659546" lon="-1.0844087354568031">
        <ele>33</ele>
      </trkpt>
      <trkpt lat="46.62440968910929" lon="-1.0843448407400378">
        <ele>33</ele>
      </trkpt>
      <trkpt lat="46.62430001907305" lon="-1.0841970246042376">
        <ele>33</ele>
      </trkpt>
      <trkpt lat="46.62418748807934" lon="-1.0838775510204115">
        <ele>32</ele>
      </trkpt>
      <trkpt lat="46.62407304978066" lon="-1.0835037192447106">
        <ele>30</ele>
      </trkpt>
      <trkpt lat="46.62400724775891" lon="-1.0833978638184281">
        <ele>30</ele>
      </trkpt>
      <trkpt lat="46.62393953843219" lon="-1.0833559031089106">
        <ele>29</ele>
      </trkpt>
      <trkpt lat="46.62381079534617" lon="-1.0833549494564214">
        <ele>29</ele>
      </trkpt>
      <trkpt lat="46.62380956427504" lon="-1.0833549403853289">
        <ele>29</ele>
      </trkpt>
      <trkpt lat="46.62381174899866" lon="-1.0832386038527595">
        <ele>28</ele>
      </trkpt>
      <trkpt lat="46.62379649055884" lon="-1.0830984169368716">
        <ele>28</ele>
      </trkpt>
      <trkpt lat="46.62376883463666" lon="-1.0829525081060496">
        <ele>27</ele>
      </trkpt>
      <trkpt lat="46.62367346938775" lon="-1.0825510204081668">
        <ele>26</ele>
      </trkpt>
      <trkpt lat="46.62345508296776" lon="-1.0817919130268965">
        <ele>23</ele>
      </trkpt>
      <trkpt lat="46.62345508296776" lon="-1.0817919130268965">
        <ele>23</ele>
      </trkpt>
      <trkpt lat="46.62321953080297" lon="-1.0809650963189048">
        <ele>23</ele>
      </trkpt>
      <trkpt lat="46.62321953080297" lon="-1.0809650963189048">
        <ele>23</ele>
      </trkpt>
      <trkpt lat="46.622956322716" lon="-1.0800000000000034">
        <ele>27</ele>
      </trkpt>
      <trkpt lat="46.622956322716" lon="-1.0799999999999932">
        <ele>27</ele>
      </trkpt>
      <trkpt lat="46.62280946023269" lon="-1.0794630936486675">
        <ele>29</ele>
      </trkpt>
      <trkpt lat="46.62275128743086" lon="-1.0793534236124287">
        <ele>29</ele>
      </trkpt>
      <trkpt lat="46.62269692923898" lon="-1.0793143238603784">
        <ele>29</ele>
      </trkpt>
      <trkpt lat="46.62269692923898" lon="-1.0793143238603784">
        <ele>29</ele>
      </trkpt>
      <trkpt lat="46.62273316803356" lon="-1.0790463475109602">
        <ele>30</ele>
      </trkpt>
      <trkpt lat="46.62277798970055" lon="-1.0788146099561251">
        <ele>31</ele>
      </trkpt>
      <trkpt lat="46.62277798970055" lon="-1.0788146099561251">
        <ele>31</ele>
      </trkpt>
      <trkpt lat="46.62337402250619" lon="-1.0791731832920015">
        <ele>29</ele>
      </trkpt>
      <trkpt lat="46.62360576006103" lon="-1.0792199122639643">
        <ele>28</ele>
      </trkpt>
      <trkpt lat="46.62385466336067" lon="-1.0791731832920015">
        <ele>28</ele>
      </trkpt>
      <trkpt lat="46.62413122258248" lon="-1.0790473011634492">
        <ele>29</ele>
      </trkpt>
      <trkpt lat="46.62477493801259" lon="-1.0786858668701058">
        <ele>31</ele>
      </trkpt>
      <trkpt lat="46.62495899294296" lon="-1.0786343696356979">
        <ele>31</ele>
      </trkpt>
      <trkpt lat="46.62617776082395" lon="-1.0784598512302048">
        <ele>32</ele>
      </trkpt>
      <trkpt lat="46.62653538050734" lon="-1.0783454129315209">
        <ele>32</ele>
      </trkpt>
      <trkpt lat="46.62669940873545" lon="-1.0783263398817402">
        <ele>32</ele>
      </trkpt>
      <trkpt lat="46.62694831203509" lon="-1.0782338355903041">
        <ele>31</ele>
      </trkpt>
      <trkpt lat="46.62718100324241" lon="-1.0782071333206111">
        <ele>30</ele>
      </trkpt>
      <trkpt lat="46.62729734884608" lon="-1.0781346557314446">
        <ele>29</ele>
      </trkpt>
      <trkpt lat="46.62741560175471" lon="-1.0778533282471798">
        <ele>31</ele>
      </trkpt>
      <trkpt lat="46.62763589547968" lon="-1.0776511539195048">
        <ele>32</ele>
      </trkpt>
      <trkpt lat="46.62790005721914" lon="-1.0775309937058868">
        <ele>31</ele>
      </trkpt>
      <trkpt lat="46.62821094793057" lon="-1.0771790959374337">
        <ele>31</ele>
      </trkpt>
      <trkpt lat="46.62848369254243" lon="-1.0768252908640024">
        <ele>31</ele>
      </trkpt>
      <trkpt lat="46.6286782376502" lon="-1.0765306122448912">
        <ele>31</ele>
      </trkpt>
      <trkpt lat="46.62873450314705" lon="-1.0765134465000885">
        <ele>31</ele>
      </trkpt>
      <trkpt lat="46.62883654396337" lon="-1.0765563608620949">
        <ele>29</ele>
      </trkpt>
      <trkpt lat="46.62883654396337" lon="-1.0765563608620949">
        <ele>29</ele>
      </trkpt>
      <trkpt lat="46.62891760442494" lon="-1.0766517261109982">
        <ele>28</ele>
      </trkpt>
      <trkpt lat="46.62899866488651" lon="-1.0767461377074126">
        <ele>27</ele>
      </trkpt>
      <trkpt lat="46.62899866488651" lon="-1.0767461377074126">
        <ele>27</ele>
      </trkpt>
      <trkpt lat="46.6291903490368" lon="-1.0769940873545611">
        <ele>26</ele>
      </trkpt>
      <trkpt lat="46.62960614152203" lon="-1.077653061224483">
        <ele>29</ele>
      </trkpt>
      <trkpt lat="46.62970150677093" lon="-1.07782376502002">
        <ele>30</ele>
      </trkpt>
      <trkpt lat="46.62975205035285" lon="-1.0779458325386162">
        <ele>30</ele>
      </trkpt>
      <trkpt lat="46.62978828914743" lon="-1.0779973297730239">
        <ele>30</ele>
      </trkpt>
      <trkpt lat="46.62983024985694" lon="-1.0780040053404472">
        <ele>30</ele>
      </trkpt>
      <trkpt lat="46.62992942971581" lon="-1.0779706275033309">
        <ele>31</ele>
      </trkpt>
      <trkpt lat="46.63034045393858" lon="-1.0779544154110174">
        <ele>34</ele>
      </trkpt>
      <trkpt lat="46.63061510585542" lon="-1.0778352088498884">
        <ele>37</ele>
      </trkpt>
      <trkpt lat="46.63072859050162" lon="-1.0777942017928599">
        <ele>38</ele>
      </trkpt>
      <trkpt lat="46.63163169940873" lon="-1.0774308601945384">
        <ele>46</ele>
      </trkpt>
      <trkpt lat="46.6318777417509" lon="-1.0772582490940232">
        <ele>48</ele>
      </trkpt>
      <trkpt lat="46.63238699218005" lon="-1.0767547205798138">
        <ele>52</ele>
      </trkpt>
      <trkpt lat="46.63273412168606" lon="-1.0764609956131916">
        <ele>54</ele>
      </trkpt>
      <trkpt lat="46.63345985123021" lon="-1.0762006484836857">
        <ele>61</ele>
      </trkpt>
      <trkpt lat="46.63386515353805" lon="-1.0761100514972275">
        <ele>64</ele>
      </trkpt>
      <trkpt lat="46.63452794201793" lon="-1.0762826625977426">
        <ele>70</ele>
      </trkpt>
      <trkpt lat="46.63477875262254" lon="-1.076270265115385">
        <ele>71</ele>
      </trkpt>
      <trkpt lat="46.63539481213046" lon="-1.0761272172420302">
        <ele>74</ele>
      </trkpt>
      <trkpt lat="46.63569425901201" lon="-1.076150104901767">
        <ele>75</ele>
      </trkpt>
      <trkpt lat="46.63588975777226" lon="-1.0761291245470082">
        <ele>76</ele>
      </trkpt>
      <trkpt lat="46.6360776273126" lon="-1.0760652298302431">
        <ele>76</ele>
      </trkpt>
      <trkpt lat="46.63723536143429" lon="-1.0754091169177884">
        <ele>79</ele>
      </trkpt>
      <trkpt lat="46.63759679572763" lon="-1.0753232881937753">
        <ele>79</ele>
      </trkpt>
      <trkpt lat="46.63976826244516" lon="-1.0755702841884349">
        <ele>84</ele>
      </trkpt>
      <trkpt lat="46.63999999999999" lon="-1.0755807743658143">
        <ele>84</ele>
      </trkpt>
      <trkpt lat="46.64000000000001" lon="-1.0755807743658143">
        <ele>84</ele>
      </trkpt>
      <trkpt lat="46.64107476635515" lon="-1.075631317947733">
        <ele>86</ele>
      </trkpt>
      <trkpt lat="46.64160499713905" lon="-1.075543581918742">
        <ele>87</ele>
      </trkpt>
      <trkpt lat="46.64218577150487" lon="-1.0753251954987535">
        <ele>88</ele>
      </trkpt>
      <trkpt lat="46.6425481594507" lon="-1.0751592599656616">
        <ele>89</ele>
      </trkpt>
      <trkpt lat="46.64316040434866" lon="-1.0748264352469892">
        <ele>91</ele>
      </trkpt>
      <trkpt lat="46.64344840740035" lon="-1.0746156780469129">
        <ele>93</ele>
      </trkpt>
      <trkpt lat="46.64366488651536" lon="-1.0743829868395889">
        <ele>94</ele>
      </trkpt>
      <trkpt lat="46.64412550066756" lon="-1.0736801449551716">
        <ele>96</ele>
      </trkpt>
      <trkpt lat="46.64436868205227" lon="-1.0732710280373763">
        <ele>98</ele>
      </trkpt>
      <trkpt lat="46.64482262063704" lon="-1.0726034712950532">
        <ele>100</ele>
      </trkpt>
      <trkpt lat="46.645087736029" lon="-1.0722658783139356">
        <ele>101</ele>
      </trkpt>
      <trkpt lat="46.6452527179096" lon="-1.072076101468618">
        <ele>101</ele>
      </trkpt>
      <trkpt lat="46.64528037383178" lon="-1.0720036238794515">
        <ele>101</ele>
      </trkpt>
      <trkpt lat="46.64528037383178" lon="-1.0720036238794515">
        <ele>101</ele>
      </trkpt>
      <trkpt lat="46.64535285142095" lon="-1.0719893190921159">
        <ele>101</ele>
      </trkpt>
      <trkpt lat="46.645522601564" lon="-1.0718424566088049">
        <ele>101</ele>
      </trkpt>
      <trkpt lat="46.64558935723823" lon="-1.0718043105092436">
        <ele>101</ele>
      </trkpt>
      <trkpt lat="46.64558935723823" lon="-1.0718043105092436">
        <ele>101</ele>
      </trkpt>
      <trkpt lat="46.64558554262828" lon="-1.0717156208277636">
        <ele>101</ele>
      </trkpt>
      <trkpt lat="46.64558554262828" lon="-1.0717156208277636">
        <ele>101</ele>
      </trkpt>
      <trkpt lat="46.64567709326722" lon="-1.0712893381651658">
        <ele>100</ele>
      </trkpt>
      <trkpt lat="46.64576196833875" lon="-1.0711100514972276">
        <ele>99</ele>
      </trkpt>
      <trkpt lat="46.6457572000763" lon="-1.0708535189776778">
        <ele>98</ele>
      </trkpt>
      <trkpt lat="46.6456875834446" lon="-1.0704873164218891">
        <ele>96</ele>
      </trkpt>
      <trkpt lat="46.6456875834446" lon="-1.0704873164218891">
        <ele>96</ele>
      </trkpt>
      <trkpt lat="46.64618539004388" lon="-1.0701306503909906">
        <ele>91</ele>
      </trkpt>
      <trkpt lat="46.64652489032997" lon="-1.0699923707800809">
        <ele>89</ele>
      </trkpt>
      <trkpt lat="46.64681193972917" lon="-1.0700476826244447">
        <ele>88</ele>
      </trkpt>
      <trkpt lat="46.64693686820523" lon="-1.0700877360289842">
        <ele>88</ele>
      </trkpt>
      <trkpt lat="46.64754053023079" lon="-1.0699589929429647">
        <ele>86</ele>
      </trkpt>
      <trkpt lat="46.64812988746901" lon="-1.0697654014876912">
        <ele>85</ele>
      </trkpt>
      <trkpt lat="46.64856284569903" lon="-1.0697263017356407">
        <ele>84</ele>
      </trkpt>
      <trkpt lat="46.64856284569903" lon="-1.0697263017356407">
        <ele>84</ele>
      </trkpt>
      <trkpt lat="46.64875548350182" lon="-1.0697015067709259">
        <ele>84</ele>
      </trkpt>
      <trkpt lat="46.64895479687203" lon="-1.0696051878695336">
        <ele>83</ele>
      </trkpt>
      <trkpt lat="46.64905779134084" lon="-1.0694764447835141">
        <ele>82</ele>
      </trkpt>
      <trkpt lat="46.64917509059699" lon="-1.0692618729734817">
        <ele>81</ele>
      </trkpt>
      <trkpt lat="46.64927140949838" lon="-1.0691216860575938">
        <ele>80</ele>
      </trkpt>
      <trkpt lat="46.64969101659356" lon="-1.0692189586114751">
        <ele>79</ele>
      </trkpt>
      <trkpt lat="46.65003719244708" lon="-1.0692504291436133">
        <ele>79</ele>
      </trkpt>
      <trkpt lat="46.65032042723632" lon="-1.0690892618729666">
        <ele>77</ele>
      </trkpt>
      <trkpt lat="46.65064848369255" lon="-1.0690358573335808">
        <ele>76</ele>
      </trkpt>
      <trkpt lat="46.65076673660119" lon="-1.0688327293534168">
        <ele>75</ele>
      </trkpt>
      <trkpt lat="46.65079534617586" lon="-1.068639137898143">
        <ele>74</ele>
      </trkpt>
      <trkpt lat="46.65090596986459" lon="-1.0684245660881106">
        <ele>73</ele>
      </trkpt>
      <trkpt lat="46.65106046156781" lon="-1.0684674804501171">
        <ele>73</ele>
      </trkpt>
      <trkpt lat="46.65105378600039" lon="-1.0679849322906665">
        <ele>70</ele>
      </trkpt>
      <trkpt lat="46.65095079153157" lon="-1.0678771695594058">
        <ele>70</ele>
      </trkpt>
      <trkpt lat="46.65082490940302" lon="-1.0675987030326082">
        <ele>67</ele>
      </trkpt>
      <trkpt lat="46.65092122830441" lon="-1.0672983024985627">
        <ele>64</ele>
      </trkpt>
      <trkpt lat="46.65103852756057" lon="-1.0670408163265237">
        <ele>60</ele>
      </trkpt>
      <trkpt lat="46.65090596986459" lon="-1.0666870112530926">
        <ele>53</ele>
      </trkpt>
      <trkpt lat="46.65077818043105" lon="-1.0665782948693427">
        <ele>50</ele>
      </trkpt>
      <trkpt lat="46.65071047110433" lon="-1.0662836162502316">
        <ele>45</ele>
      </trkpt>
      <trkpt lat="46.65134274270456" lon="-1.0659126454319978">
        <ele>43</ele>
      </trkpt>
      <trkpt lat="46.65163360671372" lon="-1.0656675567423162">
        <ele>43</ele>
      </trkpt>
      <trkpt lat="46.65196929238986" lon="-1.0655092504291368">
        <ele>44</ele>
      </trkpt>
      <trkpt lat="46.65217337402251" lon="-1.0654815945069549">
        <ele>46</ele>
      </trkpt>
      <trkpt lat="46.65271886324624" lon="-1.0654672897196193">
        <ele>48</ele>
      </trkpt>
      <trkpt lat="46.65319092122831" lon="-1.0653118443639069">
        <ele>45</ele>
      </trkpt>
      <trkpt lat="46.65326435246997" lon="-1.0653480831584903">
        <ele>45</ele>
      </trkpt>
      <trkpt lat="46.65326435246997" lon="-1.0653480831584903">
        <ele>45</ele>
      </trkpt>
      <trkpt lat="46.6533071180857" lon="-1.0653327341132395">
        <ele>44</ele>
      </trkpt>
    </trkseg>
  </trk>
</gpx>