<?xml version="1.0" encoding="UTF-8"?>
<gpx version="1.1" creator="gpx-processor" xmlns="http://www.topografix.com/GPX/1/1">
  <metadata><name>vzt 33 km 2019</name></metadata>
  <trk>
    <name>vzt 33 km 2019</name>
    <trkseg>
      <trkpt lat="52.051672" lon="6.082714"><ele>0.0</ele></trkpt>
      <trkpt lat="52.052240" lon="6.083808"><ele>0.0</ele></trkpt>
      <trkpt lat="52.052741" lon="6.084312"><ele>0.0</ele></trkpt>
      <trkpt lat="52.053770" lon="6.082006"><ele>0.0</ele></trkpt>
      <trkpt lat="52.054321" lon="6.081453"><ele>0.0</ele></trkpt>
      <trkpt lat="52.054575" lon="6.081957"><ele>0.0</ele></trkpt>
      <trkpt lat="52.054654" lon="6.081560"><ele>0.0</ele></trkpt>
      <trkpt lat="52.055446" lon="6.080675"><ele>0.0</ele></trkpt>
      <trkpt lat="52.055881" lon="6.080815"><ele>0.0</ele></trkpt>
      <trkpt lat="52.056020" lon="6.081190"><ele>0.0</ele></trkpt>
      <trkpt lat="52.057682" lon="6.077714"><ele>0.0</ele></trkpt>
      <trkpt lat="52.057907" lon="6.077499"><ele>0.0</ele></trkpt>
      <trkpt lat="52.058355" lon="6.076534"><ele>0.0</ele></trkpt>
      <trkpt lat="52.058725" lon="6.076534"><ele>0.0</ele></trkpt>
      <trkpt lat="52.058758" lon="6.076448"><ele>0.0</ele></trkpt>
      <trkpt lat="52.061278" lon="6.076587"><ele>0.0</ele></trkpt>
      <trkpt lat="52.064450" lon="6.076566"><ele>0.0</ele></trkpt>
      <trkpt lat="52.064431" lon="6.076834"><ele>0.0</ele></trkpt>
      <trkpt lat="52.065202" lon="6.077446"><ele>0.0</ele></trkpt>
      <trkpt lat="52.065967" lon="6.078744"><ele>0.0</ele></trkpt>
      <trkpt lat="52.066535" lon="6.076984"><ele>0.0</ele></trkpt>
      <trkpt lat="52.067009" lon="6.074764"><ele>0.0</ele></trkpt>
      <trkpt lat="52.068678" lon="6.072274"><ele>0.0</ele></trkpt>
      <trkpt lat="52.068797" lon="6.072468"><ele>0.0</ele></trkpt>
      <trkpt lat="52.070076" lon="6.071523"><ele>0.0</ele></trkpt>
      <trkpt lat="52.070683" lon="6.070708"><ele>0.0</ele></trkpt>
      <trkpt lat="52.070769" lon="6.070697"><ele>0.0</ele></trkpt>
      <trkpt lat="52.070709" lon="6.070257"><ele>0.0</ele></trkpt>
      <trkpt lat="52.070920" lon="6.069678"><ele>0.0</ele></trkpt>
      <trkpt lat="52.070762" lon="6.069195"><ele>0.0</ele></trkpt>
      <trkpt lat="52.070788" lon="6.068841"><ele>0.0</ele></trkpt>
      <trkpt lat="52.073268" lon="6.065773"><ele>0.0</ele></trkpt>
      <trkpt lat="52.073374" lon="6.066105"><ele>0.0</ele></trkpt>
      <trkpt lat="52.073538" lon="6.066245"><ele>0.0</ele></trkpt>
      <trkpt lat="52.074165" lon="6.065773"><ele>0.0</ele></trkpt>
      <trkpt lat="52.074422" lon="6.066416"><ele>0.0</ele></trkpt>
      <trkpt lat="52.074686" lon="6.066127"><ele>0.0</ele></trkpt>
      <trkpt lat="52.074040" lon="6.063927"><ele>0.0</ele></trkpt>
      <trkpt lat="52.080548" lon="6.059024"><ele>0.0</ele></trkpt>
      <trkpt lat="52.081978" lon="6.054743"><ele>0.0</ele></trkpt>
      <trkpt lat="52.082104" lon="6.054829"><ele>0.0</ele></trkpt>
      <trkpt lat="52.082203" lon="6.053885"><ele>0.0</ele></trkpt>
      <trkpt lat="52.082110" lon="6.053660"><ele>0.0</ele></trkpt>
      <trkpt lat="52.082216" lon="6.052823"><ele>0.0</ele></trkpt>
      <trkpt lat="52.082348" lon="6.052598"><ele>0.0</ele></trkpt>
      <trkpt lat="52.081273" lon="6.050291"><ele>0.0</ele></trkpt>
      <trkpt lat="52.080719" lon="6.048231"><ele>0.0</ele></trkpt>
      <trkpt lat="52.081774" lon="6.046708"><ele>0.0</ele></trkpt>
      <trkpt lat="52.081425" lon="6.046010"><ele>0.0</ele></trkpt>
      <trkpt lat="52.081418" lon="6.045345"><ele>0.0</ele></trkpt>
      <trkpt lat="52.081517" lon="6.044916"><ele>0.0</ele></trkpt>
      <trkpt lat="52.081893" lon="6.044422"><ele>0.0</ele></trkpt>
      <trkpt lat="52.082196" lon="6.044251"><ele>0.0</ele></trkpt>
      <trkpt lat="52.082480" lon="6.043822"><ele>0.0</ele></trkpt>
      <trkpt lat="52.082638" lon="6.043811"><ele>0.0</ele></trkpt>
      <trkpt lat="52.082763" lon="6.043446"><ele>0.0</ele></trkpt>
      <trkpt lat="52.082559" lon="6.042985"><ele>0.0</ele></trkpt>
      <trkpt lat="52.085407" lon="6.038951"><ele>0.0</ele></trkpt>
      <trkpt lat="52.085684" lon="6.039648"><ele>0.0</ele></trkpt>
      <trkpt lat="52.086191" lon="6.038897"><ele>0.0</ele></trkpt>
      <trkpt lat="52.085275" lon="6.037009"><ele>0.0</ele></trkpt>
      <trkpt lat="52.085117" lon="6.036290"><ele>0.0</ele></trkpt>
      <trkpt lat="52.085209" lon="6.035925"><ele>0.0</ele></trkpt>
      <trkpt lat="52.085862" lon="6.035174"><ele>0.0</ele></trkpt>
      <trkpt lat="52.084583" lon="6.032513"><ele>0.0</ele></trkpt>
      <trkpt lat="52.085420" lon="6.031741"><ele>0.0</ele></trkpt>
      <trkpt lat="52.085591" lon="6.031376"><ele>0.0</ele></trkpt>
      <trkpt lat="52.085407" lon="6.030807"><ele>0.0</ele></trkpt>
      <trkpt lat="52.084866" lon="6.029820"><ele>0.0</ele></trkpt>
      <trkpt lat="52.082809" lon="6.025035"><ele>0.0</ele></trkpt>
      <trkpt lat="52.083033" lon="6.024596"><ele>0.0</ele></trkpt>
      <trkpt lat="52.082559" lon="6.023426"><ele>0.0</ele></trkpt>
      <trkpt lat="52.082506" lon="6.023115"><ele>0.0</ele></trkpt>
      <trkpt lat="52.083482" lon="6.020958"><ele>0.0</ele></trkpt>
      <trkpt lat="52.083534" lon="6.020325"><ele>0.0</ele></trkpt>
      <trkpt lat="52.083482" lon="6.019757"><ele>0.0</ele></trkpt>
      <trkpt lat="52.083363" lon="6.019296"><ele>0.0</ele></trkpt>
      <trkpt lat="52.082196" lon="6.017729"><ele>0.0</ele></trkpt>
      <trkpt lat="52.081675" lon="6.016388"><ele>0.0</ele></trkpt>
      <trkpt lat="52.081557" lon="6.016291"><ele>0.0</ele></trkpt>
      <trkpt lat="52.082091" lon="6.014650"><ele>0.0</ele></trkpt>
      <trkpt lat="52.081636" lon="6.012772"><ele>0.0</ele></trkpt>
      <trkpt lat="52.081708" lon="6.012515"><ele>0.0</ele></trkpt>
      <trkpt lat="52.079110" lon="6.011174"><ele>0.0</ele></trkpt>
      <trkpt lat="52.078286" lon="6.010637"><ele>0.0</ele></trkpt>
      <trkpt lat="52.077594" lon="6.009521"><ele>0.0</ele></trkpt>
      <trkpt lat="52.076216" lon="6.007966"><ele>0.0</ele></trkpt>
      <trkpt lat="52.075378" lon="6.007665"><ele>0.0</ele></trkpt>
      <trkpt lat="52.075022" lon="6.007322"><ele>0.0</ele></trkpt>
      <trkpt lat="52.074336" lon="6.007043"><ele>0.0</ele></trkpt>
      <trkpt lat="52.074158" lon="6.008813"><ele>0.0</ele></trkpt>
      <trkpt lat="52.071745" lon="6.009006"><ele>0.0</ele></trkpt>
      <trkpt lat="52.070973" lon="6.008695"><ele>0.0</ele></trkpt>
      <trkpt lat="52.071112" lon="6.008953"><ele>0.0</ele></trkpt>
      <trkpt lat="52.067544" lon="6.014006"><ele>0.0</ele></trkpt>
      <trkpt lat="52.066634" lon="6.015422"><ele>0.0</ele></trkpt>
      <trkpt lat="52.066607" lon="6.015626"><ele>0.0</ele></trkpt>
      <trkpt lat="52.067656" lon="6.017987"><ele>0.0</ele></trkpt>
      <trkpt lat="52.068269" lon="6.018383"><ele>0.0</ele></trkpt>
      <trkpt lat="52.068414" lon="6.018759"><ele>0.0</ele></trkpt>
      <trkpt lat="52.067445" lon="6.020197"><ele>0.0</ele></trkpt>
      <trkpt lat="52.069140" lon="6.023544"><ele>0.0</ele></trkpt>
      <trkpt lat="52.067847" lon="6.025347"><ele>0.0</ele></trkpt>
      <trkpt lat="52.067234" lon="6.023727"><ele>0.0</ele></trkpt>
      <trkpt lat="52.064041" lon="6.022621"><ele>0.0</ele></trkpt>
      <trkpt lat="52.064747" lon="6.015090"><ele>0.0</ele></trkpt>
      <trkpt lat="52.063434" lon="6.007944"><ele>0.0</ele></trkpt>
      <trkpt lat="52.064351" lon="6.006195"><ele>0.0</ele></trkpt>
      <trkpt lat="52.064160" lon="6.006110"><ele>0.0</ele></trkpt>
      <trkpt lat="52.062907" lon="6.006120"><ele>0.0</ele></trkpt>
      <trkpt lat="52.061917" lon="6.005938"><ele>0.0</ele></trkpt>
      <trkpt lat="52.061647" lon="6.006024"><ele>0.0</ele></trkpt>
      <trkpt lat="52.059219" lon="6.005573"><ele>0.0</ele></trkpt>
      <trkpt lat="52.056700" lon="6.003932"><ele>0.0</ele></trkpt>
      <trkpt lat="52.055420" lon="6.002172"><ele>0.0</ele></trkpt>
      <trkpt lat="52.054430" lon="6.000338"><ele>0.0</ele></trkpt>
      <trkpt lat="52.054021" lon="5.998406"><ele>0.0</ele></trkpt>
      <trkpt lat="52.054641" lon="5.992645"><ele>0.0</ele></trkpt>
      <trkpt lat="52.054773" lon="5.992087"><ele>0.0</ele></trkpt>
      <trkpt lat="52.054793" lon="5.991186"><ele>0.0</ele></trkpt>
      <trkpt lat="52.054918" lon="5.990682"><ele>0.0</ele></trkpt>
      <trkpt lat="52.055037" lon="5.989115"><ele>0.0</ele></trkpt>
      <trkpt lat="52.055037" lon="5.988118"><ele>0.0</ele></trkpt>
      <trkpt lat="52.047601" lon="5.981766"><ele>0.0</ele></trkpt>
      <trkpt lat="52.047390" lon="5.981712"><ele>0.0</ele></trkpt>
      <trkpt lat="52.039815" lon="5.976251"><ele>0.0</ele></trkpt>
      <trkpt lat="52.026680" lon="5.969278"><ele>0.0</ele></trkpt>
      <trkpt lat="52.022164" lon="5.973043"><ele>0.0</ele></trkpt>
      <trkpt lat="52.021722" lon="5.973140"><ele>0.0</ele></trkpt>
      <trkpt lat="52.021577" lon="5.973494"><ele>0.0</ele></trkpt>
      <trkpt lat="52.020164" lon="5.974717"><ele>0.0</ele></trkpt>
      <trkpt lat="52.018216" lon="5.976069"><ele>0.0</ele></trkpt>
      <trkpt lat="52.018315" lon="5.977635"><ele>0.0</ele></trkpt>
      <trkpt lat="52.017919" lon="5.979009"><ele>0.0</ele></trkpt>
      <trkpt lat="52.017879" lon="5.980200"><ele>0.0</ele></trkpt>
      <trkpt lat="52.017945" lon="5.980875"><ele>0.0</ele></trkpt>
      <trkpt lat="52.018124" lon="5.981390"><ele>0.0</ele></trkpt>
      <trkpt lat="52.018018" lon="5.982270"><ele>0.0</ele></trkpt>
      <trkpt lat="52.018064" lon="5.983761"><ele>0.0</ele></trkpt>
      <trkpt lat="52.018361" lon="5.985639"><ele>0.0</ele></trkpt>
      <trkpt lat="52.018619" lon="5.988193"><ele>0.0</ele></trkpt>
      <trkpt lat="52.018989" lon="5.988922"><ele>0.0</ele></trkpt>
      <trkpt lat="52.018975" lon="5.989523"><ele>0.0</ele></trkpt>
      <trkpt lat="52.018441" lon="5.990714"><ele>0.0</ele></trkpt>
      <trkpt lat="52.017800" lon="5.991744"><ele>0.0</ele></trkpt>
      <trkpt lat="52.017708" lon="5.992409"><ele>0.0</ele></trkpt>
      <trkpt lat="52.017510" lon="5.992409"><ele>0.0</ele></trkpt>
      <trkpt lat="52.017549" lon="5.992752"><ele>0.0</ele></trkpt>
      <trkpt lat="52.017826" lon="5.993525"><ele>0.0</ele></trkpt>
      <trkpt lat="52.018592" lon="5.994168"><ele>0.0</ele></trkpt>
      <trkpt lat="52.018969" lon="5.994330"><ele>0.0</ele></trkpt>
      <trkpt lat="52.018989" lon="5.994952"><ele>0.0</ele></trkpt>
      <trkpt lat="52.019213" lon="5.995746"><ele>0.0</ele></trkpt>
      <trkpt lat="52.019517" lon="5.996497"><ele>0.0</ele></trkpt>
      <trkpt lat="52.020005" lon="5.997087"><ele>0.0</ele></trkpt>
      <trkpt lat="52.020237" lon="5.998331"><ele>0.0</ele></trkpt>
      <trkpt lat="52.020309" lon="5.999436"><ele>0.0</ele></trkpt>
      <trkpt lat="52.020032" lon="5.999908"><ele>0.0</ele></trkpt>
      <trkpt lat="52.019913" lon="6.000284"><ele>0.0</ele></trkpt>
      <trkpt lat="52.020309" lon="6.000584"><ele>0.0</ele></trkpt>
      <trkpt lat="52.021035" lon="6.001636"><ele>0.0</ele></trkpt>
      <trkpt lat="52.021471" lon="6.002097"><ele>0.0</ele></trkpt>
      <trkpt lat="52.021616" lon="6.002065"><ele>0.0</ele></trkpt>
      <trkpt lat="52.021695" lon="6.002301"><ele>0.0</ele></trkpt>
      <trkpt lat="52.022138" lon="6.002376"><ele>0.0</ele></trkpt>
      <trkpt lat="52.022402" lon="6.002569"><ele>0.0</ele></trkpt>
      <trkpt lat="52.022600" lon="6.002934"><ele>0.0</ele></trkpt>
      <trkpt lat="52.023056" lon="6.003363"><ele>0.0</ele></trkpt>
      <trkpt lat="52.023854" lon="6.004822"><ele>0.0</ele></trkpt>
      <trkpt lat="52.024231" lon="6.005015"><ele>0.0</ele></trkpt>
      <trkpt lat="52.024896" lon="6.004028"><ele>0.0</ele></trkpt>
      <trkpt lat="52.025356" lon="6.003835"><ele>0.0</ele></trkpt>
      <trkpt lat="52.025737" lon="6.004200"><ele>0.0</ele></trkpt>
      <trkpt lat="52.025848" lon="6.004440"><ele>0.0</ele></trkpt>
      <trkpt lat="52.025813" lon="6.004849"><ele>0.0</ele></trkpt>
      <trkpt lat="52.025417" lon="6.006210"><ele>0.0</ele></trkpt>
      <trkpt lat="52.024475" lon="6.008606"><ele>0.0</ele></trkpt>
      <trkpt lat="52.024209" lon="6.008609"><ele>0.0</ele></trkpt>
      <trkpt lat="52.023422" lon="6.009577"><ele>0.0</ele></trkpt>
      <trkpt lat="52.023335" lon="6.010050"><ele>0.0</ele></trkpt>
      <trkpt lat="52.022760" lon="6.010307"><ele>0.0</ele></trkpt>
      <trkpt lat="52.022518" lon="6.010876"><ele>0.0</ele></trkpt>
      <trkpt lat="52.021694" lon="6.012046"><ele>0.0</ele></trkpt>
      <trkpt lat="52.021121" lon="6.012640"><ele>0.0</ele></trkpt>
      <trkpt lat="52.020601" lon="6.013484"><ele>0.0</ele></trkpt>
      <trkpt lat="52.020447" lon="6.014214"><ele>0.0</ele></trkpt>
      <trkpt lat="52.020566" lon="6.015215"><ele>0.0</ele></trkpt>
      <trkpt lat="52.020931" lon="6.015931"><ele>0.0</ele></trkpt>
      <trkpt lat="52.020927" lon="6.016553"><ele>0.0</ele></trkpt>
      <trkpt lat="52.021064" lon="6.017047"><ele>0.0</ele></trkpt>
      <trkpt lat="52.020530" lon="6.018320"><ele>0.0</ele></trkpt>
      <trkpt lat="52.021173" lon="6.017640"><ele>0.0</ele></trkpt>
      <trkpt lat="52.021736" lon="6.017504"><ele>0.0</ele></trkpt>
      <trkpt lat="52.022348" lon="6.018434"><ele>0.0</ele></trkpt>
      <trkpt lat="52.022630" lon="6.020008"><ele>0.0</ele></trkpt>
      <trkpt lat="52.022241" lon="6.021453"><ele>0.0</ele></trkpt>
      <trkpt lat="52.021563" lon="6.022326"><ele>0.0</ele></trkpt>
      <trkpt lat="52.020444" lon="6.023028"><ele>0.0</ele></trkpt>
      <trkpt lat="52.020294" lon="6.023971"><ele>0.0</ele></trkpt>
      <trkpt lat="52.020735" lon="6.024744"><ele>0.0</ele></trkpt>
      <trkpt lat="52.020893" lon="6.025717"><ele>0.0</ele></trkpt>
      <trkpt lat="52.020870" lon="6.026355"><ele>0.0</ele></trkpt>
      <trkpt lat="52.020421" lon="6.026516"><ele>0.0</ele></trkpt>
      <trkpt lat="52.020058" lon="6.026924"><ele>0.0</ele></trkpt>
      <trkpt lat="52.019666" lon="6.027846"><ele>0.0</ele></trkpt>
      <trkpt lat="52.019789" lon="6.028247"><ele>0.0</ele></trkpt>
      <trkpt lat="52.020186" lon="6.027904"><ele>0.0</ele></trkpt>
      <trkpt lat="52.020851" lon="6.028651"><ele>0.0</ele></trkpt>
      <trkpt lat="52.021101" lon="6.029263"><ele>0.0</ele></trkpt>
      <trkpt lat="52.021273" lon="6.029252"><ele>0.0</ele></trkpt>
      <trkpt lat="52.021379" lon="6.029080"><ele>0.0</ele></trkpt>
      <trkpt lat="52.021524" lon="6.028297"><ele>0.0</ele></trkpt>
      <trkpt lat="52.022092" lon="6.026774"><ele>0.0</ele></trkpt>
      <trkpt lat="52.022395" lon="6.026398"><ele>0.0</ele></trkpt>
      <trkpt lat="52.023181" lon="6.026698"><ele>0.0</ele></trkpt>
      <trkpt lat="52.024105" lon="6.027278"><ele>0.0</ele></trkpt>
      <trkpt lat="52.024845" lon="6.026838"><ele>0.0</ele></trkpt>
      <trkpt lat="52.024963" lon="6.026612"><ele>0.0</ele></trkpt>
      <trkpt lat="52.025346" lon="6.026967"><ele>0.0</ele></trkpt>
      <trkpt lat="52.026442" lon="6.026226"><ele>0.0</ele></trkpt>
      <trkpt lat="52.026911" lon="6.026344"><ele>0.0</ele></trkpt>
      <trkpt lat="52.027446" lon="6.026087"><ele>0.0</ele></trkpt>
      <trkpt lat="52.027631" lon="6.026387"><ele>0.0</ele></trkpt>
      <trkpt lat="52.027591" lon="6.027138"><ele>0.0</ele></trkpt>
      <trkpt lat="52.027789" lon="6.027900"><ele>0.0</ele></trkpt>
      <trkpt lat="52.027551" lon="6.030196"><ele>0.0</ele></trkpt>
      <trkpt lat="52.027182" lon="6.030722"><ele>0.0</ele></trkpt>
      <trkpt lat="52.027175" lon="6.031108"><ele>0.0</ele></trkpt>
      <trkpt lat="52.027284" lon="6.031392"><ele>0.0</ele></trkpt>
      <trkpt lat="52.027432" lon="6.031478"><ele>0.0</ele></trkpt>
      <trkpt lat="52.027508" lon="6.031757"><ele>0.0</ele></trkpt>
      <trkpt lat="52.027637" lon="6.031789"><ele>0.0</ele></trkpt>
      <trkpt lat="52.027657" lon="6.032041"><ele>0.0</ele></trkpt>
      <trkpt lat="52.027782" lon="6.032299"><ele>0.0</ele></trkpt>
      <trkpt lat="52.028000" lon="6.032154"><ele>0.0</ele></trkpt>
      <trkpt lat="52.028159" lon="6.031837"><ele>0.0</ele></trkpt>
      <trkpt lat="52.028259" lon="6.032411"><ele>0.0</ele></trkpt>
      <trkpt lat="52.028873" lon="6.033003"><ele>0.0</ele></trkpt>
      <trkpt lat="52.029160" lon="6.031621"><ele>0.0</ele></trkpt>
      <trkpt lat="52.029508" lon="6.030764"><ele>0.0</ele></trkpt>
      <trkpt lat="52.030291" lon="6.030883"><ele>0.0</ele></trkpt>
      <trkpt lat="52.030403" lon="6.031880"><ele>0.0</ele></trkpt>
      <trkpt lat="52.032225" lon="6.035185"><ele>0.0</ele></trkpt>
      <trkpt lat="52.032825" lon="6.036494"><ele>0.0</ele></trkpt>
      <trkpt lat="52.032852" lon="6.036848"><ele>0.0</ele></trkpt>
      <trkpt lat="52.033301" lon="6.037416"><ele>0.0</ele></trkpt>
      <trkpt lat="52.033842" lon="6.037492"><ele>0.0</ele></trkpt>
      <trkpt lat="52.036060" lon="6.038296"><ele>0.0</ele></trkpt>
      <trkpt lat="52.036495" lon="6.038725"><ele>0.0</ele></trkpt>
      <trkpt lat="52.036647" lon="6.039069"><ele>0.0</ele></trkpt>
      <trkpt lat="52.036858" lon="6.039187"><ele>0.0</ele></trkpt>
      <trkpt lat="52.036700" lon="6.040989"><ele>0.0</ele></trkpt>
      <trkpt lat="52.036436" lon="6.042556"><ele>0.0</ele></trkpt>
      <trkpt lat="52.035974" lon="6.043897"><ele>0.0</ele></trkpt>
      <trkpt lat="52.034713" lon="6.046257"><ele>0.0</ele></trkpt>
      <trkpt lat="52.035162" lon="6.046815"><ele>0.0</ele></trkpt>
      <trkpt lat="52.035835" lon="6.048145"><ele>0.0</ele></trkpt>
      <trkpt lat="52.035967" lon="6.048811"><ele>0.0</ele></trkpt>
      <trkpt lat="52.036436" lon="6.049765"><ele>0.0</ele></trkpt>
      <trkpt lat="52.037168" lon="6.050506"><ele>0.0</ele></trkpt>
      <trkpt lat="52.037624" lon="6.051385"><ele>0.0</ele></trkpt>
      <trkpt lat="52.039247" lon="6.052705"><ele>0.0</ele></trkpt>
      <trkpt lat="52.039914" lon="6.054207"><ele>0.0</ele></trkpt>
      <trkpt lat="52.039788" lon="6.054443"><ele>0.0</ele></trkpt>
      <trkpt lat="52.039894" lon="6.054711"><ele>0.0</ele></trkpt>
      <trkpt lat="52.040455" lon="6.054958"><ele>0.0</ele></trkpt>
      <trkpt lat="52.041643" lon="6.057383"><ele>0.0</ele></trkpt>
      <trkpt lat="52.039993" lon="6.057962"><ele>0.0</ele></trkpt>
      <trkpt lat="52.042190" lon="6.061170"><ele>0.0</ele></trkpt>
      <trkpt lat="52.042408" lon="6.061717"><ele>0.0</ele></trkpt>
      <trkpt lat="52.043398" lon="6.063069"><ele>0.0</ele></trkpt>
      <trkpt lat="52.043345" lon="6.063713"><ele>0.0</ele></trkpt>
      <trkpt lat="52.042270" lon="6.065075"><ele>0.0</ele></trkpt>
      <trkpt lat="52.042501" lon="6.070622"><ele>0.0</ele></trkpt>
      <trkpt lat="52.044210" lon="6.074184"><ele>0.0</ele></trkpt>
      <trkpt lat="52.046031" lon="6.071738"><ele>0.0</ele></trkpt>
      <trkpt lat="52.049713" lon="6.078068"><ele>0.0</ele></trkpt>
      <trkpt lat="52.049805" lon="6.078025"><ele>0.0</ele></trkpt>
      <trkpt lat="52.049904" lon="6.078390"><ele>0.0</ele></trkpt>
      <trkpt lat="52.051428" lon="6.080922"><ele>0.0</ele></trkpt>
      <trkpt lat="52.051395" lon="6.081029"><ele>0.0</ele></trkpt>
      <trkpt lat="52.051620" lon="6.081415"><ele>0.0</ele></trkpt>
      <trkpt lat="52.051699" lon="6.082027"><ele>0.0</ele></trkpt>
      <trkpt lat="52.051521" lon="6.082488"><ele>0.0</ele></trkpt>
      <trkpt lat="52.051600" lon="6.082628"><ele>0.0</ele></trkpt>
    </trkseg>
  </trk>
</gpx>
