<?xml version="1.0" encoding="UTF-8"?>
<gpx version="1.1" creator="gpx-processor" xmlns="http://www.topografix.com/GPX/1/1">
  <metadata><name>Rheden Running</name></metadata>
  <trk>
    <name>Rheden Running</name>
    <trkseg>
      <trkpt lat="52.051721" lon="6.082127"><ele>25.4</ele></trkpt>
      <trkpt lat="52.051517" lon="6.082225"><ele>26.2</ele></trkpt>
      <trkpt lat="52.051608" lon="6.082577"><ele>25.4</ele></trkpt>
      <trkpt lat="52.052289" lon="6.083867"><ele>25.6</ele></trkpt>
      <trkpt lat="52.052688" lon="6.084257"><ele>27.2</ele></trkpt>
      <trkpt lat="52.053820" lon="6.081967"><ele>25.2</ele></trkpt>
      <trkpt lat="52.054189" lon="6.081569"><ele>25.0</ele></trkpt>
      <trkpt lat="52.054373" lon="6.081810"><ele>24.6</ele></trkpt>
      <trkpt lat="52.054368" lon="6.081332"><ele>24.8</ele></trkpt>
      <trkpt lat="52.054565" lon="6.081583"><ele>24.0</ele></trkpt>
      <trkpt lat="52.055427" lon="6.080711"><ele>34.0</ele></trkpt>
      <trkpt lat="52.055713" lon="6.080712"><ele>36.0</ele></trkpt>
      <trkpt lat="52.055940" lon="6.080910"><ele>37.0</ele></trkpt>
      <trkpt lat="52.056127" lon="6.080902"><ele>37.8</ele></trkpt>
      <trkpt lat="52.056496" lon="6.080302"><ele>39.4</ele></trkpt>
      <trkpt lat="52.056911" lon="6.079194"><ele>42.6</ele></trkpt>
      <trkpt lat="52.057183" lon="6.078805"><ele>40.6</ele></trkpt>
      <trkpt lat="52.057346" lon="6.078308"><ele>39.8</ele></trkpt>
      <trkpt lat="52.057677" lon="6.077944"><ele>41.0</ele></trkpt>
      <trkpt lat="52.057802" lon="6.077567"><ele>42.0</ele></trkpt>
      <trkpt lat="52.058209" lon="6.076904"><ele>43.0</ele></trkpt>
      <trkpt lat="52.058650" lon="6.076705"><ele>44.0</ele></trkpt>
      <trkpt lat="52.058903" lon="6.076725"><ele>44.0</ele></trkpt>
      <trkpt lat="52.059027" lon="6.076859"><ele>43.8</ele></trkpt>
      <trkpt lat="52.059890" lon="6.076642"><ele>43.0</ele></trkpt>
      <trkpt lat="52.061693" lon="6.076762"><ele>39.6</ele></trkpt>
      <trkpt lat="52.064103" lon="6.076623"><ele>41.4</ele></trkpt>
      <trkpt lat="52.065013" lon="6.077231"><ele>41.4</ele></trkpt>
      <trkpt lat="52.065370" lon="6.077613"><ele>41.2</ele></trkpt>
      <trkpt lat="52.065661" lon="6.078108"><ele>41.0</ele></trkpt>
      <trkpt lat="52.066106" lon="6.078184"><ele>41.4</ele></trkpt>
      <trkpt lat="52.066284" lon="6.077928"><ele>40.8</ele></trkpt>
      <trkpt lat="52.066457" lon="6.077206"><ele>36.0</ele></trkpt>
      <trkpt lat="52.066430" lon="6.076876"><ele>37.0</ele></trkpt>
      <trkpt lat="52.066729" lon="6.076384"><ele>36.2</ele></trkpt>
      <trkpt lat="52.066985" lon="6.074917"><ele>38.0</ele></trkpt>
      <trkpt lat="52.067357" lon="6.074266"><ele>36.6</ele></trkpt>
      <trkpt lat="52.067593" lon="6.074021"><ele>36.6</ele></trkpt>
      <trkpt lat="52.068370" lon="6.072630"><ele>38.8</ele></trkpt>
      <trkpt lat="52.069098" lon="6.072311"><ele>36.0</ele></trkpt>
      <trkpt lat="52.069750" lon="6.071837"><ele>33.0</ele></trkpt>
      <trkpt lat="52.070658" lon="6.070849"><ele>34.2</ele></trkpt>
      <trkpt lat="52.070887" lon="6.069932"><ele>34.6</ele></trkpt>
      <trkpt lat="52.070786" lon="6.069231"><ele>36.0</ele></trkpt>
      <trkpt lat="52.070861" lon="6.068826"><ele>34.6</ele></trkpt>
      <trkpt lat="52.071512" lon="6.068126"><ele>30.2</ele></trkpt>
      <trkpt lat="52.072844" lon="6.066315"><ele>34.2</ele></trkpt>
      <trkpt lat="52.073127" lon="6.066071"><ele>34.4</ele></trkpt>
      <trkpt lat="52.073285" lon="6.066000"><ele>34.4</ele></trkpt>
      <trkpt lat="52.073364" lon="6.066228"><ele>33.6</ele></trkpt>
      <trkpt lat="52.073478" lon="6.066223"><ele>33.2</ele></trkpt>
      <trkpt lat="52.074009" lon="6.065828"><ele>30.2</ele></trkpt>
      <trkpt lat="52.074279" lon="6.066176"><ele>29.8</ele></trkpt>
      <trkpt lat="52.074542" lon="6.066083"><ele>30.2</ele></trkpt>
      <trkpt lat="52.074443" lon="6.065344"><ele>30.0</ele></trkpt>
      <trkpt lat="52.074257" lon="6.064919"><ele>30.2</ele></trkpt>
      <trkpt lat="52.074218" lon="6.064508"><ele>29.6</ele></trkpt>
      <trkpt lat="52.074132" lon="6.064342"><ele>29.4</ele></trkpt>
      <trkpt lat="52.074119" lon="6.063936"><ele>28.6</ele></trkpt>
      <trkpt lat="52.077417" lon="6.061399"><ele>32.0</ele></trkpt>
      <trkpt lat="52.078075" lon="6.061023"><ele>31.4</ele></trkpt>
      <trkpt lat="52.080055" lon="6.059533"><ele>34.0</ele></trkpt>
      <trkpt lat="52.080480" lon="6.059134"><ele>33.6</ele></trkpt>
      <trkpt lat="52.080646" lon="6.058834"><ele>34.6</ele></trkpt>
      <trkpt lat="52.080902" lon="6.057917"><ele>35.6</ele></trkpt>
      <trkpt lat="52.081526" lon="6.056319"><ele>35.0</ele></trkpt>
      <trkpt lat="52.081696" lon="6.055511"><ele>34.8</ele></trkpt>
      <trkpt lat="52.081858" lon="6.055185"><ele>35.8</ele></trkpt>
      <trkpt lat="52.081843" lon="6.054995"><ele>36.4</ele></trkpt>
      <trkpt lat="52.081936" lon="6.054719"><ele>36.2</ele></trkpt>
      <trkpt lat="52.082077" lon="6.054596"><ele>36.2</ele></trkpt>
      <trkpt lat="52.082151" lon="6.054283"><ele>34.6</ele></trkpt>
      <trkpt lat="52.082063" lon="6.053872"><ele>34.4</ele></trkpt>
      <trkpt lat="52.082199" lon="6.052785"><ele>35.4</ele></trkpt>
      <trkpt lat="52.082173" lon="6.052549"><ele>35.2</ele></trkpt>
      <trkpt lat="52.081918" lon="6.051724"><ele>37.0</ele></trkpt>
      <trkpt lat="52.081303" lon="6.050480"><ele>42.6</ele></trkpt>
      <trkpt lat="52.080747" lon="6.048502"><ele>42.8</ele></trkpt>
      <trkpt lat="52.080791" lon="6.048187"><ele>44.2</ele></trkpt>
      <trkpt lat="52.081058" lon="6.047674"><ele>49.2</ele></trkpt>
      <trkpt lat="52.081645" lon="6.046934"><ele>53.6</ele></trkpt>
      <trkpt lat="52.081614" lon="6.046524"><ele>54.0</ele></trkpt>
      <trkpt lat="52.081382" lon="6.046070"><ele>52.4</ele></trkpt>
      <trkpt lat="52.081478" lon="6.044977"><ele>56.6</ele></trkpt>
      <trkpt lat="52.081558" lon="6.044744"><ele>57.4</ele></trkpt>
      <trkpt lat="52.081959" lon="6.044532"><ele>58.6</ele></trkpt>
      <trkpt lat="52.082652" lon="6.043815"><ele>55.8</ele></trkpt>
      <trkpt lat="52.082575" lon="6.043208"><ele>55.4</ele></trkpt>
      <trkpt lat="52.082708" lon="6.042781"><ele>54.0</ele></trkpt>
      <trkpt lat="52.084250" lon="6.040736"><ele>48.2</ele></trkpt>
      <trkpt lat="52.084495" lon="6.040185"><ele>43.4</ele></trkpt>
      <trkpt lat="52.084887" lon="6.039609"><ele>38.0</ele></trkpt>
      <trkpt lat="52.085358" lon="6.039201"><ele>38.8</ele></trkpt>
      <trkpt lat="52.085667" lon="6.039603"><ele>39.6</ele></trkpt>
      <trkpt lat="52.086055" lon="6.039083"><ele>44.4</ele></trkpt>
      <trkpt lat="52.085861" lon="6.038137"><ele>47.0</ele></trkpt>
      <trkpt lat="52.085226" lon="6.036899"><ele>40.6</ele></trkpt>
      <trkpt lat="52.085150" lon="6.036556"><ele>40.0</ele></trkpt>
      <trkpt lat="52.085236" lon="6.036086"><ele>37.8</ele></trkpt>
      <trkpt lat="52.085807" lon="6.035370"><ele>36.6</ele></trkpt>
      <trkpt lat="52.085848" lon="6.035162"><ele>37.0</ele></trkpt>
      <trkpt lat="52.085294" lon="6.034040"><ele>37.6</ele></trkpt>
      <trkpt lat="52.084727" lon="6.032607"><ele>38.6</ele></trkpt>
      <trkpt lat="52.084539" lon="6.032399"><ele>38.8</ele></trkpt>
      <trkpt lat="52.083902" lon="6.031232"><ele>40.0</ele></trkpt>
      <trkpt lat="52.083580" lon="6.030399"><ele>41.2</ele></trkpt>
      <trkpt lat="52.082614" lon="6.028501"><ele>43.0</ele></trkpt>
      <trkpt lat="52.082573" lon="6.028258"><ele>42.4</ele></trkpt>
      <trkpt lat="52.082655" lon="6.027917"><ele>42.0</ele></trkpt>
      <trkpt lat="52.082094" lon="6.025644"><ele>45.0</ele></trkpt>
      <trkpt lat="52.081748" lon="6.024795"><ele>45.6</ele></trkpt>
      <trkpt lat="52.081592" lon="6.024673"><ele>46.6</ele></trkpt>
      <trkpt lat="52.081109" lon="6.023815"><ele>46.2</ele></trkpt>
      <trkpt lat="52.081071" lon="6.023217"><ele>45.4</ele></trkpt>
      <trkpt lat="52.080958" lon="6.022895"><ele>43.6</ele></trkpt>
      <trkpt lat="52.081184" lon="6.022110"><ele>44.0</ele></trkpt>
      <trkpt lat="52.081595" lon="6.021449"><ele>43.8</ele></trkpt>
      <trkpt lat="52.082032" lon="6.021255"><ele>45.8</ele></trkpt>
      <trkpt lat="52.082113" lon="6.021310"><ele>46.2</ele></trkpt>
      <trkpt lat="52.082271" lon="6.022177"><ele>45.0</ele></trkpt>
      <trkpt lat="52.082482" lon="6.022689"><ele>43.6</ele></trkpt>
      <trkpt lat="52.082570" lon="6.022740"><ele>43.4</ele></trkpt>
      <trkpt lat="52.082611" lon="6.022531"><ele>43.4</ele></trkpt>
      <trkpt lat="52.083305" lon="6.021361"><ele>44.6</ele></trkpt>
      <trkpt lat="52.083465" lon="6.020269"><ele>44.6</ele></trkpt>
      <trkpt lat="52.083400" lon="6.019491"><ele>42.4</ele></trkpt>
      <trkpt lat="52.082888" lon="6.018715"><ele>42.8</ele></trkpt>
      <trkpt lat="52.082770" lon="6.018471"><ele>42.0</ele></trkpt>
      <trkpt lat="52.082766" lon="6.018258"><ele>41.8</ele></trkpt>
      <trkpt lat="52.083524" lon="6.016593"><ele>39.4</ele></trkpt>
      <trkpt lat="52.083986" lon="6.015272"><ele>41.6</ele></trkpt>
      <trkpt lat="52.084133" lon="6.014532"><ele>41.4</ele></trkpt>
      <trkpt lat="52.082965" lon="6.013777"><ele>39.0</ele></trkpt>
      <trkpt lat="52.082361" lon="6.012922"><ele>40.0</ele></trkpt>
      <trkpt lat="52.081173" lon="6.012389"><ele>38.8</ele></trkpt>
      <trkpt lat="52.078172" lon="6.010615"><ele>41.0</ele></trkpt>
      <trkpt lat="52.077999" lon="6.010420"><ele>42.2</ele></trkpt>
      <trkpt lat="52.077591" lon="6.009434"><ele>40.6</ele></trkpt>
      <trkpt lat="52.076628" lon="6.008344"><ele>40.6</ele></trkpt>
      <trkpt lat="52.076281" lon="6.008000"><ele>40.6</ele></trkpt>
      <trkpt lat="52.075383" lon="6.007562"><ele>42.8</ele></trkpt>
      <trkpt lat="52.075020" lon="6.007216"><ele>43.4</ele></trkpt>
      <trkpt lat="52.074582" lon="6.007123"><ele>47.2</ele></trkpt>
      <trkpt lat="52.074243" lon="6.007823"><ele>46.0</ele></trkpt>
      <trkpt lat="52.074017" lon="6.008588"><ele>44.6</ele></trkpt>
      <trkpt lat="52.073562" lon="6.008829"><ele>44.8</ele></trkpt>
      <trkpt lat="52.072427" lon="6.008773"><ele>49.8</ele></trkpt>
      <trkpt lat="52.071748" lon="6.008907"><ele>51.8</ele></trkpt>
      <trkpt lat="52.070858" lon="6.008563"><ele>52.0</ele></trkpt>
      <trkpt lat="52.070929" lon="6.008860"><ele>51.4</ele></trkpt>
      <trkpt lat="52.070880" lon="6.009272"><ele>51.8</ele></trkpt>
      <trkpt lat="52.070614" lon="6.009477"><ele>52.4</ele></trkpt>
      <trkpt lat="52.069885" lon="6.010767"><ele>56.4</ele></trkpt>
      <trkpt lat="52.069110" lon="6.011849"><ele>63.0</ele></trkpt>
      <trkpt lat="52.068608" lon="6.012342"><ele>63.0</ele></trkpt>
      <trkpt lat="52.068344" lon="6.012906"><ele>65.0</ele></trkpt>
      <trkpt lat="52.068141" lon="6.013106"><ele>67.6</ele></trkpt>
      <trkpt lat="52.067624" lon="6.013964"><ele>66.8</ele></trkpt>
      <trkpt lat="52.067530" lon="6.014246"><ele>65.6</ele></trkpt>
      <trkpt lat="52.066622" lon="6.015533"><ele>69.0</ele></trkpt>
      <trkpt lat="52.066630" lon="6.015757"><ele>69.2</ele></trkpt>
      <trkpt lat="52.066805" lon="6.016237"><ele>70.0</ele></trkpt>
      <trkpt lat="52.067402" lon="6.017601"><ele>65.8</ele></trkpt>
      <trkpt lat="52.067653" lon="6.017997"><ele>64.4</ele></trkpt>
      <trkpt lat="52.068179" lon="6.018369"><ele>64.0</ele></trkpt>
      <trkpt lat="52.068352" lon="6.018833"><ele>63.4</ele></trkpt>
      <trkpt lat="52.068343" lon="6.018945"><ele>63.6</ele></trkpt>
      <trkpt lat="52.067819" lon="6.019449"><ele>63.0</ele></trkpt>
      <trkpt lat="52.067571" lon="6.020036"><ele>63.0</ele></trkpt>
      <trkpt lat="52.067779" lon="6.020924"><ele>65.4</ele></trkpt>
      <trkpt lat="52.068976" lon="6.023195"><ele>64.2</ele></trkpt>
      <trkpt lat="52.069081" lon="6.023559"><ele>65.6</ele></trkpt>
      <trkpt lat="52.068410" lon="6.024320"><ele>69.4</ele></trkpt>
      <trkpt lat="52.067896" lon="6.025096"><ele>70.4</ele></trkpt>
      <trkpt lat="52.067452" lon="6.024355"><ele>72.8</ele></trkpt>
      <trkpt lat="52.067418" lon="6.023982"><ele>73.2</ele></trkpt>
      <trkpt lat="52.067270" lon="6.023750"><ele>74.4</ele></trkpt>
      <trkpt lat="52.065876" lon="6.023336"><ele>75.0</ele></trkpt>
      <trkpt lat="52.065019" lon="6.022887"><ele>74.4</ele></trkpt>
      <trkpt lat="52.064198" lon="6.022608"><ele>75.6</ele></trkpt>
      <trkpt lat="52.064087" lon="6.022378"><ele>75.2</ele></trkpt>
      <trkpt lat="52.064093" lon="6.021494"><ele>74.4</ele></trkpt>
      <trkpt lat="52.064312" lon="6.020152"><ele>75.0</ele></trkpt>
      <trkpt lat="52.064664" lon="6.015564"><ele>74.0</ele></trkpt>
      <trkpt lat="52.064654" lon="6.014916"><ele>75.2</ele></trkpt>
      <trkpt lat="52.064555" lon="6.013956"><ele>72.8</ele></trkpt>
      <trkpt lat="52.064417" lon="6.013648"><ele>71.2</ele></trkpt>
      <trkpt lat="52.064444" lon="6.013092"><ele>70.0</ele></trkpt>
      <trkpt lat="52.063831" lon="6.010426"><ele>63.4</ele></trkpt>
      <trkpt lat="52.063646" lon="6.008778"><ele>60.6</ele></trkpt>
      <trkpt lat="52.063467" lon="6.008142"><ele>59.0</ele></trkpt>
      <trkpt lat="52.063810" lon="6.007170"><ele>58.6</ele></trkpt>
      <trkpt lat="52.064303" lon="6.006346"><ele>55.6</ele></trkpt>
      <trkpt lat="52.064332" lon="6.006094"><ele>54.4</ele></trkpt>
      <trkpt lat="52.064252" lon="6.005977"><ele>53.8</ele></trkpt>
      <trkpt lat="52.063844" lon="6.005869"><ele>51.6</ele></trkpt>
      <trkpt lat="52.063634" lon="6.005987"><ele>52.0</ele></trkpt>
      <trkpt lat="52.062831" lon="6.006009"><ele>54.8</ele></trkpt>
      <trkpt lat="52.062202" lon="6.005879"><ele>56.4</ele></trkpt>
      <trkpt lat="52.061286" lon="6.005912"><ele>54.0</ele></trkpt>
      <trkpt lat="52.059783" lon="6.005655"><ele>55.2</ele></trkpt>
      <trkpt lat="52.058972" lon="6.005360"><ele>56.2</ele></trkpt>
      <trkpt lat="52.057885" lon="6.004745"><ele>59.4</ele></trkpt>
      <trkpt lat="52.056754" lon="6.003897"><ele>60.4</ele></trkpt>
      <trkpt lat="52.056451" lon="6.003583"><ele>62.2</ele></trkpt>
      <trkpt lat="52.056310" lon="6.003168"><ele>64.8</ele></trkpt>
      <trkpt lat="52.056147" lon="6.003078"><ele>65.8</ele></trkpt>
      <trkpt lat="52.055647" lon="6.002302"><ele>69.4</ele></trkpt>
      <trkpt lat="52.055144" lon="6.001735"><ele>72.0</ele></trkpt>
      <trkpt lat="52.054377" lon="6.000240"><ele>76.0</ele></trkpt>
      <trkpt lat="52.053995" lon="5.998821"><ele>81.0</ele></trkpt>
      <trkpt lat="52.053961" lon="5.998440"><ele>80.8</ele></trkpt>
      <trkpt lat="52.054182" lon="5.996338"><ele>82.0</ele></trkpt>
      <trkpt lat="52.054460" lon="5.994625"><ele>77.4</ele></trkpt>
      <trkpt lat="52.054463" lon="5.993711"><ele>72.0</ele></trkpt>
      <trkpt lat="52.054766" lon="5.991857"><ele>72.6</ele></trkpt>
      <trkpt lat="52.054841" lon="5.990244"><ele>66.6</ele></trkpt>
      <trkpt lat="52.055039" lon="5.989375"><ele>67.0</ele></trkpt>
      <trkpt lat="52.054954" lon="5.988177"><ele>68.6</ele></trkpt>
      <trkpt lat="52.054811" lon="5.987933"><ele>72.2</ele></trkpt>
      <trkpt lat="52.051785" lon="5.985441"><ele>82.0</ele></trkpt>
      <trkpt lat="52.048030" lon="5.982102"><ele>89.8</ele></trkpt>
      <trkpt lat="52.047251" lon="5.981567"><ele>90.6</ele></trkpt>
      <trkpt lat="52.045391" lon="5.980012"><ele>92.4</ele></trkpt>
      <trkpt lat="52.041816" lon="5.977464"><ele>91.0</ele></trkpt>
      <trkpt lat="52.039634" lon="5.976151"><ele>89.2</ele></trkpt>
      <trkpt lat="52.039577" lon="5.975978"><ele>89.0</ele></trkpt>
      <trkpt lat="52.035848" lon="5.973836"><ele>91.6</ele></trkpt>
      <trkpt lat="52.027980" lon="5.969960"><ele>67.4</ele></trkpt>
      <trkpt lat="52.027406" lon="5.969502"><ele>70.8</ele></trkpt>
      <trkpt lat="52.026857" lon="5.969285"><ele>73.8</ele></trkpt>
      <trkpt lat="52.026453" lon="5.969420"><ele>74.8</ele></trkpt>
      <trkpt lat="52.025006" lon="5.970477"><ele>76.2</ele></trkpt>
      <trkpt lat="52.023714" lon="5.971767"><ele>83.4</ele></trkpt>
      <trkpt lat="52.023264" lon="5.972040"><ele>87.0</ele></trkpt>
      <trkpt lat="52.022268" lon="5.972932"><ele>93.0</ele></trkpt>
      <trkpt lat="52.021720" lon="5.973221"><ele>95.2</ele></trkpt>
      <trkpt lat="52.021386" lon="5.973638"><ele>93.4</ele></trkpt>
      <trkpt lat="52.020720" lon="5.974092"><ele>99.6</ele></trkpt>
      <trkpt lat="52.020390" lon="5.974520"><ele>97.0</ele></trkpt>
      <trkpt lat="52.020047" lon="5.974693"><ele>96.4</ele></trkpt>
      <trkpt lat="52.019826" lon="5.975028"><ele>96.2</ele></trkpt>
      <trkpt lat="52.018698" lon="5.975653"><ele>99.0</ele></trkpt>
      <trkpt lat="52.018258" lon="5.976147"><ele>100.6</ele></trkpt>
      <trkpt lat="52.018312" lon="5.977687"><ele>98.0</ele></trkpt>
      <trkpt lat="52.017916" lon="5.978277"><ele>100.0</ele></trkpt>
      <trkpt lat="52.017879" lon="5.980244"><ele>95.0</ele></trkpt>
      <trkpt lat="52.018099" lon="5.981344"><ele>98.6</ele></trkpt>
      <trkpt lat="52.017979" lon="5.983099"><ele>86.8</ele></trkpt>
      <trkpt lat="52.018081" lon="5.984546"><ele>83.2</ele></trkpt>
      <trkpt lat="52.018290" lon="5.985416"><ele>83.0</ele></trkpt>
      <trkpt lat="52.018455" lon="5.987036"><ele>81.8</ele></trkpt>
      <trkpt lat="52.018861" lon="5.988866"><ele>78.8</ele></trkpt>
      <trkpt lat="52.018871" lon="5.989353"><ele>78.8</ele></trkpt>
      <trkpt lat="52.018749" lon="5.989757"><ele>78.4</ele></trkpt>
      <trkpt lat="52.018604" lon="5.989837"><ele>77.0</ele></trkpt>
      <trkpt lat="52.018427" lon="5.990149"><ele>73.4</ele></trkpt>
      <trkpt lat="52.018366" lon="5.990589"><ele>68.6</ele></trkpt>
      <trkpt lat="52.018200" lon="5.990860"><ele>65.4</ele></trkpt>
      <trkpt lat="52.018254" lon="5.991252"><ele>65.4</ele></trkpt>
      <trkpt lat="52.018621" lon="5.992021"><ele>65.8</ele></trkpt>
      <trkpt lat="52.018593" lon="5.992404"><ele>64.2</ele></trkpt>
      <trkpt lat="52.018369" lon="5.992486"><ele>62.8</ele></trkpt>
      <trkpt lat="52.017924" lon="5.992411"><ele>58.8</ele></trkpt>
      <trkpt lat="52.017659" lon="5.992586"><ele>58.0</ele></trkpt>
      <trkpt lat="52.017631" lon="5.992729"><ele>58.2</ele></trkpt>
      <trkpt lat="52.018008" lon="5.993691"><ele>58.4</ele></trkpt>
      <trkpt lat="52.018843" lon="5.994332"><ele>62.6</ele></trkpt>
      <trkpt lat="52.018929" lon="5.994882"><ele>66.4</ele></trkpt>
      <trkpt lat="52.019256" lon="5.995865"><ele>70.2</ele></trkpt>
      <trkpt lat="52.019553" lon="5.996528"><ele>75.8</ele></trkpt>
      <trkpt lat="52.019921" lon="5.996869"><ele>78.2</ele></trkpt>
      <trkpt lat="52.020218" lon="5.998849"><ele>82.6</ele></trkpt>
      <trkpt lat="52.020098" lon="5.999528"><ele>83.6</ele></trkpt>
      <trkpt lat="52.019939" lon="5.999765"><ele>85.4</ele></trkpt>
      <trkpt lat="52.019940" lon="5.999983"><ele>88.2</ele></trkpt>
      <trkpt lat="52.020052" lon="6.000333"><ele>89.6</ele></trkpt>
      <trkpt lat="52.020457" lon="6.000563"><ele>90.0</ele></trkpt>
      <trkpt lat="52.020810" lon="6.001485"><ele>90.0</ele></trkpt>
      <trkpt lat="52.020949" lon="6.001497"><ele>87.6</ele></trkpt>
      <trkpt lat="52.021405" lon="6.002068"><ele>84.0</ele></trkpt>
      <trkpt lat="52.021932" lon="6.002262"><ele>84.2</ele></trkpt>
      <trkpt lat="52.022103" lon="6.002206"><ele>83.8</ele></trkpt>
      <trkpt lat="52.022476" lon="6.002826"><ele>87.6</ele></trkpt>
      <trkpt lat="52.023059" lon="6.003494"><ele>90.4</ele></trkpt>
      <trkpt lat="52.023206" lon="6.003824"><ele>91.2</ele></trkpt>
      <trkpt lat="52.023570" lon="6.004093"><ele>95.0</ele></trkpt>
      <trkpt lat="52.023758" lon="6.004445"><ele>97.0</ele></trkpt>
      <trkpt lat="52.024070" lon="6.004724"><ele>101.2</ele></trkpt>
      <trkpt lat="52.024401" lon="6.004907"><ele>102.2</ele></trkpt>
      <trkpt lat="52.024854" lon="6.003998"><ele>106.2</ele></trkpt>
      <trkpt lat="52.025179" lon="6.003784"><ele>108.8</ele></trkpt>
      <trkpt lat="52.025652" lon="6.004105"><ele>106.4</ele></trkpt>
      <trkpt lat="52.025793" lon="6.004725"><ele>103.8</ele></trkpt>
      <trkpt lat="52.025720" lon="6.005244"><ele>102.6</ele></trkpt>
      <trkpt lat="52.025397" lon="6.006102"><ele>99.2</ele></trkpt>
      <trkpt lat="52.025099" lon="6.007208"><ele>92.4</ele></trkpt>
      <trkpt lat="52.024380" lon="6.008969"><ele>87.8</ele></trkpt>
      <trkpt lat="52.024189" lon="6.010026"><ele>86.2</ele></trkpt>
      <trkpt lat="52.023671" lon="6.010219"><ele>91.4</ele></trkpt>
      <trkpt lat="52.023421" lon="6.009975"><ele>93.0</ele></trkpt>
      <trkpt lat="52.022814" lon="6.010332"><ele>81.8</ele></trkpt>
      <trkpt lat="52.022526" lon="6.010886"><ele>77.4</ele></trkpt>
      <trkpt lat="52.022335" lon="6.011044"><ele>77.0</ele></trkpt>
      <trkpt lat="52.021746" lon="6.011976"><ele>74.4</ele></trkpt>
      <trkpt lat="52.021471" lon="6.012116"><ele>78.6</ele></trkpt>
      <trkpt lat="52.021137" lon="6.012489"><ele>80.2</ele></trkpt>
      <trkpt lat="52.020838" lon="6.013254"><ele>75.0</ele></trkpt>
      <trkpt lat="52.020524" lon="6.013739"><ele>72.0</ele></trkpt>
      <trkpt lat="52.020432" lon="6.014208"><ele>69.6</ele></trkpt>
      <trkpt lat="52.020506" lon="6.014917"><ele>63.8</ele></trkpt>
      <trkpt lat="52.020839" lon="6.015686"><ele>54.6</ele></trkpt>
      <trkpt lat="52.021012" lon="6.016800"><ele>55.4</ele></trkpt>
      <trkpt lat="52.021089" lon="6.016917"><ele>57.4</ele></trkpt>
      <trkpt lat="52.021037" lon="6.017291"><ele>60.2</ele></trkpt>
      <trkpt lat="52.020849" lon="6.017426"><ele>59.0</ele></trkpt>
      <trkpt lat="52.020555" lon="6.018094"><ele>61.6</ele></trkpt>
      <trkpt lat="52.020671" lon="6.018170"><ele>62.6</ele></trkpt>
      <trkpt lat="52.020805" lon="6.018088"><ele>63.4</ele></trkpt>
      <trkpt lat="52.021042" lon="6.017791"><ele>64.0</ele></trkpt>
      <trkpt lat="52.021542" lon="6.017463"><ele>69.4</ele></trkpt>
      <trkpt lat="52.021780" lon="6.017572"><ele>69.0</ele></trkpt>
      <trkpt lat="52.022216" lon="6.018273"><ele>60.0</ele></trkpt>
      <trkpt lat="52.022260" lon="6.018691"><ele>55.0</ele></trkpt>
      <trkpt lat="52.022454" lon="6.019344"><ele>47.0</ele></trkpt>
      <trkpt lat="52.022496" lon="6.020113"><ele>46.8</ele></trkpt>
      <trkpt lat="52.022284" lon="6.021082"><ele>58.2</ele></trkpt>
      <trkpt lat="52.021942" lon="6.021820"><ele>62.4</ele></trkpt>
      <trkpt lat="52.021708" lon="6.022041"><ele>61.0</ele></trkpt>
      <trkpt lat="52.021619" lon="6.022287"><ele>62.8</ele></trkpt>
      <trkpt lat="52.021088" lon="6.022459"><ele>56.4</ele></trkpt>
      <trkpt lat="52.020271" lon="6.023012"><ele>53.2</ele></trkpt>
      <trkpt lat="52.020076" lon="6.023042"><ele>53.0</ele></trkpt>
      <trkpt lat="52.019656" lon="6.023585"><ele>55.2</ele></trkpt>
      <trkpt lat="52.019252" lon="6.023718"><ele>49.6</ele></trkpt>
      <trkpt lat="52.019241" lon="6.023962"><ele>50.4</ele></trkpt>
      <trkpt lat="52.019647" lon="6.024049"><ele>55.6</ele></trkpt>
      <trkpt lat="52.020101" lon="6.023980"><ele>61.2</ele></trkpt>
      <trkpt lat="52.020478" lon="6.024350"><ele>65.0</ele></trkpt>
      <trkpt lat="52.020627" lon="6.024706"><ele>63.0</ele></trkpt>
      <trkpt lat="52.020737" lon="6.025464"><ele>56.8</ele></trkpt>
      <trkpt lat="52.020721" lon="6.026254"><ele>50.0</ele></trkpt>
      <trkpt lat="52.020580" lon="6.026245"><ele>50.0</ele></trkpt>
      <trkpt lat="52.020171" lon="6.026624"><ele>47.8</ele></trkpt>
      <trkpt lat="52.019731" lon="6.027252"><ele>43.0</ele></trkpt>
      <trkpt lat="52.019426" lon="6.027981"><ele>44.4</ele></trkpt>
      <trkpt lat="52.019678" lon="6.028261"><ele>43.8</ele></trkpt>
      <trkpt lat="52.020275" lon="6.028104"><ele>42.6</ele></trkpt>
      <trkpt lat="52.020482" lon="6.028202"><ele>42.0</ele></trkpt>
      <trkpt lat="52.021094" lon="6.029214"><ele>43.6</ele></trkpt>
      <trkpt lat="52.021203" lon="6.029247"><ele>43.2</ele></trkpt>
      <trkpt lat="52.021327" lon="6.029177"><ele>43.2</ele></trkpt>
      <trkpt lat="52.021432" lon="6.028915"><ele>44.0</ele></trkpt>
      <trkpt lat="52.021621" lon="6.027981"><ele>50.2</ele></trkpt>
      <trkpt lat="52.022118" lon="6.026714"><ele>52.4</ele></trkpt>
      <trkpt lat="52.022456" lon="6.026308"><ele>55.2</ele></trkpt>
      <trkpt lat="52.024155" lon="6.027243"><ele>65.0</ele></trkpt>
      <trkpt lat="52.024613" lon="6.027032"><ele>67.0</ele></trkpt>
      <trkpt lat="52.024995" lon="6.026610"><ele>69.2</ele></trkpt>
      <trkpt lat="52.025298" lon="6.026933"><ele>71.6</ele></trkpt>
      <trkpt lat="52.025502" lon="6.026948"><ele>72.2</ele></trkpt>
      <trkpt lat="52.026479" lon="6.026175"><ele>71.6</ele></trkpt>
      <trkpt lat="52.026859" lon="6.026327"><ele>72.4</ele></trkpt>
      <trkpt lat="52.027528" lon="6.026086"><ele>77.4</ele></trkpt>
      <trkpt lat="52.027683" lon="6.026354"><ele>79.8</ele></trkpt>
      <trkpt lat="52.027561" lon="6.027125"><ele>79.6</ele></trkpt>
      <trkpt lat="52.027802" lon="6.028021"><ele>88.4</ele></trkpt>
      <trkpt lat="52.027522" lon="6.030295"><ele>90.8</ele></trkpt>
      <trkpt lat="52.027228" lon="6.030806"><ele>86.0</ele></trkpt>
      <trkpt lat="52.027279" lon="6.031306"><ele>85.0</ele></trkpt>
      <trkpt lat="52.027499" lon="6.031506"><ele>89.4</ele></trkpt>
      <trkpt lat="52.027549" lon="6.031748"><ele>90.0</ele></trkpt>
      <trkpt lat="52.027626" lon="6.031778"><ele>91.6</ele></trkpt>
      <trkpt lat="52.027701" lon="6.031642"><ele>93.2</ele></trkpt>
      <trkpt lat="52.027879" lon="6.031957"><ele>94.6</ele></trkpt>
      <trkpt lat="52.028175" lon="6.032011"><ele>96.0</ele></trkpt>
      <trkpt lat="52.028242" lon="6.032287"><ele>96.0</ele></trkpt>
      <trkpt lat="52.028973" lon="6.032964"><ele>97.0</ele></trkpt>
      <trkpt lat="52.029541" lon="6.032947"><ele>92.4</ele></trkpt>
      <trkpt lat="52.029846" lon="6.032709"><ele>90.4</ele></trkpt>
      <trkpt lat="52.030613" lon="6.032457"><ele>84.0</ele></trkpt>
      <trkpt lat="52.031682" lon="6.033993"><ele>80.2</ele></trkpt>
      <trkpt lat="52.032203" lon="6.035108"><ele>77.4</ele></trkpt>
      <trkpt lat="52.032748" lon="6.036547"><ele>75.0</ele></trkpt>
      <trkpt lat="52.033224" lon="6.037253"><ele>75.0</ele></trkpt>
      <trkpt lat="52.033403" lon="6.037397"><ele>75.8</ele></trkpt>
      <trkpt lat="52.033586" lon="6.037347"><ele>77.0</ele></trkpt>
      <trkpt lat="52.034046" lon="6.037511"><ele>81.0</ele></trkpt>
      <trkpt lat="52.034771" lon="6.038080"><ele>86.8</ele></trkpt>
      <trkpt lat="52.035254" lon="6.038020"><ele>87.4</ele></trkpt>
      <trkpt lat="52.035894" lon="6.038233"><ele>89.6</ele></trkpt>
      <trkpt lat="52.036755" lon="6.038852"><ele>96.2</ele></trkpt>
      <trkpt lat="52.036895" lon="6.039391"><ele>93.2</ele></trkpt>
      <trkpt lat="52.036830" lon="6.040096"><ele>92.8</ele></trkpt>
      <trkpt lat="52.036582" lon="6.040910"><ele>91.4</ele></trkpt>
      <trkpt lat="52.036420" lon="6.041943"><ele>85.6</ele></trkpt>
      <trkpt lat="52.036173" lon="6.042576"><ele>86.4</ele></trkpt>
      <trkpt lat="52.036217" lon="6.042948"><ele>88.0</ele></trkpt>
      <trkpt lat="52.036138" lon="6.043434"><ele>88.6</ele></trkpt>
      <trkpt lat="52.036044" lon="6.043736"><ele>86.8</ele></trkpt>
      <trkpt lat="52.035872" lon="6.043946"><ele>84.6</ele></trkpt>
      <trkpt lat="52.035761" lon="6.044447"><ele>80.2</ele></trkpt>
      <trkpt lat="52.035072" lon="6.045448"><ele>77.0</ele></trkpt>
      <trkpt lat="52.034828" lon="6.045972"><ele>78.8</ele></trkpt>
      <trkpt lat="52.034695" lon="6.046042"><ele>78.6</ele></trkpt>
      <trkpt lat="52.034446" lon="6.046700"><ele>80.4</ele></trkpt>
      <trkpt lat="52.033690" lon="6.047669"><ele>79.2</ele></trkpt>
      <trkpt lat="52.032912" lon="6.048190"><ele>78.0</ele></trkpt>
      <trkpt lat="52.032876" lon="6.048516"><ele>75.8</ele></trkpt>
      <trkpt lat="52.034647" lon="6.050950"><ele>74.8</ele></trkpt>
      <trkpt lat="52.035095" lon="6.050822"><ele>76.6</ele></trkpt>
      <trkpt lat="52.035396" lon="6.050373"><ele>78.8</ele></trkpt>
      <trkpt lat="52.036130" lon="6.049674"><ele>80.6</ele></trkpt>
      <trkpt lat="52.036652" lon="6.049877"><ele>78.0</ele></trkpt>
      <trkpt lat="52.037278" lon="6.050636"><ele>71.4</ele></trkpt>
      <trkpt lat="52.037372" lon="6.050922"><ele>71.8</ele></trkpt>
      <trkpt lat="52.037936" lon="6.051664"><ele>68.0</ele></trkpt>
      <trkpt lat="52.039219" lon="6.052723"><ele>61.0</ele></trkpt>
      <trkpt lat="52.039549" lon="6.053284"><ele>61.0</ele></trkpt>
      <trkpt lat="52.040016" lon="6.054696"><ele>56.8</ele></trkpt>
      <trkpt lat="52.040334" lon="6.054880"><ele>51.8</ele></trkpt>
      <trkpt lat="52.040779" lon="6.055475"><ele>45.4</ele></trkpt>
      <trkpt lat="52.041389" lon="6.056750"><ele>48.6</ele></trkpt>
      <trkpt lat="52.041549" lon="6.057271"><ele>52.2</ele></trkpt>
      <trkpt lat="52.041438" lon="6.057430"><ele>53.2</ele></trkpt>
      <trkpt lat="52.041112" lon="6.057452"><ele>53.8</ele></trkpt>
      <trkpt lat="52.040940" lon="6.057587"><ele>54.8</ele></trkpt>
      <trkpt lat="52.040454" lon="6.057565"><ele>54.0</ele></trkpt>
      <trkpt lat="52.040057" lon="6.057916"><ele>53.4</ele></trkpt>
      <trkpt lat="52.040118" lon="6.058155"><ele>54.0</ele></trkpt>
      <trkpt lat="52.040799" lon="6.059090"><ele>60.6</ele></trkpt>
      <trkpt lat="52.040970" lon="6.059458"><ele>64.0</ele></trkpt>
      <trkpt lat="52.041198" lon="6.059637"><ele>64.4</ele></trkpt>
      <trkpt lat="52.041909" lon="6.060610"><ele>65.0</ele></trkpt>
      <trkpt lat="52.042156" lon="6.061042"><ele>66.6</ele></trkpt>
      <trkpt lat="52.042375" lon="6.061750"><ele>65.8</ele></trkpt>
      <trkpt lat="52.042910" lon="6.062289"><ele>68.2</ele></trkpt>
      <trkpt lat="52.043408" lon="6.063270"><ele>68.2</ele></trkpt>
      <trkpt lat="52.043314" lon="6.063810"><ele>71.4</ele></trkpt>
      <trkpt lat="52.043005" lon="6.064144"><ele>72.8</ele></trkpt>
      <trkpt lat="52.042910" lon="6.064378"><ele>73.2</ele></trkpt>
      <trkpt lat="52.042495" lon="6.064724"><ele>75.6</ele></trkpt>
      <trkpt lat="52.042379" lon="6.064907"><ele>76.8</ele></trkpt>
      <trkpt lat="52.042278" lon="6.065374"><ele>75.2</ele></trkpt>
      <trkpt lat="52.042349" lon="6.067677"><ele>67.0</ele></trkpt>
      <trkpt lat="52.042468" lon="6.068992"><ele>67.0</ele></trkpt>
      <trkpt lat="52.042463" lon="6.070241"><ele>64.6</ele></trkpt>
      <trkpt lat="52.042551" lon="6.070778"><ele>65.6</ele></trkpt>
      <trkpt lat="52.043867" lon="6.073571"><ele>59.8</ele></trkpt>
      <trkpt lat="52.044170" lon="6.073959"><ele>57.2</ele></trkpt>
      <trkpt lat="52.044593" lon="6.073857"><ele>53.4</ele></trkpt>
      <trkpt lat="52.045616" lon="6.072327"><ele>46.2</ele></trkpt>
      <trkpt lat="52.045888" lon="6.072058"><ele>47.8</ele></trkpt>
      <trkpt lat="52.046088" lon="6.072050"><ele>48.8</ele></trkpt>
      <trkpt lat="52.046320" lon="6.072279"><ele>48.2</ele></trkpt>
      <trkpt lat="52.048192" lon="6.075342"><ele>32.6</ele></trkpt>
      <trkpt lat="52.048482" lon="6.076002"><ele>34.0</ele></trkpt>
      <trkpt lat="52.048802" lon="6.076439"><ele>34.2</ele></trkpt>
      <trkpt lat="52.049961" lon="6.078675"><ele>35.4</ele></trkpt>
      <trkpt lat="52.050985" lon="6.080411"><ele>30.8</ele></trkpt>
      <trkpt lat="52.051196" lon="6.081275"><ele>29.8</ele></trkpt>
      <trkpt lat="52.051500" lon="6.081502"><ele>28.2</ele></trkpt>
      <trkpt lat="52.051618" lon="6.081766"><ele>27.0</ele></trkpt>
      <trkpt lat="52.051568" lon="6.082161"><ele>26.0</ele></trkpt>
      <trkpt lat="52.051639" lon="6.082550"><ele>25.4</ele></trkpt>
    </trkseg>
  </trk>
</gpx>
