<?xml version="1.0" encoding="UTF-8"?>
<gpx version="1.1" creator="gpx-processor" xmlns="http://www.topografix.com/GPX/1/1">
  <metadata><name>Marathon de la Rochelle</name></metadata>
  <trk>
    <name>Marathon de la Rochelle</name>
    <trkseg>
      <trkpt lat="46.159018" lon="-1.148555"><ele>3.2</ele></trkpt>
      <trkpt lat="46.158971" lon="-1.149092"><ele>3.6</ele></trkpt>
      <trkpt lat="46.158768" lon="-1.149932"><ele>3.6</ele></trkpt>
      <trkpt lat="46.158284" lon="-1.150737"><ele>4.2</ele></trkpt>
      <trkpt lat="46.156711" lon="-1.149661"><ele>5.2</ele></trkpt>
      <trkpt lat="46.156140" lon="-1.149422"><ele>5.4</ele></trkpt>
      <trkpt lat="46.155783" lon="-1.149607"><ele>4.6</ele></trkpt>
      <trkpt lat="46.154172" lon="-1.149718"><ele>4.4</ele></trkpt>
      <trkpt lat="46.153707" lon="-1.150069"><ele>6.4</ele></trkpt>
      <trkpt lat="46.151188" lon="-1.150136"><ele>5.8</ele></trkpt>
      <trkpt lat="46.149912" lon="-1.150050"><ele>5.0</ele></trkpt>
      <trkpt lat="46.149636" lon="-1.150183"><ele>5.2</ele></trkpt>
      <trkpt lat="46.149522" lon="-1.150401"><ele>5.4</ele></trkpt>
      <trkpt lat="46.149492" lon="-1.150836"><ele>5.6</ele></trkpt>
      <trkpt lat="46.148938" lon="-1.151196"><ele>6.4</ele></trkpt>
      <trkpt lat="46.148860" lon="-1.151844"><ele>5.8</ele></trkpt>
      <trkpt lat="46.148699" lon="-1.152300"><ele>6.6</ele></trkpt>
      <trkpt lat="46.148729" lon="-1.152507"><ele>6.6</ele></trkpt>
      <trkpt lat="46.149695" lon="-1.152640"><ele>7.0</ele></trkpt>
      <trkpt lat="46.151992" lon="-1.152461"><ele>5.2</ele></trkpt>
      <trkpt lat="46.153753" lon="-1.152466"><ele>6.0</ele></trkpt>
      <trkpt lat="46.153934" lon="-1.152631"><ele>7.0</ele></trkpt>
      <trkpt lat="46.153361" lon="-1.156341"><ele>6.0</ele></trkpt>
      <trkpt lat="46.152919" lon="-1.157433"><ele>5.0</ele></trkpt>
      <trkpt lat="46.152550" lon="-1.157679"><ele>5.8</ele></trkpt>
      <trkpt lat="46.149440" lon="-1.158687"><ele>5.8</ele></trkpt>
      <trkpt lat="46.149088" lon="-1.158708"><ele>5.2</ele></trkpt>
      <trkpt lat="46.148114" lon="-1.158429"><ele>6.2</ele></trkpt>
      <trkpt lat="46.144635" lon="-1.159545"><ele>5.4</ele></trkpt>
      <trkpt lat="46.144429" lon="-1.159501"><ele>5.8</ele></trkpt>
      <trkpt lat="46.144105" lon="-1.159634"><ele>5.6</ele></trkpt>
      <trkpt lat="46.143866" lon="-1.159560"><ele>6.2</ele></trkpt>
      <trkpt lat="46.143390" lon="-1.159206"><ele>6.4</ele></trkpt>
      <trkpt lat="46.142760" lon="-1.158311"><ele>6.0</ele></trkpt>
      <trkpt lat="46.142339" lon="-1.157987"><ele>4.4</ele></trkpt>
      <trkpt lat="46.141830" lon="-1.157363"><ele>4.0</ele></trkpt>
      <trkpt lat="46.141712" lon="-1.157099"><ele>3.6</ele></trkpt>
      <trkpt lat="46.140995" lon="-1.157291"><ele>4.8</ele></trkpt>
      <trkpt lat="46.140683" lon="-1.157139"><ele>4.4</ele></trkpt>
      <trkpt lat="46.138948" lon="-1.154404"><ele>7.2</ele></trkpt>
      <trkpt lat="46.138910" lon="-1.154214"><ele>7.2</ele></trkpt>
      <trkpt lat="46.138941" lon="-1.154071"><ele>7.4</ele></trkpt>
      <trkpt lat="46.139103" lon="-1.153948"><ele>7.2</ele></trkpt>
      <trkpt lat="46.142671" lon="-1.152919"><ele>1.8</ele></trkpt>
      <trkpt lat="46.143254" lon="-1.153399"><ele>1.0</ele></trkpt>
      <trkpt lat="46.143314" lon="-1.153636"><ele>1.0</ele></trkpt>
      <trkpt lat="46.143211" lon="-1.153757"><ele>0.6</ele></trkpt>
      <trkpt lat="46.142886" lon="-1.153812"><ele>0.8</ele></trkpt>
      <trkpt lat="46.142666" lon="-1.154169"><ele>0.8</ele></trkpt>
      <trkpt lat="46.142075" lon="-1.157075"><ele>1.2</ele></trkpt>
      <trkpt lat="46.142382" lon="-1.157083"><ele>2.4</ele></trkpt>
      <trkpt lat="46.144170" lon="-1.156503"><ele>2.2</ele></trkpt>
      <trkpt lat="46.144768" lon="-1.156630"><ele>1.6</ele></trkpt>
      <trkpt lat="46.145083" lon="-1.156303"><ele>0.2</ele></trkpt>
      <trkpt lat="46.145727" lon="-1.154530"><ele>0.6</ele></trkpt>
      <trkpt lat="46.148031" lon="-1.154422"><ele>6.4</ele></trkpt>
      <trkpt lat="46.148269" lon="-1.154225"><ele>5.6</ele></trkpt>
      <trkpt lat="46.148600" lon="-1.152515"><ele>4.6</ele></trkpt>
      <trkpt lat="46.148509" lon="-1.152397"><ele>4.6</ele></trkpt>
      <trkpt lat="46.147565" lon="-1.152046"><ele>5.2</ele></trkpt>
      <trkpt lat="46.147475" lon="-1.151857"><ele>4.4</ele></trkpt>
      <trkpt lat="46.147520" lon="-1.150664"><ele>7.2</ele></trkpt>
      <trkpt lat="46.147871" lon="-1.150108"><ele>9.8</ele></trkpt>
      <trkpt lat="46.149319" lon="-1.149942"><ele>3.0</ele></trkpt>
      <trkpt lat="46.149555" lon="-1.149761"><ele>2.8</ele></trkpt>
      <trkpt lat="46.150299" lon="-1.149737"><ele>2.6</ele></trkpt>
      <trkpt lat="46.150738" lon="-1.149530"><ele>1.8</ele></trkpt>
      <trkpt lat="46.152947" lon="-1.149485"><ele>1.2</ele></trkpt>
      <trkpt lat="46.152987" lon="-1.148774"><ele>1.0</ele></trkpt>
      <trkpt lat="46.152316" lon="-1.148425"><ele>5.4</ele></trkpt>
      <trkpt lat="46.152233" lon="-1.148072"><ele>6.4</ele></trkpt>
      <trkpt lat="46.153273" lon="-1.146315"><ele>1.6</ele></trkpt>
      <trkpt lat="46.153454" lon="-1.146337"><ele>1.0</ele></trkpt>
      <trkpt lat="46.154759" lon="-1.147950"><ele>0.0</ele></trkpt>
      <trkpt lat="46.155427" lon="-1.148623"><ele>0.2</ele></trkpt>
      <trkpt lat="46.155611" lon="-1.148373"><ele>0.4</ele></trkpt>
      <trkpt lat="46.155776" lon="-1.147769"><ele>-0.2</ele></trkpt>
      <trkpt lat="46.156017" lon="-1.147250"><ele>-0.6</ele></trkpt>
      <trkpt lat="46.156378" lon="-1.146741"><ele>-1.2</ele></trkpt>
      <trkpt lat="46.157756" lon="-1.145985"><ele>0.0</ele></trkpt>
      <trkpt lat="46.158443" lon="-1.145899"><ele>0.6</ele></trkpt>
      <trkpt lat="46.158656" lon="-1.146597"><ele>0.2</ele></trkpt>
      <trkpt lat="46.160155" lon="-1.145896"><ele>0.4</ele></trkpt>
      <trkpt lat="46.162492" lon="-1.145369"><ele>5.0</ele></trkpt>
      <trkpt lat="46.163143" lon="-1.145782"><ele>6.6</ele></trkpt>
      <trkpt lat="46.163467" lon="-1.146177"><ele>8.2</ele></trkpt>
      <trkpt lat="46.164148" lon="-1.147979"><ele>6.6</ele></trkpt>
      <trkpt lat="46.164667" lon="-1.151583"><ele>8.4</ele></trkpt>
      <trkpt lat="46.162186" lon="-1.152582"><ele>8.0</ele></trkpt>
      <trkpt lat="46.162071" lon="-1.152779"><ele>8.0</ele></trkpt>
      <trkpt lat="46.162335" lon="-1.154547"><ele>5.0</ele></trkpt>
      <trkpt lat="46.162218" lon="-1.155627"><ele>4.0</ele></trkpt>
      <trkpt lat="46.162678" lon="-1.160879"><ele>4.4</ele></trkpt>
      <trkpt lat="46.163384" lon="-1.167502"><ele>7.6</ele></trkpt>
      <trkpt lat="46.164005" lon="-1.174256"><ele>17.6</ele></trkpt>
      <trkpt lat="46.164172" lon="-1.175401"><ele>18.6</ele></trkpt>
      <trkpt lat="46.164250" lon="-1.175548"><ele>19.2</ele></trkpt>
      <trkpt lat="46.164457" lon="-1.175512"><ele>20.0</ele></trkpt>
      <trkpt lat="46.166127" lon="-1.174462"><ele>21.0</ele></trkpt>
      <trkpt lat="46.167546" lon="-1.173824"><ele>22.6</ele></trkpt>
      <trkpt lat="46.168344" lon="-1.173169"><ele>23.4</ele></trkpt>
      <trkpt lat="46.168527" lon="-1.173344"><ele>22.8</ele></trkpt>
      <trkpt lat="46.167212" lon="-1.177549"><ele>24.6</ele></trkpt>
      <trkpt lat="46.167763" lon="-1.182894"><ele>18.2</ele></trkpt>
      <trkpt lat="46.167678" lon="-1.183029"><ele>18.0</ele></trkpt>
      <trkpt lat="46.167402" lon="-1.183118"><ele>17.8</ele></trkpt>
      <trkpt lat="46.165935" lon="-1.183306"><ele>18.6</ele></trkpt>
      <trkpt lat="46.166286" lon="-1.185885"><ele>15.8</ele></trkpt>
      <trkpt lat="46.166246" lon="-1.185993"><ele>15.6</ele></trkpt>
      <trkpt lat="46.165454" lon="-1.186356"><ele>14.8</ele></trkpt>
      <trkpt lat="46.165366" lon="-1.186293"><ele>15.0</ele></trkpt>
      <trkpt lat="46.165054" lon="-1.184973"><ele>15.0</ele></trkpt>
      <trkpt lat="46.164839" lon="-1.183146"><ele>14.0</ele></trkpt>
      <trkpt lat="46.164550" lon="-1.181920"><ele>14.8</ele></trkpt>
      <trkpt lat="46.164301" lon="-1.181841"><ele>13.8</ele></trkpt>
      <trkpt lat="46.162627" lon="-1.182233"><ele>4.8</ele></trkpt>
      <trkpt lat="46.162445" lon="-1.182319"><ele>5.2</ele></trkpt>
      <trkpt lat="46.162350" lon="-1.182505"><ele>5.4</ele></trkpt>
      <trkpt lat="46.161959" lon="-1.187569"><ele>3.0</ele></trkpt>
      <trkpt lat="46.162029" lon="-1.189435"><ele>2.2</ele></trkpt>
      <trkpt lat="46.161979" lon="-1.190458"><ele>0.8</ele></trkpt>
      <trkpt lat="46.161734" lon="-1.192644"><ele>0.6</ele></trkpt>
      <trkpt lat="46.161658" lon="-1.192789"><ele>0.6</ele></trkpt>
      <trkpt lat="46.161282" lon="-1.193009"><ele>0.4</ele></trkpt>
      <trkpt lat="46.160858" lon="-1.192666"><ele>0.0</ele></trkpt>
      <trkpt lat="46.160471" lon="-1.192551"><ele>2.6</ele></trkpt>
      <trkpt lat="46.160387" lon="-1.192412"><ele>3.0</ele></trkpt>
      <trkpt lat="46.160909" lon="-1.188108"><ele>2.4</ele></trkpt>
      <trkpt lat="46.160785" lon="-1.187836"><ele>2.0</ele></trkpt>
      <trkpt lat="46.160543" lon="-1.187900"><ele>1.6</ele></trkpt>
      <trkpt lat="46.155081" lon="-1.191073"><ele>1.8</ele></trkpt>
      <trkpt lat="46.154798" lon="-1.191009"><ele>1.8</ele></trkpt>
      <trkpt lat="46.154659" lon="-1.190582"><ele>1.4</ele></trkpt>
      <trkpt lat="46.154685" lon="-1.190279"><ele>1.6</ele></trkpt>
      <trkpt lat="46.154835" lon="-1.189920"><ele>1.8</ele></trkpt>
      <trkpt lat="46.156203" lon="-1.188160"><ele>0.4</ele></trkpt>
      <trkpt lat="46.156637" lon="-1.187770"><ele>0.0</ele></trkpt>
      <trkpt lat="46.157681" lon="-1.187365"><ele>-1.4</ele></trkpt>
      <trkpt lat="46.158024" lon="-1.187102"><ele>-1.4</ele></trkpt>
      <trkpt lat="46.161215" lon="-1.183118"><ele>-1.4</ele></trkpt>
      <trkpt lat="46.161250" lon="-1.182947"><ele>-1.2</ele></trkpt>
      <trkpt lat="46.160943" lon="-1.181061"><ele>4.4</ele></trkpt>
      <trkpt lat="46.160606" lon="-1.179561"><ele>9.4</ele></trkpt>
      <trkpt lat="46.160484" lon="-1.179437"><ele>11.8</ele></trkpt>
      <trkpt lat="46.160262" lon="-1.179427"><ele>11.4</ele></trkpt>
      <trkpt lat="46.157794" lon="-1.179895"><ele>9.8</ele></trkpt>
      <trkpt lat="46.155805" lon="-1.180853"><ele>2.2</ele></trkpt>
      <trkpt lat="46.155278" lon="-1.180926"><ele>2.2</ele></trkpt>
      <trkpt lat="46.153902" lon="-1.180609"><ele>2.8</ele></trkpt>
      <trkpt lat="46.153662" lon="-1.180115"><ele>3.6</ele></trkpt>
      <trkpt lat="46.153561" lon="-1.179498"><ele>4.4</ele></trkpt>
      <trkpt lat="46.153648" lon="-1.177204"><ele>3.2</ele></trkpt>
      <trkpt lat="46.154401" lon="-1.171821"><ele>8.0</ele></trkpt>
      <trkpt lat="46.154568" lon="-1.171408"><ele>8.0</ele></trkpt>
      <trkpt lat="46.154752" lon="-1.171190"><ele>8.6</ele></trkpt>
      <trkpt lat="46.155737" lon="-1.170925"><ele>12.4</ele></trkpt>
      <trkpt lat="46.155782" lon="-1.170811"><ele>12.8</ele></trkpt>
      <trkpt lat="46.156214" lon="-1.160980"><ele>0.6</ele></trkpt>
      <trkpt lat="46.157240" lon="-1.160034"><ele>-0.4</ele></trkpt>
      <trkpt lat="46.159773" lon="-1.159163"><ele>-2.0</ele></trkpt>
      <trkpt lat="46.160378" lon="-1.158170"><ele>0.8</ele></trkpt>
      <trkpt lat="46.160617" lon="-1.157972"><ele>1.2</ele></trkpt>
      <trkpt lat="46.160854" lon="-1.157975"><ele>1.8</ele></trkpt>
      <trkpt lat="46.161987" lon="-1.158630"><ele>2.4</ele></trkpt>
      <trkpt lat="46.162405" lon="-1.158425"><ele>2.4</ele></trkpt>
      <trkpt lat="46.162155" lon="-1.155523"><ele>3.4</ele></trkpt>
      <trkpt lat="46.162214" lon="-1.154923"><ele>3.8</ele></trkpt>
      <trkpt lat="46.161896" lon="-1.153170"><ele>7.4</ele></trkpt>
      <trkpt lat="46.162051" lon="-1.152596"><ele>6.8</ele></trkpt>
      <trkpt lat="46.161933" lon="-1.150691"><ele>6.0</ele></trkpt>
      <trkpt lat="46.161507" lon="-1.149065"><ele>4.0</ele></trkpt>
      <trkpt lat="46.161161" lon="-1.146977"><ele>3.4</ele></trkpt>
      <trkpt lat="46.160985" lon="-1.146928"><ele>3.4</ele></trkpt>
      <trkpt lat="46.159025" lon="-1.147669"><ele>2.6</ele></trkpt>
      <trkpt lat="46.159016" lon="-1.148744"><ele>2.2</ele></trkpt>
      <trkpt lat="46.158929" lon="-1.149468"><ele>2.0</ele></trkpt>
      <trkpt lat="46.158768" lon="-1.149985"><ele>2.2</ele></trkpt>
      <trkpt lat="46.158264" lon="-1.150785"><ele>2.4</ele></trkpt>
      <trkpt lat="46.156730" lon="-1.149721"><ele>3.6</ele></trkpt>
      <trkpt lat="46.156132" lon="-1.149483"><ele>3.2</ele></trkpt>
      <trkpt lat="46.155858" lon="-1.149631"><ele>2.8</ele></trkpt>
      <trkpt lat="46.154188" lon="-1.149707"><ele>3.4</ele></trkpt>
      <trkpt lat="46.153827" lon="-1.150023"><ele>4.2</ele></trkpt>
      <trkpt lat="46.153578" lon="-1.150086"><ele>5.0</ele></trkpt>
      <trkpt lat="46.149893" lon="-1.150082"><ele>4.0</ele></trkpt>
      <trkpt lat="46.149636" lon="-1.150221"><ele>3.6</ele></trkpt>
      <trkpt lat="46.149467" lon="-1.150863"><ele>3.2</ele></trkpt>
      <trkpt lat="46.148956" lon="-1.151220"><ele>4.8</ele></trkpt>
      <trkpt lat="46.148884" lon="-1.151839"><ele>4.6</ele></trkpt>
      <trkpt lat="46.148701" lon="-1.152330"><ele>4.8</ele></trkpt>
      <trkpt lat="46.148756" lon="-1.152511"><ele>4.8</ele></trkpt>
      <trkpt lat="46.149941" lon="-1.152598"><ele>3.6</ele></trkpt>
      <trkpt lat="46.151983" lon="-1.152451"><ele>3.6</ele></trkpt>
      <trkpt lat="46.153759" lon="-1.152452"><ele>2.8</ele></trkpt>
      <trkpt lat="46.153933" lon="-1.152588"><ele>3.6</ele></trkpt>
      <trkpt lat="46.153354" lon="-1.156423"><ele>4.4</ele></trkpt>
      <trkpt lat="46.152952" lon="-1.157392"><ele>3.8</ele></trkpt>
      <trkpt lat="46.152735" lon="-1.157637"><ele>4.8</ele></trkpt>
      <trkpt lat="46.152470" lon="-1.157748"><ele>4.6</ele></trkpt>
      <trkpt lat="46.149393" lon="-1.158726"><ele>4.2</ele></trkpt>
      <trkpt lat="46.148114" lon="-1.158440"><ele>4.8</ele></trkpt>
      <trkpt lat="46.144672" lon="-1.159546"><ele>5.6</ele></trkpt>
      <trkpt lat="46.144027" lon="-1.159604"><ele>6.2</ele></trkpt>
      <trkpt lat="46.143687" lon="-1.159466"><ele>6.4</ele></trkpt>
      <trkpt lat="46.143359" lon="-1.159182"><ele>6.8</ele></trkpt>
      <trkpt lat="46.142777" lon="-1.158305"><ele>6.0</ele></trkpt>
      <trkpt lat="46.142333" lon="-1.157959"><ele>6.4</ele></trkpt>
      <trkpt lat="46.141704" lon="-1.157097"><ele>6.2</ele></trkpt>
      <trkpt lat="46.141028" lon="-1.157274"><ele>7.0</ele></trkpt>
      <trkpt lat="46.140736" lon="-1.157180"><ele>7.6</ele></trkpt>
      <trkpt lat="46.139580" lon="-1.155417"><ele>11.2</ele></trkpt>
      <trkpt lat="46.138926" lon="-1.154258"><ele>10.0</ele></trkpt>
      <trkpt lat="46.139006" lon="-1.154047"><ele>10.2</ele></trkpt>
      <trkpt lat="46.139130" lon="-1.153971"><ele>10.2</ele></trkpt>
      <trkpt lat="46.140765" lon="-1.153393"><ele>8.6</ele></trkpt>
      <trkpt lat="46.142645" lon="-1.152901"><ele>4.8</ele></trkpt>
      <trkpt lat="46.143250" lon="-1.153441"><ele>4.4</ele></trkpt>
      <trkpt lat="46.143302" lon="-1.153628"><ele>4.0</ele></trkpt>
      <trkpt lat="46.143190" lon="-1.153761"><ele>4.0</ele></trkpt>
      <trkpt lat="46.142866" lon="-1.153831"><ele>5.2</ele></trkpt>
      <trkpt lat="46.142700" lon="-1.154109"><ele>5.4</ele></trkpt>
      <trkpt lat="46.142270" lon="-1.155890"><ele>6.4</ele></trkpt>
      <trkpt lat="46.142069" lon="-1.157063"><ele>5.8</ele></trkpt>
      <trkpt lat="46.142359" lon="-1.157061"><ele>6.8</ele></trkpt>
      <trkpt lat="46.144152" lon="-1.156527"><ele>6.0</ele></trkpt>
      <trkpt lat="46.144802" lon="-1.156582"><ele>4.8</ele></trkpt>
      <trkpt lat="46.145014" lon="-1.156378"><ele>4.8</ele></trkpt>
      <trkpt lat="46.145613" lon="-1.154678"><ele>5.4</ele></trkpt>
      <trkpt lat="46.145750" lon="-1.154515"><ele>6.0</ele></trkpt>
      <trkpt lat="46.148001" lon="-1.154375"><ele>10.0</ele></trkpt>
      <trkpt lat="46.148269" lon="-1.154149"><ele>9.0</ele></trkpt>
      <trkpt lat="46.148583" lon="-1.152513"><ele>7.8</ele></trkpt>
      <trkpt lat="46.148457" lon="-1.152382"><ele>8.4</ele></trkpt>
      <trkpt lat="46.147570" lon="-1.152059"><ele>8.8</ele></trkpt>
      <trkpt lat="46.147466" lon="-1.151821"><ele>8.4</ele></trkpt>
      <trkpt lat="46.147514" lon="-1.150664"><ele>9.8</ele></trkpt>
      <trkpt lat="46.147853" lon="-1.150114"><ele>12.2</ele></trkpt>
      <trkpt lat="46.149085" lon="-1.149982"><ele>5.4</ele></trkpt>
      <trkpt lat="46.149552" lon="-1.149760"><ele>4.4</ele></trkpt>
      <trkpt lat="46.150281" lon="-1.149728"><ele>4.2</ele></trkpt>
      <trkpt lat="46.150719" lon="-1.149537"><ele>4.6</ele></trkpt>
      <trkpt lat="46.152940" lon="-1.149514"><ele>3.6</ele></trkpt>
      <trkpt lat="46.153004" lon="-1.149331"><ele>4.0</ele></trkpt>
      <trkpt lat="46.152989" lon="-1.148763"><ele>5.2</ele></trkpt>
      <trkpt lat="46.152382" lon="-1.148434"><ele>8.8</ele></trkpt>
      <trkpt lat="46.152263" lon="-1.148192"><ele>10.0</ele></trkpt>
      <trkpt lat="46.152424" lon="-1.147713"><ele>10.2</ele></trkpt>
      <trkpt lat="46.153262" lon="-1.146340"><ele>6.6</ele></trkpt>
      <trkpt lat="46.153527" lon="-1.146432"><ele>5.0</ele></trkpt>
      <trkpt lat="46.155397" lon="-1.148622"><ele>5.4</ele></trkpt>
      <trkpt lat="46.155628" lon="-1.148378"><ele>5.0</ele></trkpt>
      <trkpt lat="46.156017" lon="-1.147289"><ele>4.2</ele></trkpt>
      <trkpt lat="46.156326" lon="-1.146755"><ele>3.8</ele></trkpt>
      <trkpt lat="46.157754" lon="-1.145997"><ele>4.8</ele></trkpt>
      <trkpt lat="46.158428" lon="-1.145936"><ele>5.6</ele></trkpt>
      <trkpt lat="46.158608" lon="-1.146569"><ele>4.2</ele></trkpt>
      <trkpt lat="46.158678" lon="-1.146612"><ele>4.0</ele></trkpt>
      <trkpt lat="46.160151" lon="-1.145893"><ele>4.8</ele></trkpt>
      <trkpt lat="46.162512" lon="-1.145375"><ele>9.0</ele></trkpt>
      <trkpt lat="46.163160" lon="-1.145801"><ele>10.4</ele></trkpt>
      <trkpt lat="46.163436" lon="-1.146177"><ele>10.2</ele></trkpt>
      <trkpt lat="46.164112" lon="-1.147924"><ele>10.2</ele></trkpt>
      <trkpt lat="46.164651" lon="-1.151543"><ele>13.0</ele></trkpt>
      <trkpt lat="46.164470" lon="-1.151714"><ele>12.4</ele></trkpt>
      <trkpt lat="46.162211" lon="-1.152593"><ele>12.2</ele></trkpt>
      <trkpt lat="46.162089" lon="-1.152686"><ele>11.6</ele></trkpt>
      <trkpt lat="46.162064" lon="-1.152842"><ele>11.8</ele></trkpt>
      <trkpt lat="46.162322" lon="-1.154602"><ele>9.4</ele></trkpt>
      <trkpt lat="46.162208" lon="-1.155667"><ele>8.0</ele></trkpt>
      <trkpt lat="46.162567" lon="-1.159929"><ele>5.6</ele></trkpt>
      <trkpt lat="46.164172" lon="-1.175391"><ele>20.2</ele></trkpt>
      <trkpt lat="46.164250" lon="-1.175551"><ele>20.6</ele></trkpt>
      <trkpt lat="46.164388" lon="-1.175560"><ele>19.8</ele></trkpt>
      <trkpt lat="46.166118" lon="-1.174469"><ele>20.2</ele></trkpt>
      <trkpt lat="46.167651" lon="-1.173760"><ele>23.0</ele></trkpt>
      <trkpt lat="46.168339" lon="-1.173187"><ele>22.8</ele></trkpt>
      <trkpt lat="46.168451" lon="-1.173184"><ele>22.8</ele></trkpt>
      <trkpt lat="46.168539" lon="-1.173338"><ele>23.2</ele></trkpt>
      <trkpt lat="46.167224" lon="-1.177541"><ele>25.0</ele></trkpt>
      <trkpt lat="46.167758" lon="-1.182867"><ele>18.4</ele></trkpt>
      <trkpt lat="46.167677" lon="-1.183021"><ele>19.0</ele></trkpt>
      <trkpt lat="46.167378" lon="-1.183139"><ele>19.0</ele></trkpt>
      <trkpt lat="46.165952" lon="-1.183328"><ele>20.2</ele></trkpt>
      <trkpt lat="46.166265" lon="-1.185979"><ele>18.4</ele></trkpt>
      <trkpt lat="46.165482" lon="-1.186357"><ele>18.0</ele></trkpt>
      <trkpt lat="46.165335" lon="-1.186260"><ele>18.0</ele></trkpt>
      <trkpt lat="46.164990" lon="-1.184746"><ele>17.8</ele></trkpt>
      <trkpt lat="46.164822" lon="-1.183110"><ele>17.6</ele></trkpt>
      <trkpt lat="46.164546" lon="-1.181944"><ele>17.8</ele></trkpt>
      <trkpt lat="46.164191" lon="-1.181857"><ele>15.8</ele></trkpt>
      <trkpt lat="46.163125" lon="-1.182119"><ele>10.8</ele></trkpt>
      <trkpt lat="46.162513" lon="-1.182294"><ele>8.6</ele></trkpt>
      <trkpt lat="46.162386" lon="-1.182488"><ele>7.6</ele></trkpt>
      <trkpt lat="46.161956" lon="-1.187504"><ele>6.2</ele></trkpt>
      <trkpt lat="46.161938" lon="-1.188413"><ele>4.8</ele></trkpt>
      <trkpt lat="46.162023" lon="-1.189602"><ele>4.4</ele></trkpt>
      <trkpt lat="46.161976" lon="-1.190304"><ele>3.8</ele></trkpt>
      <trkpt lat="46.161715" lon="-1.192649"><ele>3.4</ele></trkpt>
      <trkpt lat="46.161650" lon="-1.192768"><ele>3.2</ele></trkpt>
      <trkpt lat="46.161270" lon="-1.192941"><ele>3.4</ele></trkpt>
      <trkpt lat="46.161009" lon="-1.192642"><ele>3.2</ele></trkpt>
      <trkpt lat="46.160450" lon="-1.192508"><ele>5.8</ele></trkpt>
      <trkpt lat="46.160399" lon="-1.192406"><ele>5.8</ele></trkpt>
      <trkpt lat="46.160905" lon="-1.188039"><ele>5.4</ele></trkpt>
      <trkpt lat="46.160771" lon="-1.187845"><ele>4.8</ele></trkpt>
      <trkpt lat="46.155091" lon="-1.191051"><ele>7.4</ele></trkpt>
      <trkpt lat="46.154833" lon="-1.190996"><ele>7.2</ele></trkpt>
      <trkpt lat="46.154681" lon="-1.190617"><ele>7.6</ele></trkpt>
      <trkpt lat="46.154709" lon="-1.190293"><ele>7.4</ele></trkpt>
      <trkpt lat="46.154847" lon="-1.189955"><ele>8.0</ele></trkpt>
      <trkpt lat="46.156211" lon="-1.188193"><ele>5.4</ele></trkpt>
      <trkpt lat="46.156699" lon="-1.187792"><ele>4.6</ele></trkpt>
      <trkpt lat="46.157592" lon="-1.187404"><ele>4.0</ele></trkpt>
      <trkpt lat="46.158061" lon="-1.187052"><ele>3.2</ele></trkpt>
      <trkpt lat="46.161199" lon="-1.183109"><ele>4.2</ele></trkpt>
      <trkpt lat="46.161253" lon="-1.182856"><ele>4.0</ele></trkpt>
      <trkpt lat="46.161185" lon="-1.182320"><ele>5.2</ele></trkpt>
      <trkpt lat="46.160623" lon="-1.179532"><ele>15.2</ele></trkpt>
      <trkpt lat="46.160396" lon="-1.179393"><ele>16.2</ele></trkpt>
      <trkpt lat="46.159451" lon="-1.179646"><ele>16.2</ele></trkpt>
      <trkpt lat="46.158060" lon="-1.179816"><ele>14.0</ele></trkpt>
      <trkpt lat="46.157569" lon="-1.179966"><ele>12.6</ele></trkpt>
      <trkpt lat="46.156139" lon="-1.180712"><ele>6.0</ele></trkpt>
      <trkpt lat="46.155376" lon="-1.180875"><ele>5.8</ele></trkpt>
      <trkpt lat="46.154811" lon="-1.180826"><ele>5.2</ele></trkpt>
      <trkpt lat="46.153918" lon="-1.180572"><ele>4.2</ele></trkpt>
      <trkpt lat="46.153618" lon="-1.179901"><ele>6.2</ele></trkpt>
      <trkpt lat="46.153582" lon="-1.179430"><ele>8.2</ele></trkpt>
      <trkpt lat="46.153655" lon="-1.177180"><ele>8.6</ele></trkpt>
      <trkpt lat="46.154468" lon="-1.171731"><ele>11.8</ele></trkpt>
      <trkpt lat="46.154770" lon="-1.171223"><ele>13.2</ele></trkpt>
      <trkpt lat="46.155712" lon="-1.170952"><ele>16.6</ele></trkpt>
      <trkpt lat="46.155787" lon="-1.170792"><ele>16.8</ele></trkpt>
      <trkpt lat="46.156239" lon="-1.161000"><ele>4.4</ele></trkpt>
      <trkpt lat="46.156486" lon="-1.160679"><ele>3.4</ele></trkpt>
      <trkpt lat="46.157243" lon="-1.160043"><ele>3.6</ele></trkpt>
      <trkpt lat="46.159700" lon="-1.159230"><ele>2.2</ele></trkpt>
      <trkpt lat="46.159908" lon="-1.159018"><ele>2.6</ele></trkpt>
      <trkpt lat="46.160368" lon="-1.158194"><ele>3.2</ele></trkpt>
      <trkpt lat="46.160635" lon="-1.157981"><ele>4.0</ele></trkpt>
      <trkpt lat="46.160913" lon="-1.158019"><ele>4.8</ele></trkpt>
      <trkpt lat="46.161985" lon="-1.158646"><ele>5.0</ele></trkpt>
      <trkpt lat="46.162331" lon="-1.158544"><ele>6.2</ele></trkpt>
      <trkpt lat="46.162394" lon="-1.158198"><ele>6.2</ele></trkpt>
      <trkpt lat="46.162146" lon="-1.154934"><ele>8.0</ele></trkpt>
      <trkpt lat="46.161810" lon="-1.152902"><ele>11.6</ele></trkpt>
      <trkpt lat="46.161636" lon="-1.152847"><ele>11.6</ele></trkpt>
      <trkpt lat="46.160289" lon="-1.153405"><ele>10.6</ele></trkpt>
      <trkpt lat="46.159782" lon="-1.150804"><ele>8.4</ele></trkpt>
      <trkpt lat="46.159436" lon="-1.150148"><ele>6.8</ele></trkpt>
      <trkpt lat="46.158877" lon="-1.149883"><ele>6.0</ele></trkpt>
      <trkpt lat="46.158171" lon="-1.151032"><ele>5.6</ele></trkpt>
      <trkpt lat="46.158169" lon="-1.152443"><ele>4.4</ele></trkpt>
      <trkpt lat="46.158074" lon="-1.152890"><ele>5.0</ele></trkpt>
      <trkpt lat="46.156674" lon="-1.153975"><ele>4.8</ele></trkpt>
      <trkpt lat="46.155655" lon="-1.154395"><ele>6.0</ele></trkpt>
      <trkpt lat="46.155538" lon="-1.154665"><ele>5.6</ele></trkpt>
      <trkpt lat="46.155532" lon="-1.155246"><ele>5.8</ele></trkpt>
    </trkseg>
  </trk>
</gpx>
