<?xml version="1.0" encoding="UTF-8"?>
<gpx version="1.1" creator="gpx-processor" xmlns="http://www.topografix.com/GPX/1/1">
  <metadata><name>Le semi-marathon de la Coulée Verte</name></metadata>
  <trk>
    <name>Le semi-marathon de la Coulée Verte</name>
    <trkseg>
      <trkpt lat="46.323412" lon="-0.459188"><ele>21.6</ele></trkpt>
      <trkpt lat="46.321366" lon="-0.460922"><ele>28.4</ele></trkpt>
      <trkpt lat="46.321303" lon="-0.461045"><ele>29.2</ele></trkpt>
      <trkpt lat="46.321314" lon="-0.461317"><ele>30.0</ele></trkpt>
      <trkpt lat="46.321130" lon="-0.461658"><ele>30.8</ele></trkpt>
      <trkpt lat="46.321113" lon="-0.461987"><ele>30.8</ele></trkpt>
      <trkpt lat="46.321325" lon="-0.464229"><ele>31.8</ele></trkpt>
      <trkpt lat="46.321287" lon="-0.465254"><ele>31.2</ele></trkpt>
      <trkpt lat="46.321987" lon="-0.466507"><ele>31.2</ele></trkpt>
      <trkpt lat="46.322574" lon="-0.467081"><ele>29.8</ele></trkpt>
      <trkpt lat="46.324203" lon="-0.467736"><ele>19.0</ele></trkpt>
      <trkpt lat="46.325595" lon="-0.465223"><ele>17.2</ele></trkpt>
      <trkpt lat="46.326065" lon="-0.464712"><ele>16.8</ele></trkpt>
      <trkpt lat="46.326087" lon="-0.464513"><ele>16.8</ele></trkpt>
      <trkpt lat="46.325603" lon="-0.463494"><ele>18.6</ele></trkpt>
      <trkpt lat="46.325321" lon="-0.462639"><ele>19.8</ele></trkpt>
      <trkpt lat="46.324297" lon="-0.461720"><ele>20.8</ele></trkpt>
      <trkpt lat="46.323745" lon="-0.460333"><ele>22.4</ele></trkpt>
      <trkpt lat="46.323382" lon="-0.460818"><ele>22.2</ele></trkpt>
      <trkpt lat="46.323273" lon="-0.460725"><ele>22.2</ele></trkpt>
      <trkpt lat="46.322993" lon="-0.460108"><ele>23.2</ele></trkpt>
      <trkpt lat="46.322697" lon="-0.460137"><ele>24.0</ele></trkpt>
      <trkpt lat="46.322428" lon="-0.459994"><ele>24.4</ele></trkpt>
      <trkpt lat="46.321854" lon="-0.460422"><ele>26.4</ele></trkpt>
      <trkpt lat="46.321326" lon="-0.460984"><ele>30.0</ele></trkpt>
      <trkpt lat="46.321312" lon="-0.461315"><ele>31.2</ele></trkpt>
      <trkpt lat="46.321150" lon="-0.461597"><ele>32.0</ele></trkpt>
      <trkpt lat="46.321131" lon="-0.461921"><ele>31.8</ele></trkpt>
      <trkpt lat="46.321327" lon="-0.464397"><ele>32.4</ele></trkpt>
      <trkpt lat="46.321286" lon="-0.465199"><ele>31.8</ele></trkpt>
      <trkpt lat="46.321780" lon="-0.466212"><ele>31.8</ele></trkpt>
      <trkpt lat="46.322124" lon="-0.466666"><ele>30.8</ele></trkpt>
      <trkpt lat="46.322653" lon="-0.467139"><ele>29.2</ele></trkpt>
      <trkpt lat="46.323091" lon="-0.467248"><ele>26.6</ele></trkpt>
      <trkpt lat="46.323902" lon="-0.467729"><ele>20.6</ele></trkpt>
      <trkpt lat="46.325509" lon="-0.468302"><ele>14.8</ele></trkpt>
      <trkpt lat="46.325754" lon="-0.468634"><ele>13.8</ele></trkpt>
      <trkpt lat="46.325414" lon="-0.469504"><ele>13.4</ele></trkpt>
      <trkpt lat="46.324763" lon="-0.469736"><ele>13.2</ele></trkpt>
      <trkpt lat="46.324587" lon="-0.470018"><ele>13.4</ele></trkpt>
      <trkpt lat="46.324088" lon="-0.471956"><ele>13.0</ele></trkpt>
      <trkpt lat="46.324052" lon="-0.472704"><ele>13.4</ele></trkpt>
      <trkpt lat="46.324122" lon="-0.473417"><ele>13.0</ele></trkpt>
      <trkpt lat="46.324512" lon="-0.473693"><ele>12.8</ele></trkpt>
      <trkpt lat="46.324836" lon="-0.474120"><ele>12.0</ele></trkpt>
      <trkpt lat="46.325394" lon="-0.473849"><ele>11.4</ele></trkpt>
      <trkpt lat="46.325090" lon="-0.470748"><ele>11.8</ele></trkpt>
      <trkpt lat="46.324863" lon="-0.470477"><ele>11.2</ele></trkpt>
      <trkpt lat="46.324817" lon="-0.469890"><ele>11.6</ele></trkpt>
      <trkpt lat="46.324885" lon="-0.469726"><ele>11.4</ele></trkpt>
      <trkpt lat="46.325361" lon="-0.469672"><ele>12.0</ele></trkpt>
      <trkpt lat="46.325415" lon="-0.469800"><ele>11.8</ele></trkpt>
      <trkpt lat="46.325370" lon="-0.470899"><ele>11.2</ele></trkpt>
      <trkpt lat="46.325545" lon="-0.472942"><ele>11.8</ele></trkpt>
      <trkpt lat="46.325753" lon="-0.474363"><ele>11.0</ele></trkpt>
      <trkpt lat="46.325933" lon="-0.474784"><ele>11.0</ele></trkpt>
      <trkpt lat="46.327360" lon="-0.475576"><ele>10.4</ele></trkpt>
      <trkpt lat="46.328192" lon="-0.476561"><ele>10.2</ele></trkpt>
      <trkpt lat="46.328890" lon="-0.476885"><ele>10.2</ele></trkpt>
      <trkpt lat="46.330365" lon="-0.478188"><ele>10.0</ele></trkpt>
      <trkpt lat="46.331068" lon="-0.478545"><ele>9.8</ele></trkpt>
      <trkpt lat="46.331416" lon="-0.478654"><ele>9.8</ele></trkpt>
      <trkpt lat="46.332828" lon="-0.478613"><ele>9.4</ele></trkpt>
      <trkpt lat="46.334828" lon="-0.478819"><ele>9.2</ele></trkpt>
      <trkpt lat="46.335001" lon="-0.478375"><ele>9.2</ele></trkpt>
      <trkpt lat="46.334901" lon="-0.478147"><ele>9.4</ele></trkpt>
      <trkpt lat="46.333236" lon="-0.477456"><ele>10.0</ele></trkpt>
      <trkpt lat="46.333089" lon="-0.477302"><ele>10.2</ele></trkpt>
      <trkpt lat="46.333062" lon="-0.474901"><ele>14.4</ele></trkpt>
      <trkpt lat="46.332981" lon="-0.474459"><ele>15.6</ele></trkpt>
      <trkpt lat="46.332919" lon="-0.473045"><ele>15.0</ele></trkpt>
      <trkpt lat="46.332757" lon="-0.471447"><ele>16.0</ele></trkpt>
      <trkpt lat="46.332580" lon="-0.471171"><ele>16.2</ele></trkpt>
      <trkpt lat="46.330931" lon="-0.470516"><ele>15.4</ele></trkpt>
      <trkpt lat="46.330690" lon="-0.473870"><ele>13.2</ele></trkpt>
      <trkpt lat="46.327405" lon="-0.473630"><ele>14.2</ele></trkpt>
      <trkpt lat="46.327253" lon="-0.473600"><ele>14.4</ele></trkpt>
      <trkpt lat="46.327187" lon="-0.473473"><ele>14.0</ele></trkpt>
      <trkpt lat="46.327370" lon="-0.470147"><ele>15.8</ele></trkpt>
      <trkpt lat="46.327529" lon="-0.469164"><ele>14.2</ele></trkpt>
      <trkpt lat="46.329622" lon="-0.469906"><ele>15.0</ele></trkpt>
      <trkpt lat="46.329745" lon="-0.469781"><ele>15.2</ele></trkpt>
      <trkpt lat="46.329931" lon="-0.469036"><ele>15.4</ele></trkpt>
      <trkpt lat="46.330347" lon="-0.469311"><ele>15.6</ele></trkpt>
      <trkpt lat="46.330454" lon="-0.469291"><ele>15.6</ele></trkpt>
      <trkpt lat="46.330580" lon="-0.468789"><ele>16.0</ele></trkpt>
      <trkpt lat="46.330949" lon="-0.468215"><ele>16.8</ele></trkpt>
      <trkpt lat="46.331042" lon="-0.467547"><ele>17.2</ele></trkpt>
      <trkpt lat="46.332614" lon="-0.467406"><ele>18.0</ele></trkpt>
      <trkpt lat="46.332742" lon="-0.467292"><ele>18.2</ele></trkpt>
      <trkpt lat="46.332563" lon="-0.465838"><ele>16.2</ele></trkpt>
      <trkpt lat="46.332567" lon="-0.464820"><ele>14.4</ele></trkpt>
      <trkpt lat="46.330835" lon="-0.465028"><ele>14.6</ele></trkpt>
      <trkpt lat="46.330749" lon="-0.463787"><ele>14.4</ele></trkpt>
      <trkpt lat="46.330329" lon="-0.463534"><ele>14.4</ele></trkpt>
      <trkpt lat="46.330192" lon="-0.463330"><ele>13.8</ele></trkpt>
      <trkpt lat="46.330185" lon="-0.463063"><ele>13.6</ele></trkpt>
      <trkpt lat="46.330281" lon="-0.462895"><ele>13.6</ele></trkpt>
      <trkpt lat="46.330954" lon="-0.462683"><ele>14.2</ele></trkpt>
      <trkpt lat="46.330984" lon="-0.462253"><ele>15.6</ele></trkpt>
      <trkpt lat="46.330919" lon="-0.462134"><ele>15.2</ele></trkpt>
      <trkpt lat="46.330251" lon="-0.462200"><ele>16.4</ele></trkpt>
      <trkpt lat="46.329198" lon="-0.462668"><ele>14.2</ele></trkpt>
      <trkpt lat="46.327970" lon="-0.463341"><ele>14.8</ele></trkpt>
      <trkpt lat="46.326988" lon="-0.464028"><ele>15.4</ele></trkpt>
      <trkpt lat="46.326996" lon="-0.464200"><ele>16.8</ele></trkpt>
      <trkpt lat="46.327385" lon="-0.465112"><ele>18.0</ele></trkpt>
      <trkpt lat="46.327602" lon="-0.465981"><ele>15.6</ele></trkpt>
      <trkpt lat="46.327606" lon="-0.467130"><ele>15.4</ele></trkpt>
      <trkpt lat="46.328233" lon="-0.467672"><ele>17.2</ele></trkpt>
      <trkpt lat="46.329115" lon="-0.469040"><ele>16.0</ele></trkpt>
      <trkpt lat="46.329130" lon="-0.469234"><ele>15.6</ele></trkpt>
      <trkpt lat="46.329008" lon="-0.469607"><ele>15.2</ele></trkpt>
      <trkpt lat="46.328938" lon="-0.469639"><ele>15.0</ele></trkpt>
      <trkpt lat="46.326039" lon="-0.468466"><ele>14.2</ele></trkpt>
      <trkpt lat="46.325815" lon="-0.468273"><ele>14.2</ele></trkpt>
      <trkpt lat="46.325219" lon="-0.468155"><ele>16.2</ele></trkpt>
      <trkpt lat="46.324354" lon="-0.467771"><ele>19.2</ele></trkpt>
      <trkpt lat="46.324377" lon="-0.467479"><ele>18.4</ele></trkpt>
      <trkpt lat="46.324841" lon="-0.466600"><ele>16.0</ele></trkpt>
      <trkpt lat="46.325616" lon="-0.465207"><ele>17.2</ele></trkpt>
      <trkpt lat="46.326107" lon="-0.464677"><ele>17.2</ele></trkpt>
      <trkpt lat="46.326102" lon="-0.464513"><ele>16.8</ele></trkpt>
      <trkpt lat="46.325308" lon="-0.462639"><ele>20.4</ele></trkpt>
      <trkpt lat="46.324214" lon="-0.461555"><ele>21.6</ele></trkpt>
      <trkpt lat="46.323700" lon="-0.460334"><ele>23.0</ele></trkpt>
      <trkpt lat="46.323522" lon="-0.460458"><ele>23.2</ele></trkpt>
      <trkpt lat="46.323367" lon="-0.460794"><ele>22.8</ele></trkpt>
      <trkpt lat="46.323020" lon="-0.460138"><ele>23.6</ele></trkpt>
      <trkpt lat="46.322729" lon="-0.460126"><ele>25.0</ele></trkpt>
      <trkpt lat="46.322492" lon="-0.459983"><ele>25.2</ele></trkpt>
      <trkpt lat="46.321824" lon="-0.460454"><ele>28.4</ele></trkpt>
      <trkpt lat="46.321315" lon="-0.460998"><ele>30.6</ele></trkpt>
      <trkpt lat="46.321307" lon="-0.461307"><ele>31.6</ele></trkpt>
      <trkpt lat="46.321140" lon="-0.461672"><ele>32.2</ele></trkpt>
      <trkpt lat="46.321341" lon="-0.464441"><ele>33.0</ele></trkpt>
      <trkpt lat="46.321286" lon="-0.465214"><ele>32.4</ele></trkpt>
      <trkpt lat="46.321714" lon="-0.466100"><ele>32.4</ele></trkpt>
      <trkpt lat="46.322291" lon="-0.466916"><ele>30.8</ele></trkpt>
      <trkpt lat="46.322212" lon="-0.467085"><ele>30.4</ele></trkpt>
      <trkpt lat="46.321262" lon="-0.467503"><ele>29.8</ele></trkpt>
      <trkpt lat="46.321075" lon="-0.467687"><ele>29.4</ele></trkpt>
      <trkpt lat="46.321046" lon="-0.468244"><ele>29.4</ele></trkpt>
      <trkpt lat="46.321138" lon="-0.469303"><ele>29.6</ele></trkpt>
      <trkpt lat="46.321372" lon="-0.470790"><ele>28.4</ele></trkpt>
      <trkpt lat="46.322089" lon="-0.470447"><ele>29.2</ele></trkpt>
      <trkpt lat="46.322889" lon="-0.470532"><ele>26.6</ele></trkpt>
      <trkpt lat="46.322985" lon="-0.469928"><ele>26.4</ele></trkpt>
      <trkpt lat="46.323121" lon="-0.467421"><ele>25.6</ele></trkpt>
      <trkpt lat="46.325551" lon="-0.468352"><ele>15.4</ele></trkpt>
      <trkpt lat="46.325736" lon="-0.468748"><ele>14.2</ele></trkpt>
      <trkpt lat="46.325426" lon="-0.469470"><ele>14.2</ele></trkpt>
      <trkpt lat="46.324707" lon="-0.469783"><ele>14.2</ele></trkpt>
      <trkpt lat="46.324488" lon="-0.470329"><ele>14.8</ele></trkpt>
      <trkpt lat="46.324106" lon="-0.471949"><ele>14.4</ele></trkpt>
      <trkpt lat="46.324051" lon="-0.472681"><ele>15.0</ele></trkpt>
      <trkpt lat="46.324130" lon="-0.473420"><ele>14.4</ele></trkpt>
      <trkpt lat="46.324855" lon="-0.474111"><ele>13.6</ele></trkpt>
      <trkpt lat="46.325419" lon="-0.473826"><ele>13.0</ele></trkpt>
      <trkpt lat="46.325110" lon="-0.470764"><ele>14.4</ele></trkpt>
      <trkpt lat="46.324890" lon="-0.470489"><ele>14.2</ele></trkpt>
      <trkpt lat="46.324827" lon="-0.469878"><ele>14.6</ele></trkpt>
      <trkpt lat="46.324906" lon="-0.469728"><ele>14.6</ele></trkpt>
      <trkpt lat="46.325336" lon="-0.469665"><ele>15.2</ele></trkpt>
      <trkpt lat="46.325417" lon="-0.469773"><ele>15.0</ele></trkpt>
      <trkpt lat="46.325367" lon="-0.471007"><ele>14.4</ele></trkpt>
      <trkpt lat="46.325635" lon="-0.473647"><ele>13.6</ele></trkpt>
      <trkpt lat="46.325754" lon="-0.474436"><ele>13.6</ele></trkpt>
      <trkpt lat="46.325953" lon="-0.474830"><ele>13.2</ele></trkpt>
      <trkpt lat="46.327329" lon="-0.475597"><ele>13.0</ele></trkpt>
      <trkpt lat="46.328109" lon="-0.476512"><ele>12.6</ele></trkpt>
      <trkpt lat="46.329022" lon="-0.476997"><ele>12.8</ele></trkpt>
      <trkpt lat="46.330331" lon="-0.478186"><ele>12.4</ele></trkpt>
      <trkpt lat="46.331120" lon="-0.478593"><ele>12.4</ele></trkpt>
      <trkpt lat="46.331597" lon="-0.478667"><ele>12.4</ele></trkpt>
      <trkpt lat="46.332873" lon="-0.478616"><ele>12.4</ele></trkpt>
      <trkpt lat="46.334728" lon="-0.478862"><ele>12.0</ele></trkpt>
      <trkpt lat="46.334838" lon="-0.478793"><ele>12.0</ele></trkpt>
      <trkpt lat="46.334986" lon="-0.478467"><ele>12.0</ele></trkpt>
      <trkpt lat="46.334979" lon="-0.478252"><ele>11.8</ele></trkpt>
      <trkpt lat="46.334834" lon="-0.478076"><ele>12.2</ele></trkpt>
      <trkpt lat="46.333242" lon="-0.477455"><ele>12.8</ele></trkpt>
      <trkpt lat="46.333129" lon="-0.477332"><ele>13.0</ele></trkpt>
      <trkpt lat="46.333078" lon="-0.475027"><ele>16.4</ele></trkpt>
      <trkpt lat="46.332866" lon="-0.472208"><ele>18.0</ele></trkpt>
      <trkpt lat="46.332767" lon="-0.471476"><ele>18.8</ele></trkpt>
      <trkpt lat="46.332620" lon="-0.471200"><ele>18.4</ele></trkpt>
      <trkpt lat="46.330929" lon="-0.470511"><ele>17.6</ele></trkpt>
      <trkpt lat="46.330767" lon="-0.473623"><ele>15.6</ele></trkpt>
      <trkpt lat="46.330664" lon="-0.473886"><ele>15.0</ele></trkpt>
      <trkpt lat="46.327331" lon="-0.473613"><ele>16.0</ele></trkpt>
      <trkpt lat="46.327213" lon="-0.473496"><ele>15.8</ele></trkpt>
      <trkpt lat="46.327362" lon="-0.470337"><ele>17.8</ele></trkpt>
      <trkpt lat="46.327508" lon="-0.469181"><ele>16.4</ele></trkpt>
      <trkpt lat="46.329636" lon="-0.469892"><ele>16.8</ele></trkpt>
      <trkpt lat="46.329732" lon="-0.469778"><ele>17.0</ele></trkpt>
      <trkpt lat="46.329910" lon="-0.469052"><ele>17.0</ele></trkpt>
      <trkpt lat="46.330057" lon="-0.469055"><ele>17.6</ele></trkpt>
      <trkpt lat="46.330376" lon="-0.469342"><ele>17.4</ele></trkpt>
      <trkpt lat="46.330453" lon="-0.469302"><ele>17.4</ele></trkpt>
      <trkpt lat="46.330581" lon="-0.468788"><ele>17.6</ele></trkpt>
      <trkpt lat="46.330806" lon="-0.468535"><ele>18.4</ele></trkpt>
      <trkpt lat="46.330963" lon="-0.468178"><ele>18.8</ele></trkpt>
      <trkpt lat="46.331066" lon="-0.467529"><ele>19.4</ele></trkpt>
      <trkpt lat="46.332588" lon="-0.467402"><ele>19.6</ele></trkpt>
      <trkpt lat="46.332748" lon="-0.467271"><ele>19.6</ele></trkpt>
      <trkpt lat="46.332583" lon="-0.465913"><ele>18.0</ele></trkpt>
      <trkpt lat="46.332578" lon="-0.464844"><ele>16.2</ele></trkpt>
      <trkpt lat="46.332470" lon="-0.464771"><ele>16.2</ele></trkpt>
      <trkpt lat="46.331988" lon="-0.464813"><ele>16.4</ele></trkpt>
      <trkpt lat="46.331540" lon="-0.464970"><ele>16.8</ele></trkpt>
      <trkpt lat="46.330851" lon="-0.465031"><ele>16.8</ele></trkpt>
      <trkpt lat="46.330793" lon="-0.464905"><ele>16.6</ele></trkpt>
      <trkpt lat="46.330766" lon="-0.463806"><ele>16.2</ele></trkpt>
      <trkpt lat="46.330225" lon="-0.463356"><ele>15.2</ele></trkpt>
      <trkpt lat="46.330207" lon="-0.463106"><ele>15.0</ele></trkpt>
      <trkpt lat="46.330307" lon="-0.462887"><ele>15.2</ele></trkpt>
      <trkpt lat="46.330946" lon="-0.462682"><ele>15.6</ele></trkpt>
      <trkpt lat="46.330975" lon="-0.462192"><ele>16.8</ele></trkpt>
      <trkpt lat="46.330773" lon="-0.462115"><ele>15.6</ele></trkpt>
      <trkpt lat="46.330281" lon="-0.462202"><ele>17.0</ele></trkpt>
      <trkpt lat="46.329332" lon="-0.462605"><ele>15.8</ele></trkpt>
      <trkpt lat="46.327869" lon="-0.463385"><ele>16.6</ele></trkpt>
      <trkpt lat="46.326980" lon="-0.464058"><ele>17.6</ele></trkpt>
      <trkpt lat="46.327617" lon="-0.465929"><ele>17.6</ele></trkpt>
      <trkpt lat="46.327599" lon="-0.467103"><ele>17.2</ele></trkpt>
      <trkpt lat="46.328219" lon="-0.467642"><ele>18.4</ele></trkpt>
      <trkpt lat="46.328943" lon="-0.468715"><ele>17.6</ele></trkpt>
      <trkpt lat="46.329133" lon="-0.469232"><ele>17.2</ele></trkpt>
      <trkpt lat="46.329041" lon="-0.469578"><ele>16.4</ele></trkpt>
      <trkpt lat="46.328904" lon="-0.469628"><ele>16.2</ele></trkpt>
      <trkpt lat="46.326007" lon="-0.468456"><ele>15.4</ele></trkpt>
      <trkpt lat="46.325809" lon="-0.468260"><ele>15.6</ele></trkpt>
      <trkpt lat="46.325172" lon="-0.468142"><ele>17.8</ele></trkpt>
      <trkpt lat="46.324341" lon="-0.467745"><ele>19.4</ele></trkpt>
      <trkpt lat="46.324408" lon="-0.467422"><ele>18.2</ele></trkpt>
      <trkpt lat="46.325263" lon="-0.465853"><ele>17.0</ele></trkpt>
      <trkpt lat="46.325643" lon="-0.465187"><ele>17.4</ele></trkpt>
      <trkpt lat="46.326122" lon="-0.464598"><ele>17.0</ele></trkpt>
      <trkpt lat="46.325619" lon="-0.463476"><ele>19.4</ele></trkpt>
      <trkpt lat="46.325373" lon="-0.462713"><ele>20.4</ele></trkpt>
      <trkpt lat="46.324281" lon="-0.461682"><ele>21.4</ele></trkpt>
      <trkpt lat="46.323405" lon="-0.459531"><ele>23.6</ele></trkpt>
    </trkseg>
  </trk>
</gpx>
