<?xml version="1.0" encoding="UTF-8"?>
<gpx version="1.1" creator="gpx-processor" xmlns="http://www.topografix.com/GPX/1/1">
  <metadata><name>Ultra Trail de l'île d'Oléron (Solo)</name></metadata>
  <trk>
    <name>Ultra Trail de l'île d'Oléron (Solo)</name>
    <trkseg>
      <trkpt lat="45.884392" lon="-1.189327"><ele>7.2</ele></trkpt>
      <trkpt lat="45.884075" lon="-1.189728"><ele>1.8</ele></trkpt>
      <trkpt lat="45.884101" lon="-1.189912"><ele>0.6</ele></trkpt>
      <trkpt lat="45.885192" lon="-1.192566"><ele>7.2</ele></trkpt>
      <trkpt lat="45.885931" lon="-1.194630"><ele>8.4</ele></trkpt>
      <trkpt lat="45.885824" lon="-1.194784"><ele>8.4</ele></trkpt>
      <trkpt lat="45.885066" lon="-1.194932"><ele>8.4</ele></trkpt>
      <trkpt lat="45.884865" lon="-1.195080"><ele>7.8</ele></trkpt>
      <trkpt lat="45.884611" lon="-1.195455"><ele>5.8</ele></trkpt>
      <trkpt lat="45.884335" lon="-1.195422"><ele>4.8</ele></trkpt>
      <trkpt lat="45.884183" lon="-1.195273"><ele>4.4</ele></trkpt>
      <trkpt lat="45.883489" lon="-1.192544"><ele>4.4</ele></trkpt>
      <trkpt lat="45.883348" lon="-1.192304"><ele>4.6</ele></trkpt>
      <trkpt lat="45.883140" lon="-1.192166"><ele>4.8</ele></trkpt>
      <trkpt lat="45.882869" lon="-1.192147"><ele>5.0</ele></trkpt>
      <trkpt lat="45.882530" lon="-1.192318"><ele>5.0</ele></trkpt>
      <trkpt lat="45.881639" lon="-1.193505"><ele>4.2</ele></trkpt>
      <trkpt lat="45.881074" lon="-1.193793"><ele>4.2</ele></trkpt>
      <trkpt lat="45.879664" lon="-1.193637"><ele>4.8</ele></trkpt>
      <trkpt lat="45.876807" lon="-1.193727"><ele>5.0</ele></trkpt>
      <trkpt lat="45.874640" lon="-1.192778"><ele>4.6</ele></trkpt>
      <trkpt lat="45.873495" lon="-1.192994"><ele>4.0</ele></trkpt>
      <trkpt lat="45.873367" lon="-1.193221"><ele>4.0</ele></trkpt>
      <trkpt lat="45.873297" lon="-1.194809"><ele>2.8</ele></trkpt>
      <trkpt lat="45.873122" lon="-1.195154"><ele>2.8</ele></trkpt>
      <trkpt lat="45.872391" lon="-1.195859"><ele>3.0</ele></trkpt>
      <trkpt lat="45.872446" lon="-1.196808"><ele>3.0</ele></trkpt>
      <trkpt lat="45.872401" lon="-1.196901"><ele>3.6</ele></trkpt>
      <trkpt lat="45.871853" lon="-1.197442"><ele>3.6</ele></trkpt>
      <trkpt lat="45.871406" lon="-1.197207"><ele>2.8</ele></trkpt>
      <trkpt lat="45.871130" lon="-1.197202"><ele>2.4</ele></trkpt>
      <trkpt lat="45.870660" lon="-1.197441"><ele>2.8</ele></trkpt>
      <trkpt lat="45.870237" lon="-1.197455"><ele>2.6</ele></trkpt>
      <trkpt lat="45.869508" lon="-1.197921"><ele>3.0</ele></trkpt>
      <trkpt lat="45.868687" lon="-1.198765"><ele>3.2</ele></trkpt>
      <trkpt lat="45.867672" lon="-1.200114"><ele>3.0</ele></trkpt>
      <trkpt lat="45.867440" lon="-1.200177"><ele>3.4</ele></trkpt>
      <trkpt lat="45.867213" lon="-1.200170"><ele>3.2</ele></trkpt>
      <trkpt lat="45.867058" lon="-1.200033"><ele>3.2</ele></trkpt>
      <trkpt lat="45.866654" lon="-1.199262"><ele>2.2</ele></trkpt>
      <trkpt lat="45.866311" lon="-1.199614"><ele>2.2</ele></trkpt>
      <trkpt lat="45.866145" lon="-1.199406"><ele>2.2</ele></trkpt>
      <trkpt lat="45.866020" lon="-1.199563"><ele>2.0</ele></trkpt>
      <trkpt lat="45.865900" lon="-1.199564"><ele>2.2</ele></trkpt>
      <trkpt lat="45.865787" lon="-1.199332"><ele>2.2</ele></trkpt>
      <trkpt lat="45.865934" lon="-1.198992"><ele>2.4</ele></trkpt>
      <trkpt lat="45.865042" lon="-1.197003"><ele>3.0</ele></trkpt>
      <trkpt lat="45.864773" lon="-1.197135"><ele>2.4</ele></trkpt>
      <trkpt lat="45.864485" lon="-1.197028"><ele>2.4</ele></trkpt>
      <trkpt lat="45.863629" lon="-1.197157"><ele>2.2</ele></trkpt>
      <trkpt lat="45.862980" lon="-1.196799"><ele>3.0</ele></trkpt>
      <trkpt lat="45.862720" lon="-1.196944"><ele>2.2</ele></trkpt>
      <trkpt lat="45.863087" lon="-1.197973"><ele>2.2</ele></trkpt>
      <trkpt lat="45.863048" lon="-1.198194"><ele>1.2</ele></trkpt>
      <trkpt lat="45.863625" lon="-1.199185"><ele>0.6</ele></trkpt>
      <trkpt lat="45.863661" lon="-1.199714"><ele>0.8</ele></trkpt>
      <trkpt lat="45.863798" lon="-1.200246"><ele>1.0</ele></trkpt>
      <trkpt lat="45.864217" lon="-1.201185"><ele>0.6</ele></trkpt>
      <trkpt lat="45.864219" lon="-1.201543"><ele>0.2</ele></trkpt>
      <trkpt lat="45.864089" lon="-1.201979"><ele>0.6</ele></trkpt>
      <trkpt lat="45.864226" lon="-1.202446"><ele>0.2</ele></trkpt>
      <trkpt lat="45.864102" lon="-1.202995"><ele>-0.6</ele></trkpt>
      <trkpt lat="45.864350" lon="-1.203252"><ele>-0.6</ele></trkpt>
      <trkpt lat="45.864092" lon="-1.203744"><ele>0.0</ele></trkpt>
      <trkpt lat="45.864079" lon="-1.204163"><ele>0.2</ele></trkpt>
      <trkpt lat="45.864213" lon="-1.205145"><ele>0.0</ele></trkpt>
      <trkpt lat="45.864636" lon="-1.206644"><ele>0.6</ele></trkpt>
      <trkpt lat="45.865167" lon="-1.207500"><ele>0.2</ele></trkpt>
      <trkpt lat="45.865446" lon="-1.207690"><ele>0.0</ele></trkpt>
      <trkpt lat="45.865537" lon="-1.207654"><ele>0.4</ele></trkpt>
      <trkpt lat="45.865917" lon="-1.208143"><ele>0.0</ele></trkpt>
      <trkpt lat="45.866558" lon="-1.208606"><ele>0.0</ele></trkpt>
      <trkpt lat="45.866991" lon="-1.208561"><ele>0.2</ele></trkpt>
      <trkpt lat="45.867283" lon="-1.209092"><ele>0.2</ele></trkpt>
      <trkpt lat="45.867769" lon="-1.209593"><ele>0.4</ele></trkpt>
      <trkpt lat="45.867976" lon="-1.210437"><ele>0.4</ele></trkpt>
      <trkpt lat="45.868084" lon="-1.211270"><ele>0.4</ele></trkpt>
      <trkpt lat="45.868608" lon="-1.212323"><ele>0.8</ele></trkpt>
      <trkpt lat="45.869302" lon="-1.213220"><ele>0.4</ele></trkpt>
      <trkpt lat="45.869608" lon="-1.214055"><ele>0.6</ele></trkpt>
      <trkpt lat="45.870460" lon="-1.215794"><ele>1.2</ele></trkpt>
      <trkpt lat="45.870568" lon="-1.216443"><ele>1.0</ele></trkpt>
      <trkpt lat="45.871012" lon="-1.217408"><ele>1.2</ele></trkpt>
      <trkpt lat="45.870845" lon="-1.217658"><ele>1.0</ele></trkpt>
      <trkpt lat="45.870803" lon="-1.218225"><ele>1.0</ele></trkpt>
      <trkpt lat="45.870616" lon="-1.218570"><ele>1.8</ele></trkpt>
      <trkpt lat="45.869351" lon="-1.219635"><ele>1.6</ele></trkpt>
      <trkpt lat="45.869040" lon="-1.219844"><ele>1.6</ele></trkpt>
      <trkpt lat="45.868542" lon="-1.219916"><ele>1.8</ele></trkpt>
      <trkpt lat="45.867570" lon="-1.220355"><ele>2.0</ele></trkpt>
      <trkpt lat="45.867097" lon="-1.220339"><ele>2.2</ele></trkpt>
      <trkpt lat="45.866084" lon="-1.221217"><ele>1.8</ele></trkpt>
      <trkpt lat="45.865984" lon="-1.221488"><ele>1.4</ele></trkpt>
      <trkpt lat="45.866027" lon="-1.222492"><ele>1.8</ele></trkpt>
      <trkpt lat="45.865600" lon="-1.223934"><ele>2.0</ele></trkpt>
      <trkpt lat="45.865001" lon="-1.224923"><ele>2.4</ele></trkpt>
      <trkpt lat="45.864443" lon="-1.226718"><ele>1.8</ele></trkpt>
      <trkpt lat="45.863493" lon="-1.228290"><ele>2.2</ele></trkpt>
      <trkpt lat="45.863418" lon="-1.228612"><ele>2.2</ele></trkpt>
      <trkpt lat="45.863419" lon="-1.229786"><ele>2.0</ele></trkpt>
      <trkpt lat="45.863060" lon="-1.230705"><ele>1.8</ele></trkpt>
      <trkpt lat="45.862877" lon="-1.230955"><ele>1.8</ele></trkpt>
      <trkpt lat="45.862474" lon="-1.230988"><ele>2.8</ele></trkpt>
      <trkpt lat="45.862101" lon="-1.230580"><ele>2.2</ele></trkpt>
      <trkpt lat="45.861791" lon="-1.230780"><ele>2.6</ele></trkpt>
      <trkpt lat="45.861577" lon="-1.230366"><ele>2.4</ele></trkpt>
      <trkpt lat="45.861308" lon="-1.230118"><ele>2.4</ele></trkpt>
      <trkpt lat="45.860708" lon="-1.229996"><ele>2.2</ele></trkpt>
      <trkpt lat="45.860219" lon="-1.229651"><ele>2.2</ele></trkpt>
      <trkpt lat="45.859017" lon="-1.229478"><ele>2.4</ele></trkpt>
      <trkpt lat="45.858499" lon="-1.229677"><ele>2.2</ele></trkpt>
      <trkpt lat="45.857847" lon="-1.229058"><ele>2.4</ele></trkpt>
      <trkpt lat="45.857399" lon="-1.228854"><ele>2.6</ele></trkpt>
      <trkpt lat="45.856705" lon="-1.228300"><ele>3.6</ele></trkpt>
      <trkpt lat="45.856520" lon="-1.228244"><ele>3.8</ele></trkpt>
      <trkpt lat="45.856334" lon="-1.228488"><ele>5.4</ele></trkpt>
      <trkpt lat="45.855869" lon="-1.227617"><ele>6.0</ele></trkpt>
      <trkpt lat="45.855627" lon="-1.227639"><ele>7.6</ele></trkpt>
      <trkpt lat="45.854704" lon="-1.228405"><ele>8.0</ele></trkpt>
      <trkpt lat="45.854054" lon="-1.228706"><ele>7.8</ele></trkpt>
      <trkpt lat="45.853928" lon="-1.228222"><ele>7.8</ele></trkpt>
      <trkpt lat="45.853551" lon="-1.227674"><ele>10.8</ele></trkpt>
      <trkpt lat="45.853416" lon="-1.226994"><ele>11.0</ele></trkpt>
      <trkpt lat="45.852964" lon="-1.226024"><ele>9.6</ele></trkpt>
      <trkpt lat="45.852958" lon="-1.225799"><ele>8.8</ele></trkpt>
      <trkpt lat="45.853138" lon="-1.225199"><ele>8.0</ele></trkpt>
      <trkpt lat="45.852985" lon="-1.224715"><ele>7.4</ele></trkpt>
      <trkpt lat="45.852751" lon="-1.224472"><ele>7.6</ele></trkpt>
      <trkpt lat="45.852324" lon="-1.224492"><ele>8.6</ele></trkpt>
      <trkpt lat="45.851800" lon="-1.224052"><ele>10.0</ele></trkpt>
      <trkpt lat="45.851341" lon="-1.224084"><ele>8.4</ele></trkpt>
      <trkpt lat="45.851239" lon="-1.223930"><ele>8.2</ele></trkpt>
      <trkpt lat="45.851256" lon="-1.223500"><ele>9.4</ele></trkpt>
      <trkpt lat="45.851117" lon="-1.223141"><ele>9.8</ele></trkpt>
      <trkpt lat="45.850625" lon="-1.223282"><ele>10.6</ele></trkpt>
      <trkpt lat="45.850494" lon="-1.223224"><ele>9.6</ele></trkpt>
      <trkpt lat="45.850213" lon="-1.222640"><ele>7.8</ele></trkpt>
      <trkpt lat="45.849735" lon="-1.222007"><ele>8.0</ele></trkpt>
      <trkpt lat="45.849429" lon="-1.221286"><ele>8.4</ele></trkpt>
      <trkpt lat="45.849349" lon="-1.220859"><ele>8.2</ele></trkpt>
      <trkpt lat="45.848924" lon="-1.221158"><ele>9.8</ele></trkpt>
      <trkpt lat="45.848794" lon="-1.220985"><ele>11.4</ele></trkpt>
      <trkpt lat="45.848705" lon="-1.220620"><ele>12.2</ele></trkpt>
      <trkpt lat="45.848540" lon="-1.220559"><ele>12.6</ele></trkpt>
      <trkpt lat="45.848391" lon="-1.220722"><ele>11.8</ele></trkpt>
      <trkpt lat="45.848206" lon="-1.221164"><ele>9.8</ele></trkpt>
      <trkpt lat="45.847793" lon="-1.221426"><ele>10.0</ele></trkpt>
      <trkpt lat="45.847601" lon="-1.221302"><ele>10.8</ele></trkpt>
      <trkpt lat="45.847243" lon="-1.220813"><ele>11.4</ele></trkpt>
      <trkpt lat="45.847152" lon="-1.220307"><ele>10.0</ele></trkpt>
      <trkpt lat="45.847052" lon="-1.220219"><ele>10.4</ele></trkpt>
      <trkpt lat="45.846870" lon="-1.220353"><ele>10.2</ele></trkpt>
      <trkpt lat="45.846732" lon="-1.220291"><ele>10.8</ele></trkpt>
      <trkpt lat="45.846706" lon="-1.219915"><ele>11.2</ele></trkpt>
      <trkpt lat="45.846446" lon="-1.219304"><ele>13.2</ele></trkpt>
      <trkpt lat="45.846304" lon="-1.218699"><ele>14.4</ele></trkpt>
      <trkpt lat="45.846083" lon="-1.217257"><ele>10.6</ele></trkpt>
      <trkpt lat="45.845230" lon="-1.216978"><ele>10.6</ele></trkpt>
      <trkpt lat="45.844822" lon="-1.216984"><ele>10.6</ele></trkpt>
      <trkpt lat="45.844388" lon="-1.216754"><ele>11.8</ele></trkpt>
      <trkpt lat="45.844650" lon="-1.214924"><ele>18.4</ele></trkpt>
      <trkpt lat="45.844839" lon="-1.214217"><ele>15.2</ele></trkpt>
      <trkpt lat="45.844598" lon="-1.213831"><ele>15.6</ele></trkpt>
      <trkpt lat="45.844592" lon="-1.213573"><ele>15.0</ele></trkpt>
      <trkpt lat="45.844872" lon="-1.212650"><ele>16.2</ele></trkpt>
      <trkpt lat="45.845146" lon="-1.210918"><ele>15.0</ele></trkpt>
      <trkpt lat="45.845096" lon="-1.210752"><ele>14.0</ele></trkpt>
      <trkpt lat="45.843901" lon="-1.211013"><ele>27.8</ele></trkpt>
      <trkpt lat="45.843576" lon="-1.212188"><ele>29.6</ele></trkpt>
      <trkpt lat="45.843130" lon="-1.212553"><ele>29.6</ele></trkpt>
      <trkpt lat="45.842383" lon="-1.212421"><ele>36.4</ele></trkpt>
      <trkpt lat="45.842060" lon="-1.212794"><ele>37.2</ele></trkpt>
      <trkpt lat="45.841519" lon="-1.212923"><ele>36.2</ele></trkpt>
      <trkpt lat="45.841197" lon="-1.212896"><ele>34.4</ele></trkpt>
      <trkpt lat="45.840815" lon="-1.212630"><ele>32.2</ele></trkpt>
      <trkpt lat="45.840228" lon="-1.212628"><ele>31.6</ele></trkpt>
      <trkpt lat="45.839667" lon="-1.212265"><ele>27.0</ele></trkpt>
      <trkpt lat="45.839318" lon="-1.212216"><ele>24.2</ele></trkpt>
      <trkpt lat="45.839217" lon="-1.212074"><ele>22.8</ele></trkpt>
      <trkpt lat="45.838111" lon="-1.208322"><ele>10.8</ele></trkpt>
      <trkpt lat="45.838008" lon="-1.207718"><ele>10.0</ele></trkpt>
      <trkpt lat="45.838182" lon="-1.207392"><ele>10.0</ele></trkpt>
      <trkpt lat="45.838181" lon="-1.207249"><ele>9.8</ele></trkpt>
      <trkpt lat="45.837813" lon="-1.206683"><ele>10.2</ele></trkpt>
      <trkpt lat="45.836934" lon="-1.206098"><ele>16.0</ele></trkpt>
      <trkpt lat="45.836616" lon="-1.206212"><ele>16.2</ele></trkpt>
      <trkpt lat="45.834716" lon="-1.205859"><ele>12.6</ele></trkpt>
      <trkpt lat="45.833582" lon="-1.205435"><ele>10.2</ele></trkpt>
      <trkpt lat="45.832866" lon="-1.205536"><ele>7.6</ele></trkpt>
      <trkpt lat="45.831950" lon="-1.205360"><ele>11.8</ele></trkpt>
      <trkpt lat="45.831861" lon="-1.205675"><ele>11.0</ele></trkpt>
      <trkpt lat="45.831787" lon="-1.206680"><ele>7.4</ele></trkpt>
      <trkpt lat="45.831847" lon="-1.207315"><ele>9.2</ele></trkpt>
      <trkpt lat="45.831695" lon="-1.207888"><ele>8.2</ele></trkpt>
      <trkpt lat="45.831482" lon="-1.208048"><ele>8.0</ele></trkpt>
      <trkpt lat="45.831391" lon="-1.208257"><ele>7.6</ele></trkpt>
      <trkpt lat="45.831548" lon="-1.208581"><ele>8.2</ele></trkpt>
      <trkpt lat="45.831446" lon="-1.209247"><ele>8.2</ele></trkpt>
      <trkpt lat="45.830540" lon="-1.209430"><ele>9.6</ele></trkpt>
      <trkpt lat="45.830128" lon="-1.209297"><ele>9.0</ele></trkpt>
      <trkpt lat="45.829846" lon="-1.209466"><ele>10.2</ele></trkpt>
      <trkpt lat="45.829520" lon="-1.210416"><ele>9.8</ele></trkpt>
      <trkpt lat="45.829068" lon="-1.211215"><ele>7.8</ele></trkpt>
      <trkpt lat="45.828933" lon="-1.211391"><ele>7.2</ele></trkpt>
      <trkpt lat="45.828342" lon="-1.211669"><ele>7.2</ele></trkpt>
      <trkpt lat="45.828060" lon="-1.212174"><ele>6.2</ele></trkpt>
      <trkpt lat="45.827643" lon="-1.211954"><ele>5.2</ele></trkpt>
      <trkpt lat="45.826880" lon="-1.211304"><ele>4.4</ele></trkpt>
      <trkpt lat="45.826746" lon="-1.211302"><ele>4.0</ele></trkpt>
      <trkpt lat="45.826407" lon="-1.212774"><ele>3.8</ele></trkpt>
      <trkpt lat="45.826124" lon="-1.213535"><ele>3.8</ele></trkpt>
      <trkpt lat="45.825986" lon="-1.213499"><ele>3.0</ele></trkpt>
      <trkpt lat="45.824981" lon="-1.212222"><ele>2.6</ele></trkpt>
      <trkpt lat="45.824507" lon="-1.212339"><ele>2.2</ele></trkpt>
      <trkpt lat="45.824199" lon="-1.211886"><ele>1.8</ele></trkpt>
      <trkpt lat="45.824006" lon="-1.211781"><ele>1.8</ele></trkpt>
      <trkpt lat="45.823397" lon="-1.211975"><ele>1.8</ele></trkpt>
      <trkpt lat="45.822738" lon="-1.212457"><ele>2.0</ele></trkpt>
      <trkpt lat="45.821365" lon="-1.212693"><ele>1.8</ele></trkpt>
      <trkpt lat="45.820732" lon="-1.212624"><ele>1.8</ele></trkpt>
      <trkpt lat="45.820353" lon="-1.212126"><ele>1.8</ele></trkpt>
      <trkpt lat="45.819852" lon="-1.210766"><ele>1.8</ele></trkpt>
      <trkpt lat="45.819591" lon="-1.210666"><ele>3.2</ele></trkpt>
      <trkpt lat="45.818663" lon="-1.211767"><ele>3.8</ele></trkpt>
      <trkpt lat="45.818034" lon="-1.212702"><ele>4.2</ele></trkpt>
      <trkpt lat="45.816906" lon="-1.214005"><ele>3.4</ele></trkpt>
      <trkpt lat="45.816525" lon="-1.214242"><ele>3.2</ele></trkpt>
      <trkpt lat="45.815320" lon="-1.215692"><ele>5.2</ele></trkpt>
      <trkpt lat="45.814350" lon="-1.216231"><ele>6.0</ele></trkpt>
      <trkpt lat="45.814126" lon="-1.216239"><ele>5.0</ele></trkpt>
      <trkpt lat="45.814206" lon="-1.216543"><ele>4.4</ele></trkpt>
      <trkpt lat="45.815675" lon="-1.218861"><ele>3.8</ele></trkpt>
      <trkpt lat="45.816078" lon="-1.219578"><ele>3.2</ele></trkpt>
      <trkpt lat="45.816071" lon="-1.219697"><ele>3.2</ele></trkpt>
      <trkpt lat="45.814596" lon="-1.219850"><ele>3.6</ele></trkpt>
      <trkpt lat="45.814328" lon="-1.219985"><ele>3.8</ele></trkpt>
      <trkpt lat="45.814168" lon="-1.220273"><ele>3.2</ele></trkpt>
      <trkpt lat="45.814122" lon="-1.220660"><ele>3.8</ele></trkpt>
      <trkpt lat="45.813948" lon="-1.221101"><ele>5.2</ele></trkpt>
      <trkpt lat="45.813208" lon="-1.221244"><ele>5.0</ele></trkpt>
      <trkpt lat="45.812541" lon="-1.221987"><ele>6.2</ele></trkpt>
      <trkpt lat="45.811339" lon="-1.224287"><ele>4.0</ele></trkpt>
      <trkpt lat="45.810591" lon="-1.225030"><ele>3.8</ele></trkpt>
      <trkpt lat="45.808628" lon="-1.226400"><ele>4.4</ele></trkpt>
      <trkpt lat="45.808377" lon="-1.226704"><ele>4.4</ele></trkpt>
      <trkpt lat="45.808260" lon="-1.227089"><ele>4.6</ele></trkpt>
      <trkpt lat="45.808271" lon="-1.227480"><ele>5.4</ele></trkpt>
      <trkpt lat="45.808591" lon="-1.227682"><ele>4.4</ele></trkpt>
      <trkpt lat="45.808686" lon="-1.227912"><ele>3.8</ele></trkpt>
      <trkpt lat="45.808332" lon="-1.228623"><ele>7.4</ele></trkpt>
      <trkpt lat="45.808274" lon="-1.229091"><ele>7.6</ele></trkpt>
      <trkpt lat="45.808303" lon="-1.230279"><ele>3.0</ele></trkpt>
      <trkpt lat="45.808689" lon="-1.231288"><ele>2.4</ele></trkpt>
      <trkpt lat="45.808587" lon="-1.231829"><ele>2.6</ele></trkpt>
      <trkpt lat="45.809018" lon="-1.232312"><ele>3.4</ele></trkpt>
      <trkpt lat="45.809157" lon="-1.232697"><ele>3.0</ele></trkpt>
      <trkpt lat="45.809572" lon="-1.233189"><ele>3.6</ele></trkpt>
      <trkpt lat="45.809947" lon="-1.234247"><ele>2.6</ele></trkpt>
      <trkpt lat="45.809985" lon="-1.234543"><ele>2.6</ele></trkpt>
      <trkpt lat="45.810449" lon="-1.234869"><ele>3.0</ele></trkpt>
      <trkpt lat="45.810176" lon="-1.235958"><ele>4.0</ele></trkpt>
      <trkpt lat="45.810113" lon="-1.236700"><ele>2.6</ele></trkpt>
      <trkpt lat="45.809994" lon="-1.236828"><ele>2.4</ele></trkpt>
      <trkpt lat="45.809701" lon="-1.236759"><ele>2.6</ele></trkpt>
      <trkpt lat="45.809607" lon="-1.237250"><ele>5.6</ele></trkpt>
      <trkpt lat="45.809744" lon="-1.237437"><ele>6.4</ele></trkpt>
      <trkpt lat="45.810284" lon="-1.237643"><ele>5.6</ele></trkpt>
      <trkpt lat="45.810826" lon="-1.237621"><ele>4.2</ele></trkpt>
      <trkpt lat="45.811181" lon="-1.237777"><ele>3.4</ele></trkpt>
      <trkpt lat="45.811653" lon="-1.237670"><ele>3.2</ele></trkpt>
      <trkpt lat="45.812055" lon="-1.237876"><ele>3.4</ele></trkpt>
      <trkpt lat="45.812267" lon="-1.237882"><ele>3.0</ele></trkpt>
      <trkpt lat="45.812524" lon="-1.238075"><ele>5.0</ele></trkpt>
      <trkpt lat="45.813099" lon="-1.238208"><ele>6.8</ele></trkpt>
      <trkpt lat="45.814035" lon="-1.238293"><ele>9.6</ele></trkpt>
      <trkpt lat="45.814777" lon="-1.238523"><ele>10.0</ele></trkpt>
      <trkpt lat="45.815125" lon="-1.238493"><ele>10.4</ele></trkpt>
      <trkpt lat="45.815360" lon="-1.238299"><ele>9.0</ele></trkpt>
      <trkpt lat="45.816682" lon="-1.238647"><ele>7.8</ele></trkpt>
      <trkpt lat="45.817462" lon="-1.238528"><ele>7.4</ele></trkpt>
      <trkpt lat="45.817795" lon="-1.238219"><ele>6.4</ele></trkpt>
      <trkpt lat="45.817921" lon="-1.237804"><ele>7.2</ele></trkpt>
      <trkpt lat="45.818238" lon="-1.237649"><ele>8.0</ele></trkpt>
      <trkpt lat="45.818917" lon="-1.237724"><ele>7.8</ele></trkpt>
      <trkpt lat="45.819870" lon="-1.237513"><ele>6.6</ele></trkpt>
      <trkpt lat="45.820226" lon="-1.237696"><ele>7.0</ele></trkpt>
      <trkpt lat="45.820450" lon="-1.237636"><ele>6.8</ele></trkpt>
      <trkpt lat="45.820501" lon="-1.237851"><ele>6.0</ele></trkpt>
      <trkpt lat="45.820364" lon="-1.238340"><ele>5.6</ele></trkpt>
      <trkpt lat="45.820040" lon="-1.238927"><ele>4.4</ele></trkpt>
      <trkpt lat="45.819662" lon="-1.239370"><ele>9.2</ele></trkpt>
      <trkpt lat="45.819763" lon="-1.239827"><ele>7.8</ele></trkpt>
      <trkpt lat="45.819499" lon="-1.241207"><ele>5.6</ele></trkpt>
      <trkpt lat="45.819329" lon="-1.241563"><ele>6.6</ele></trkpt>
      <trkpt lat="45.819320" lon="-1.241847"><ele>5.6</ele></trkpt>
      <trkpt lat="45.819407" lon="-1.241992"><ele>5.6</ele></trkpt>
      <trkpt lat="45.820664" lon="-1.242090"><ele>5.0</ele></trkpt>
      <trkpt lat="45.825832" lon="-1.241872"><ele>4.4</ele></trkpt>
      <trkpt lat="45.827712" lon="-1.241886"><ele>3.6</ele></trkpt>
      <trkpt lat="45.830698" lon="-1.242366"><ele>4.4</ele></trkpt>
      <trkpt lat="45.830767" lon="-1.242458"><ele>4.2</ele></trkpt>
      <trkpt lat="45.830695" lon="-1.243465"><ele>4.8</ele></trkpt>
      <trkpt lat="45.830837" lon="-1.244764"><ele>9.4</ele></trkpt>
      <trkpt lat="45.831363" lon="-1.246079"><ele>13.8</ele></trkpt>
      <trkpt lat="45.831375" lon="-1.246991"><ele>4.6</ele></trkpt>
      <trkpt lat="45.831535" lon="-1.247258"><ele>3.2</ele></trkpt>
      <trkpt lat="45.832308" lon="-1.247507"><ele>2.6</ele></trkpt>
      <trkpt lat="45.834595" lon="-1.247829"><ele>2.8</ele></trkpt>
      <trkpt lat="45.836976" lon="-1.248329"><ele>2.8</ele></trkpt>
      <trkpt lat="45.839584" lon="-1.248698"><ele>2.4</ele></trkpt>
      <trkpt lat="45.840041" lon="-1.248850"><ele>2.4</ele></trkpt>
      <trkpt lat="45.840478" lon="-1.248846"><ele>2.4</ele></trkpt>
      <trkpt lat="45.840834" lon="-1.248652"><ele>3.0</ele></trkpt>
      <trkpt lat="45.841185" lon="-1.245411"><ele>4.8</ele></trkpt>
      <trkpt lat="45.841499" lon="-1.244863"><ele>4.4</ele></trkpt>
      <trkpt lat="45.841888" lon="-1.242989"><ele>4.2</ele></trkpt>
      <trkpt lat="45.841878" lon="-1.242763"><ele>4.6</ele></trkpt>
      <trkpt lat="45.842051" lon="-1.242557"><ele>8.4</ele></trkpt>
      <trkpt lat="45.847443" lon="-1.243350"><ele>7.4</ele></trkpt>
      <trkpt lat="45.848282" lon="-1.243677"><ele>7.8</ele></trkpt>
      <trkpt lat="45.850654" lon="-1.244880"><ele>7.6</ele></trkpt>
      <trkpt lat="45.851385" lon="-1.244293"><ele>3.2</ele></trkpt>
      <trkpt lat="45.851744" lon="-1.244257"><ele>3.6</ele></trkpt>
      <trkpt lat="45.852057" lon="-1.244016"><ele>4.0</ele></trkpt>
      <trkpt lat="45.852438" lon="-1.244134"><ele>3.8</ele></trkpt>
      <trkpt lat="45.852844" lon="-1.243456"><ele>4.0</ele></trkpt>
      <trkpt lat="45.853257" lon="-1.243207"><ele>4.2</ele></trkpt>
      <trkpt lat="45.854618" lon="-1.243509"><ele>4.8</ele></trkpt>
      <trkpt lat="45.855054" lon="-1.243453"><ele>4.6</ele></trkpt>
      <trkpt lat="45.855381" lon="-1.243640"><ele>4.4</ele></trkpt>
      <trkpt lat="45.855755" lon="-1.244064"><ele>5.8</ele></trkpt>
      <trkpt lat="45.856403" lon="-1.244308"><ele>4.6</ele></trkpt>
      <trkpt lat="45.857732" lon="-1.242839"><ele>4.2</ele></trkpt>
      <trkpt lat="45.857856" lon="-1.242347"><ele>5.8</ele></trkpt>
      <trkpt lat="45.858130" lon="-1.242054"><ele>8.4</ele></trkpt>
      <trkpt lat="45.859040" lon="-1.241460"><ele>8.6</ele></trkpt>
      <trkpt lat="45.859990" lon="-1.240216"><ele>8.8</ele></trkpt>
      <trkpt lat="45.860345" lon="-1.239999"><ele>9.0</ele></trkpt>
      <trkpt lat="45.860710" lon="-1.239595"><ele>8.8</ele></trkpt>
      <trkpt lat="45.860678" lon="-1.239383"><ele>8.8</ele></trkpt>
      <trkpt lat="45.860841" lon="-1.238873"><ele>7.0</ele></trkpt>
      <trkpt lat="45.860581" lon="-1.238517"><ele>5.6</ele></trkpt>
      <trkpt lat="45.860703" lon="-1.238350"><ele>5.6</ele></trkpt>
      <trkpt lat="45.860797" lon="-1.238390"><ele>5.2</ele></trkpt>
      <trkpt lat="45.861133" lon="-1.239025"><ele>5.8</ele></trkpt>
      <trkpt lat="45.860882" lon="-1.239307"><ele>6.4</ele></trkpt>
      <trkpt lat="45.860918" lon="-1.239570"><ele>6.6</ele></trkpt>
      <trkpt lat="45.860691" lon="-1.239842"><ele>6.6</ele></trkpt>
      <trkpt lat="45.860784" lon="-1.240159"><ele>6.2</ele></trkpt>
      <trkpt lat="45.860503" lon="-1.241197"><ele>5.8</ele></trkpt>
      <trkpt lat="45.860559" lon="-1.241584"><ele>5.6</ele></trkpt>
      <trkpt lat="45.860406" lon="-1.242116"><ele>8.0</ele></trkpt>
      <trkpt lat="45.860359" lon="-1.243173"><ele>8.2</ele></trkpt>
      <trkpt lat="45.860194" lon="-1.243948"><ele>9.2</ele></trkpt>
      <trkpt lat="45.859724" lon="-1.245412"><ele>5.2</ele></trkpt>
      <trkpt lat="45.860076" lon="-1.246146"><ele>4.2</ele></trkpt>
      <trkpt lat="45.860466" lon="-1.247363"><ele>4.8</ele></trkpt>
      <trkpt lat="45.860785" lon="-1.248836"><ele>4.8</ele></trkpt>
      <trkpt lat="45.860864" lon="-1.249911"><ele>4.8</ele></trkpt>
      <trkpt lat="45.861109" lon="-1.250939"><ele>6.8</ele></trkpt>
      <trkpt lat="45.861564" lon="-1.251766"><ele>7.8</ele></trkpt>
      <trkpt lat="45.862507" lon="-1.252378"><ele>9.4</ele></trkpt>
      <trkpt lat="45.862672" lon="-1.252386"><ele>8.4</ele></trkpt>
      <trkpt lat="45.863040" lon="-1.252734"><ele>8.6</ele></trkpt>
      <trkpt lat="45.863786" lon="-1.253013"><ele>11.4</ele></trkpt>
      <trkpt lat="45.864120" lon="-1.253347"><ele>8.8</ele></trkpt>
      <trkpt lat="45.864361" lon="-1.253318"><ele>9.4</ele></trkpt>
      <trkpt lat="45.864661" lon="-1.253466"><ele>9.4</ele></trkpt>
      <trkpt lat="45.865636" lon="-1.254446"><ele>6.8</ele></trkpt>
      <trkpt lat="45.866228" lon="-1.254587"><ele>8.0</ele></trkpt>
      <trkpt lat="45.866424" lon="-1.254542"><ele>8.4</ele></trkpt>
      <trkpt lat="45.866771" lon="-1.254908"><ele>9.2</ele></trkpt>
      <trkpt lat="45.868001" lon="-1.255588"><ele>10.0</ele></trkpt>
      <trkpt lat="45.869132" lon="-1.256159"><ele>7.8</ele></trkpt>
      <trkpt lat="45.869318" lon="-1.256045"><ele>5.6</ele></trkpt>
      <trkpt lat="45.870822" lon="-1.256859"><ele>6.0</ele></trkpt>
      <trkpt lat="45.871132" lon="-1.256711"><ele>6.8</ele></trkpt>
      <trkpt lat="45.871388" lon="-1.257105"><ele>6.0</ele></trkpt>
      <trkpt lat="45.871815" lon="-1.257286"><ele>5.6</ele></trkpt>
      <trkpt lat="45.872629" lon="-1.257867"><ele>4.8</ele></trkpt>
      <trkpt lat="45.873953" lon="-1.259036"><ele>4.6</ele></trkpt>
      <trkpt lat="45.874549" lon="-1.259352"><ele>6.4</ele></trkpt>
      <trkpt lat="45.875386" lon="-1.260016"><ele>7.4</ele></trkpt>
      <trkpt lat="45.875763" lon="-1.259808"><ele>7.2</ele></trkpt>
      <trkpt lat="45.876384" lon="-1.260347"><ele>6.4</ele></trkpt>
      <trkpt lat="45.876537" lon="-1.260214"><ele>6.6</ele></trkpt>
      <trkpt lat="45.876961" lon="-1.260286"><ele>7.0</ele></trkpt>
      <trkpt lat="45.877193" lon="-1.260220"><ele>8.2</ele></trkpt>
      <trkpt lat="45.877836" lon="-1.261304"><ele>7.4</ele></trkpt>
      <trkpt lat="45.877861" lon="-1.261486"><ele>9.0</ele></trkpt>
      <trkpt lat="45.878137" lon="-1.261615"><ele>10.6</ele></trkpt>
      <trkpt lat="45.878182" lon="-1.261954"><ele>10.0</ele></trkpt>
      <trkpt lat="45.878530" lon="-1.262624"><ele>6.8</ele></trkpt>
      <trkpt lat="45.878952" lon="-1.263117"><ele>7.0</ele></trkpt>
      <trkpt lat="45.879153" lon="-1.263264"><ele>7.0</ele></trkpt>
      <trkpt lat="45.879701" lon="-1.263294"><ele>8.0</ele></trkpt>
      <trkpt lat="45.879802" lon="-1.263715"><ele>6.2</ele></trkpt>
      <trkpt lat="45.880288" lon="-1.263757"><ele>5.8</ele></trkpt>
      <trkpt lat="45.880527" lon="-1.264283"><ele>8.4</ele></trkpt>
      <trkpt lat="45.880698" lon="-1.264319"><ele>8.2</ele></trkpt>
      <trkpt lat="45.880905" lon="-1.264168"><ele>9.0</ele></trkpt>
      <trkpt lat="45.881055" lon="-1.264267"><ele>8.4</ele></trkpt>
      <trkpt lat="45.881250" lon="-1.264713"><ele>8.4</ele></trkpt>
      <trkpt lat="45.881322" lon="-1.265629"><ele>10.2</ele></trkpt>
      <trkpt lat="45.881949" lon="-1.265955"><ele>12.2</ele></trkpt>
      <trkpt lat="45.881912" lon="-1.266432"><ele>14.2</ele></trkpt>
      <trkpt lat="45.882040" lon="-1.266730"><ele>13.2</ele></trkpt>
      <trkpt lat="45.882246" lon="-1.266928"><ele>13.4</ele></trkpt>
      <trkpt lat="45.882197" lon="-1.267569"><ele>12.2</ele></trkpt>
      <trkpt lat="45.882373" lon="-1.267750"><ele>10.6</ele></trkpt>
      <trkpt lat="45.882417" lon="-1.268613"><ele>9.6</ele></trkpt>
      <trkpt lat="45.882783" lon="-1.268770"><ele>9.0</ele></trkpt>
      <trkpt lat="45.882694" lon="-1.269332"><ele>8.8</ele></trkpt>
      <trkpt lat="45.883121" lon="-1.269869"><ele>12.8</ele></trkpt>
      <trkpt lat="45.883118" lon="-1.270554"><ele>9.8</ele></trkpt>
      <trkpt lat="45.883404" lon="-1.271161"><ele>12.6</ele></trkpt>
      <trkpt lat="45.883384" lon="-1.271798"><ele>14.6</ele></trkpt>
      <trkpt lat="45.883722" lon="-1.272022"><ele>12.4</ele></trkpt>
      <trkpt lat="45.883835" lon="-1.272262"><ele>13.2</ele></trkpt>
      <trkpt lat="45.883934" lon="-1.272595"><ele>12.6</ele></trkpt>
      <trkpt lat="45.883911" lon="-1.273099"><ele>12.2</ele></trkpt>
      <trkpt lat="45.884326" lon="-1.273567"><ele>12.4</ele></trkpt>
      <trkpt lat="45.884560" lon="-1.274081"><ele>10.8</ele></trkpt>
      <trkpt lat="45.884851" lon="-1.274190"><ele>14.4</ele></trkpt>
      <trkpt lat="45.884908" lon="-1.274480"><ele>13.0</ele></trkpt>
      <trkpt lat="45.885193" lon="-1.274795"><ele>11.6</ele></trkpt>
      <trkpt lat="45.885401" lon="-1.274823"><ele>12.2</ele></trkpt>
      <trkpt lat="45.885464" lon="-1.274970"><ele>11.4</ele></trkpt>
      <trkpt lat="45.885735" lon="-1.275069"><ele>11.6</ele></trkpt>
      <trkpt lat="45.885811" lon="-1.275211"><ele>12.0</ele></trkpt>
      <trkpt lat="45.886035" lon="-1.275151"><ele>12.6</ele></trkpt>
      <trkpt lat="45.886708" lon="-1.276090"><ele>10.0</ele></trkpt>
      <trkpt lat="45.886395" lon="-1.276712"><ele>7.6</ele></trkpt>
      <trkpt lat="45.886522" lon="-1.277442"><ele>4.4</ele></trkpt>
      <trkpt lat="45.886454" lon="-1.277836"><ele>0.2</ele></trkpt>
      <trkpt lat="45.887212" lon="-1.279406"><ele>0.8</ele></trkpt>
      <trkpt lat="45.887553" lon="-1.279865"><ele>3.4</ele></trkpt>
      <trkpt lat="45.887482" lon="-1.280200"><ele>3.2</ele></trkpt>
      <trkpt lat="45.887650" lon="-1.280674"><ele>1.8</ele></trkpt>
      <trkpt lat="45.889067" lon="-1.281598"><ele>0.8</ele></trkpt>
      <trkpt lat="45.890734" lon="-1.282964"><ele>0.8</ele></trkpt>
      <trkpt lat="45.892386" lon="-1.284639"><ele>1.0</ele></trkpt>
      <trkpt lat="45.892854" lon="-1.284974"><ele>1.6</ele></trkpt>
      <trkpt lat="45.893026" lon="-1.285435"><ele>0.8</ele></trkpt>
      <trkpt lat="45.893534" lon="-1.286315"><ele>1.4</ele></trkpt>
      <trkpt lat="45.896157" lon="-1.289517"><ele>1.4</ele></trkpt>
      <trkpt lat="45.896314" lon="-1.289889"><ele>1.6</ele></trkpt>
      <trkpt lat="45.899048" lon="-1.291800"><ele>1.6</ele></trkpt>
      <trkpt lat="45.899539" lon="-1.292456"><ele>1.6</ele></trkpt>
      <trkpt lat="45.900006" lon="-1.293321"><ele>1.4</ele></trkpt>
      <trkpt lat="45.900341" lon="-1.294290"><ele>1.2</ele></trkpt>
      <trkpt lat="45.900723" lon="-1.295806"><ele>1.0</ele></trkpt>
      <trkpt lat="45.900754" lon="-1.297014"><ele>1.2</ele></trkpt>
      <trkpt lat="45.900526" lon="-1.298280"><ele>2.8</ele></trkpt>
      <trkpt lat="45.900904" lon="-1.299193"><ele>4.2</ele></trkpt>
      <trkpt lat="45.900547" lon="-1.299683"><ele>3.8</ele></trkpt>
      <trkpt lat="45.900480" lon="-1.299949"><ele>3.6</ele></trkpt>
      <trkpt lat="45.900103" lon="-1.300329"><ele>5.6</ele></trkpt>
      <trkpt lat="45.900020" lon="-1.300768"><ele>4.6</ele></trkpt>
      <trkpt lat="45.900351" lon="-1.301792"><ele>1.4</ele></trkpt>
      <trkpt lat="45.901112" lon="-1.303398"><ele>0.4</ele></trkpt>
      <trkpt lat="45.901309" lon="-1.304852"><ele>2.0</ele></trkpt>
      <trkpt lat="45.901922" lon="-1.305611"><ele>1.6</ele></trkpt>
      <trkpt lat="45.902982" lon="-1.307638"><ele>1.4</ele></trkpt>
      <trkpt lat="45.903800" lon="-1.308530"><ele>1.4</ele></trkpt>
      <trkpt lat="45.904055" lon="-1.308665"><ele>2.0</ele></trkpt>
      <trkpt lat="45.904564" lon="-1.308020"><ele>6.0</ele></trkpt>
      <trkpt lat="45.904903" lon="-1.308691"><ele>5.2</ele></trkpt>
      <trkpt lat="45.904895" lon="-1.309029"><ele>4.6</ele></trkpt>
      <trkpt lat="45.904962" lon="-1.309140"><ele>4.6</ele></trkpt>
      <trkpt lat="45.905480" lon="-1.309509"><ele>4.0</ele></trkpt>
      <trkpt lat="45.905749" lon="-1.309400"><ele>3.2</ele></trkpt>
      <trkpt lat="45.905923" lon="-1.309556"><ele>3.6</ele></trkpt>
      <trkpt lat="45.907665" lon="-1.312165"><ele>6.2</ele></trkpt>
      <trkpt lat="45.907558" lon="-1.313080"><ele>5.4</ele></trkpt>
      <trkpt lat="45.907591" lon="-1.313395"><ele>5.2</ele></trkpt>
      <trkpt lat="45.907775" lon="-1.313852"><ele>6.4</ele></trkpt>
      <trkpt lat="45.908165" lon="-1.314346"><ele>8.2</ele></trkpt>
      <trkpt lat="45.908632" lon="-1.314402"><ele>12.8</ele></trkpt>
      <trkpt lat="45.908825" lon="-1.314534"><ele>11.4</ele></trkpt>
      <trkpt lat="45.909097" lon="-1.314784"><ele>11.8</ele></trkpt>
      <trkpt lat="45.909410" lon="-1.315356"><ele>12.6</ele></trkpt>
      <trkpt lat="45.909807" lon="-1.315647"><ele>10.6</ele></trkpt>
      <trkpt lat="45.910087" lon="-1.315695"><ele>9.6</ele></trkpt>
      <trkpt lat="45.910335" lon="-1.315262"><ele>4.8</ele></trkpt>
      <trkpt lat="45.910884" lon="-1.316024"><ele>2.4</ele></trkpt>
      <trkpt lat="45.911234" lon="-1.316909"><ele>2.4</ele></trkpt>
      <trkpt lat="45.911370" lon="-1.317551"><ele>2.4</ele></trkpt>
      <trkpt lat="45.911663" lon="-1.318351"><ele>3.0</ele></trkpt>
      <trkpt lat="45.911505" lon="-1.319693"><ele>4.4</ele></trkpt>
      <trkpt lat="45.911557" lon="-1.319958"><ele>4.6</ele></trkpt>
      <trkpt lat="45.913044" lon="-1.322649"><ele>3.4</ele></trkpt>
      <trkpt lat="45.912937" lon="-1.323069"><ele>1.0</ele></trkpt>
      <trkpt lat="45.912677" lon="-1.323321"><ele>3.2</ele></trkpt>
      <trkpt lat="45.912213" lon="-1.323467"><ele>3.6</ele></trkpt>
      <trkpt lat="45.910465" lon="-1.325422"><ele>5.6</ele></trkpt>
      <trkpt lat="45.910408" lon="-1.325625"><ele>5.6</ele></trkpt>
      <trkpt lat="45.910550" lon="-1.326257"><ele>6.0</ele></trkpt>
      <trkpt lat="45.910695" lon="-1.326292"><ele>7.0</ele></trkpt>
      <trkpt lat="45.911467" lon="-1.325854"><ele>8.0</ele></trkpt>
      <trkpt lat="45.913428" lon="-1.323715"><ele>2.6</ele></trkpt>
      <trkpt lat="45.913686" lon="-1.323642"><ele>3.6</ele></trkpt>
      <trkpt lat="45.913926" lon="-1.323902"><ele>4.2</ele></trkpt>
      <trkpt lat="45.915575" lon="-1.328380"><ele>2.0</ele></trkpt>
      <trkpt lat="45.915559" lon="-1.329254"><ele>1.0</ele></trkpt>
      <trkpt lat="45.915455" lon="-1.329903"><ele>1.6</ele></trkpt>
      <trkpt lat="45.915053" lon="-1.330504"><ele>2.6</ele></trkpt>
      <trkpt lat="45.915138" lon="-1.330802"><ele>4.6</ele></trkpt>
      <trkpt lat="45.915096" lon="-1.331074"><ele>4.4</ele></trkpt>
      <trkpt lat="45.914657" lon="-1.331542"><ele>3.8</ele></trkpt>
      <trkpt lat="45.914763" lon="-1.332280"><ele>0.2</ele></trkpt>
      <trkpt lat="45.917478" lon="-1.336162"><ele>-1.0</ele></trkpt>
      <trkpt lat="45.917908" lon="-1.337286"><ele>2.8</ele></trkpt>
      <trkpt lat="45.917793" lon="-1.337619"><ele>0.4</ele></trkpt>
      <trkpt lat="45.917859" lon="-1.337934"><ele>-0.8</ele></trkpt>
      <trkpt lat="45.918526" lon="-1.338859"><ele>-2.0</ele></trkpt>
      <trkpt lat="45.918810" lon="-1.339551"><ele>-2.0</ele></trkpt>
      <trkpt lat="45.918835" lon="-1.340094"><ele>-2.0</ele></trkpt>
      <trkpt lat="45.918763" lon="-1.340601"><ele>0.2</ele></trkpt>
      <trkpt lat="45.918863" lon="-1.340963"><ele>0.8</ele></trkpt>
      <trkpt lat="45.919461" lon="-1.342017"><ele>-0.8</ele></trkpt>
      <trkpt lat="45.919820" lon="-1.342956"><ele>-0.6</ele></trkpt>
      <trkpt lat="45.920172" lon="-1.343323"><ele>-0.4</ele></trkpt>
      <trkpt lat="45.920988" lon="-1.343620"><ele>-1.0</ele></trkpt>
      <trkpt lat="45.921078" lon="-1.343782"><ele>-1.6</ele></trkpt>
      <trkpt lat="45.921919" lon="-1.344417"><ele>-0.6</ele></trkpt>
      <trkpt lat="45.922134" lon="-1.344405"><ele>2.0</ele></trkpt>
      <trkpt lat="45.922745" lon="-1.343596"><ele>5.8</ele></trkpt>
      <trkpt lat="45.923777" lon="-1.342549"><ele>4.2</ele></trkpt>
      <trkpt lat="45.924170" lon="-1.343154"><ele>4.4</ele></trkpt>
      <trkpt lat="45.924410" lon="-1.343146"><ele>4.0</ele></trkpt>
      <trkpt lat="45.925519" lon="-1.341865"><ele>3.2</ele></trkpt>
      <trkpt lat="45.925894" lon="-1.341237"><ele>3.2</ele></trkpt>
      <trkpt lat="45.927048" lon="-1.340036"><ele>2.2</ele></trkpt>
      <trkpt lat="45.927663" lon="-1.339623"><ele>2.0</ele></trkpt>
      <trkpt lat="45.928121" lon="-1.339028"><ele>2.4</ele></trkpt>
      <trkpt lat="45.928825" lon="-1.339730"><ele>2.0</ele></trkpt>
      <trkpt lat="45.929291" lon="-1.339221"><ele>2.4</ele></trkpt>
      <trkpt lat="45.929670" lon="-1.339639"><ele>2.2</ele></trkpt>
      <trkpt lat="45.929943" lon="-1.340040"><ele>3.0</ele></trkpt>
      <trkpt lat="45.930067" lon="-1.340533"><ele>3.6</ele></trkpt>
      <trkpt lat="45.930389" lon="-1.340892"><ele>3.8</ele></trkpt>
      <trkpt lat="45.930937" lon="-1.341942"><ele>3.4</ele></trkpt>
      <trkpt lat="45.931571" lon="-1.342390"><ele>4.0</ele></trkpt>
      <trkpt lat="45.931750" lon="-1.342621"><ele>4.2</ele></trkpt>
      <trkpt lat="45.932448" lon="-1.344045"><ele>5.0</ele></trkpt>
      <trkpt lat="45.932715" lon="-1.345314"><ele>4.8</ele></trkpt>
      <trkpt lat="45.932718" lon="-1.346425"><ele>4.0</ele></trkpt>
      <trkpt lat="45.935636" lon="-1.350582"><ele>4.8</ele></trkpt>
      <trkpt lat="45.935954" lon="-1.351248"><ele>4.0</ele></trkpt>
      <trkpt lat="45.936563" lon="-1.352213"><ele>4.2</ele></trkpt>
      <trkpt lat="45.936930" lon="-1.352648"><ele>4.2</ele></trkpt>
      <trkpt lat="45.937159" lon="-1.352655"><ele>4.2</ele></trkpt>
      <trkpt lat="45.937722" lon="-1.353469"><ele>4.6</ele></trkpt>
      <trkpt lat="45.937944" lon="-1.354221"><ele>4.4</ele></trkpt>
      <trkpt lat="45.939036" lon="-1.356071"><ele>3.8</ele></trkpt>
      <trkpt lat="45.939790" lon="-1.357093"><ele>3.6</ele></trkpt>
      <trkpt lat="45.939797" lon="-1.357273"><ele>3.4</ele></trkpt>
      <trkpt lat="45.939029" lon="-1.358277"><ele>3.0</ele></trkpt>
      <trkpt lat="45.939054" lon="-1.358484"><ele>3.0</ele></trkpt>
      <trkpt lat="45.941210" lon="-1.361048"><ele>1.4</ele></trkpt>
      <trkpt lat="45.941764" lon="-1.361464"><ele>0.8</ele></trkpt>
      <trkpt lat="45.942930" lon="-1.361986"><ele>0.0</ele></trkpt>
      <trkpt lat="45.942932" lon="-1.362173"><ele>-0.6</ele></trkpt>
      <trkpt lat="45.942631" lon="-1.362638"><ele>-1.2</ele></trkpt>
      <trkpt lat="45.942624" lon="-1.362800"><ele>-1.0</ele></trkpt>
      <trkpt lat="45.943622" lon="-1.364022"><ele>-1.4</ele></trkpt>
      <trkpt lat="45.941915" lon="-1.366878"><ele>0.4</ele></trkpt>
      <trkpt lat="45.942071" lon="-1.368075"><ele>0.2</ele></trkpt>
      <trkpt lat="45.941745" lon="-1.368462"><ele>0.4</ele></trkpt>
      <trkpt lat="45.941260" lon="-1.369344"><ele>2.0</ele></trkpt>
      <trkpt lat="45.941358" lon="-1.369496"><ele>2.4</ele></trkpt>
      <trkpt lat="45.941309" lon="-1.369947"><ele>2.6</ele></trkpt>
      <trkpt lat="45.941543" lon="-1.370236"><ele>2.8</ele></trkpt>
      <trkpt lat="45.941742" lon="-1.370797"><ele>3.8</ele></trkpt>
      <trkpt lat="45.941921" lon="-1.371028"><ele>4.4</ele></trkpt>
      <trkpt lat="45.941874" lon="-1.371135"><ele>5.0</ele></trkpt>
      <trkpt lat="45.941769" lon="-1.371042"><ele>6.8</ele></trkpt>
      <trkpt lat="45.941676" lon="-1.371124"><ele>4.8</ele></trkpt>
      <trkpt lat="45.941659" lon="-1.371516"><ele>1.6</ele></trkpt>
      <trkpt lat="45.942168" lon="-1.372591"><ele>-0.2</ele></trkpt>
      <trkpt lat="45.942855" lon="-1.373592"><ele>0.4</ele></trkpt>
      <trkpt lat="45.944047" lon="-1.374925"><ele>0.0</ele></trkpt>
      <trkpt lat="45.945075" lon="-1.375684"><ele>-0.4</ele></trkpt>
      <trkpt lat="45.945251" lon="-1.375925"><ele>-1.0</ele></trkpt>
      <trkpt lat="45.946105" lon="-1.376423"><ele>-0.6</ele></trkpt>
      <trkpt lat="45.947449" lon="-1.377614"><ele>-0.2</ele></trkpt>
      <trkpt lat="45.948199" lon="-1.378004"><ele>-0.8</ele></trkpt>
      <trkpt lat="45.950385" lon="-1.379881"><ele>-0.2</ele></trkpt>
      <trkpt lat="45.950617" lon="-1.380268"><ele>-1.2</ele></trkpt>
      <trkpt lat="45.950823" lon="-1.381051"><ele>-0.8</ele></trkpt>
      <trkpt lat="45.951433" lon="-1.382416"><ele>-0.6</ele></trkpt>
      <trkpt lat="45.951691" lon="-1.383331"><ele>-0.8</ele></trkpt>
      <trkpt lat="45.951769" lon="-1.384439"><ele>0.4</ele></trkpt>
      <trkpt lat="45.952033" lon="-1.385147"><ele>0.8</ele></trkpt>
      <trkpt lat="45.954119" lon="-1.387144"><ele>1.2</ele></trkpt>
      <trkpt lat="45.955139" lon="-1.387589"><ele>1.4</ele></trkpt>
      <trkpt lat="45.957329" lon="-1.388268"><ele>2.0</ele></trkpt>
      <trkpt lat="45.958041" lon="-1.388274"><ele>2.8</ele></trkpt>
      <trkpt lat="45.958688" lon="-1.387869"><ele>2.2</ele></trkpt>
      <trkpt lat="45.958935" lon="-1.387576"><ele>1.8</ele></trkpt>
      <trkpt lat="45.958984" lon="-1.387394"><ele>2.2</ele></trkpt>
      <trkpt lat="45.958871" lon="-1.386868"><ele>7.6</ele></trkpt>
      <trkpt lat="45.959008" lon="-1.386417"><ele>8.0</ele></trkpt>
      <trkpt lat="45.959423" lon="-1.385727"><ele>9.2</ele></trkpt>
      <trkpt lat="45.959457" lon="-1.384813"><ele>10.8</ele></trkpt>
      <trkpt lat="45.959840" lon="-1.385188"><ele>11.0</ele></trkpt>
      <trkpt lat="45.959969" lon="-1.385448"><ele>14.2</ele></trkpt>
      <trkpt lat="45.960187" lon="-1.385482"><ele>16.4</ele></trkpt>
      <trkpt lat="45.960326" lon="-1.385664"><ele>17.6</ele></trkpt>
      <trkpt lat="45.960711" lon="-1.385200"><ele>23.0</ele></trkpt>
      <trkpt lat="45.960833" lon="-1.384824"><ele>16.8</ele></trkpt>
      <trkpt lat="45.961305" lon="-1.384844"><ele>19.0</ele></trkpt>
      <trkpt lat="45.961484" lon="-1.384659"><ele>21.0</ele></trkpt>
      <trkpt lat="45.961590" lon="-1.384981"><ele>21.4</ele></trkpt>
      <trkpt lat="45.961813" lon="-1.385044"><ele>17.4</ele></trkpt>
      <trkpt lat="45.962055" lon="-1.384847"><ele>15.8</ele></trkpt>
      <trkpt lat="45.962243" lon="-1.384837"><ele>18.2</ele></trkpt>
      <trkpt lat="45.962211" lon="-1.385267"><ele>16.6</ele></trkpt>
      <trkpt lat="45.962396" lon="-1.385578"><ele>13.6</ele></trkpt>
      <trkpt lat="45.962528" lon="-1.385550"><ele>10.8</ele></trkpt>
      <trkpt lat="45.962708" lon="-1.385680"><ele>9.6</ele></trkpt>
      <trkpt lat="45.963019" lon="-1.385588"><ele>8.4</ele></trkpt>
      <trkpt lat="45.963201" lon="-1.385683"><ele>8.2</ele></trkpt>
      <trkpt lat="45.963434" lon="-1.385572"><ele>9.0</ele></trkpt>
      <trkpt lat="45.963566" lon="-1.385719"><ele>8.8</ele></trkpt>
      <trkpt lat="45.963757" lon="-1.385618"><ele>11.2</ele></trkpt>
      <trkpt lat="45.964102" lon="-1.386014"><ele>6.8</ele></trkpt>
      <trkpt lat="45.964205" lon="-1.385747"><ele>7.2</ele></trkpt>
      <trkpt lat="45.964113" lon="-1.385387"><ele>4.6</ele></trkpt>
      <trkpt lat="45.964110" lon="-1.384976"><ele>3.0</ele></trkpt>
      <trkpt lat="45.964245" lon="-1.384691"><ele>2.6</ele></trkpt>
      <trkpt lat="45.964239" lon="-1.384417"><ele>2.6</ele></trkpt>
      <trkpt lat="45.964030" lon="-1.383934"><ele>4.6</ele></trkpt>
      <trkpt lat="45.963499" lon="-1.383683"><ele>9.4</ele></trkpt>
      <trkpt lat="45.963777" lon="-1.383275"><ele>13.2</ele></trkpt>
      <trkpt lat="45.963551" lon="-1.382800"><ele>19.0</ele></trkpt>
      <trkpt lat="45.963510" lon="-1.382134"><ele>14.0</ele></trkpt>
      <trkpt lat="45.963315" lon="-1.381414"><ele>17.6</ele></trkpt>
      <trkpt lat="45.963361" lon="-1.381248"><ele>16.0</ele></trkpt>
      <trkpt lat="45.963571" lon="-1.381100"><ele>13.2</ele></trkpt>
      <trkpt lat="45.964046" lon="-1.381414"><ele>15.6</ele></trkpt>
      <trkpt lat="45.964260" lon="-1.381279"><ele>15.2</ele></trkpt>
      <trkpt lat="45.964387" lon="-1.380991"><ele>13.0</ele></trkpt>
      <trkpt lat="45.964847" lon="-1.380839"><ele>12.2</ele></trkpt>
      <trkpt lat="45.965297" lon="-1.380227"><ele>20.6</ele></trkpt>
      <trkpt lat="45.965405" lon="-1.379870"><ele>26.2</ele></trkpt>
      <trkpt lat="45.965849" lon="-1.379817"><ele>24.8</ele></trkpt>
      <trkpt lat="45.966102" lon="-1.379405"><ele>27.4</ele></trkpt>
      <trkpt lat="45.966190" lon="-1.379059"><ele>25.2</ele></trkpt>
      <trkpt lat="45.966448" lon="-1.379013"><ele>22.6</ele></trkpt>
      <trkpt lat="45.966481" lon="-1.378890"><ele>22.0</ele></trkpt>
      <trkpt lat="45.966648" lon="-1.378853"><ele>20.0</ele></trkpt>
      <trkpt lat="45.966689" lon="-1.378555"><ele>16.2</ele></trkpt>
      <trkpt lat="45.966862" lon="-1.378446"><ele>12.8</ele></trkpt>
      <trkpt lat="45.966911" lon="-1.378250"><ele>10.4</ele></trkpt>
      <trkpt lat="45.967180" lon="-1.378388"><ele>7.2</ele></trkpt>
      <trkpt lat="45.967629" lon="-1.378163"><ele>5.6</ele></trkpt>
      <trkpt lat="45.968177" lon="-1.378486"><ele>6.2</ele></trkpt>
      <trkpt lat="45.968530" lon="-1.378000"><ele>5.6</ele></trkpt>
      <trkpt lat="45.969403" lon="-1.378677"><ele>6.2</ele></trkpt>
      <trkpt lat="45.969971" lon="-1.378140"><ele>5.8</ele></trkpt>
      <trkpt lat="45.970274" lon="-1.378320"><ele>5.4</ele></trkpt>
      <trkpt lat="45.970398" lon="-1.378286"><ele>5.6</ele></trkpt>
      <trkpt lat="45.970688" lon="-1.377866"><ele>5.6</ele></trkpt>
      <trkpt lat="45.971238" lon="-1.376762"><ele>4.8</ele></trkpt>
      <trkpt lat="45.971608" lon="-1.376545"><ele>4.6</ele></trkpt>
      <trkpt lat="45.971703" lon="-1.376719"><ele>3.6</ele></trkpt>
      <trkpt lat="45.971543" lon="-1.376906"><ele>3.2</ele></trkpt>
      <trkpt lat="45.971541" lon="-1.377025"><ele>2.6</ele></trkpt>
      <trkpt lat="45.972079" lon="-1.378411"><ele>5.0</ele></trkpt>
      <trkpt lat="45.972108" lon="-1.378650"><ele>4.8</ele></trkpt>
      <trkpt lat="45.971879" lon="-1.378982"><ele>4.8</ele></trkpt>
      <trkpt lat="45.970689" lon="-1.379867"><ele>6.6</ele></trkpt>
      <trkpt lat="45.971043" lon="-1.380303"><ele>7.0</ele></trkpt>
      <trkpt lat="45.971159" lon="-1.380720"><ele>10.4</ele></trkpt>
      <trkpt lat="45.971160" lon="-1.381134"><ele>13.8</ele></trkpt>
      <trkpt lat="45.971476" lon="-1.381608"><ele>17.2</ele></trkpt>
      <trkpt lat="45.971665" lon="-1.381330"><ele>19.6</ele></trkpt>
      <trkpt lat="45.972025" lon="-1.381122"><ele>18.8</ele></trkpt>
      <trkpt lat="45.972487" lon="-1.381679"><ele>17.6</ele></trkpt>
      <trkpt lat="45.972503" lon="-1.382252"><ele>17.0</ele></trkpt>
      <trkpt lat="45.972336" lon="-1.382490"><ele>13.8</ele></trkpt>
      <trkpt lat="45.972429" lon="-1.382674"><ele>15.2</ele></trkpt>
      <trkpt lat="45.972817" lon="-1.382629"><ele>13.4</ele></trkpt>
      <trkpt lat="45.972965" lon="-1.382482"><ele>13.6</ele></trkpt>
      <trkpt lat="45.973043" lon="-1.382560"><ele>14.4</ele></trkpt>
      <trkpt lat="45.973058" lon="-1.383760"><ele>23.0</ele></trkpt>
      <trkpt lat="45.972850" lon="-1.384505"><ele>25.0</ele></trkpt>
      <trkpt lat="45.972588" lon="-1.384915"><ele>25.0</ele></trkpt>
      <trkpt lat="45.972675" lon="-1.385938"><ele>27.0</ele></trkpt>
      <trkpt lat="45.972322" lon="-1.386787"><ele>11.8</ele></trkpt>
      <trkpt lat="45.972395" lon="-1.386900"><ele>9.0</ele></trkpt>
      <trkpt lat="45.972861" lon="-1.387031"><ele>8.4</ele></trkpt>
      <trkpt lat="45.973006" lon="-1.387291"><ele>6.6</ele></trkpt>
      <trkpt lat="45.973197" lon="-1.390024"><ele>6.8</ele></trkpt>
      <trkpt lat="45.974436" lon="-1.390948"><ele>4.0</ele></trkpt>
      <trkpt lat="45.975601" lon="-1.393073"><ele>2.2</ele></trkpt>
      <trkpt lat="45.976252" lon="-1.393449"><ele>2.8</ele></trkpt>
      <trkpt lat="45.976329" lon="-1.393646"><ele>2.8</ele></trkpt>
      <trkpt lat="45.976265" lon="-1.393941"><ele>2.4</ele></trkpt>
      <trkpt lat="45.976317" lon="-1.394282"><ele>-0.4</ele></trkpt>
      <trkpt lat="45.976956" lon="-1.395254"><ele>-0.6</ele></trkpt>
      <trkpt lat="45.977334" lon="-1.395571"><ele>0.2</ele></trkpt>
      <trkpt lat="45.977805" lon="-1.395625"><ele>-0.4</ele></trkpt>
      <trkpt lat="45.980350" lon="-1.394380"><ele>-1.6</ele></trkpt>
      <trkpt lat="45.981274" lon="-1.394072"><ele>-2.0</ele></trkpt>
      <trkpt lat="45.982263" lon="-1.393350"><ele>-2.0</ele></trkpt>
      <trkpt lat="45.982657" lon="-1.392703"><ele>-2.0</ele></trkpt>
      <trkpt lat="45.983302" lon="-1.391934"><ele>-1.8</ele></trkpt>
      <trkpt lat="45.983147" lon="-1.391158"><ele>6.4</ele></trkpt>
      <trkpt lat="45.983133" lon="-1.390399"><ele>4.8</ele></trkpt>
      <trkpt lat="45.983662" lon="-1.390134"><ele>3.4</ele></trkpt>
      <trkpt lat="45.983798" lon="-1.390187"><ele>3.6</ele></trkpt>
      <trkpt lat="45.984093" lon="-1.389818"><ele>4.0</ele></trkpt>
      <trkpt lat="45.984520" lon="-1.389758"><ele>2.4</ele></trkpt>
      <trkpt lat="45.984871" lon="-1.387243"><ele>2.6</ele></trkpt>
      <trkpt lat="45.985000" lon="-1.387469"><ele>2.6</ele></trkpt>
      <trkpt lat="45.985380" lon="-1.389288"><ele>3.2</ele></trkpt>
      <trkpt lat="45.985567" lon="-1.389582"><ele>7.8</ele></trkpt>
      <trkpt lat="45.985828" lon="-1.389216"><ele>6.0</ele></trkpt>
      <trkpt lat="45.986838" lon="-1.388856"><ele>2.6</ele></trkpt>
      <trkpt lat="45.987074" lon="-1.388631"><ele>2.0</ele></trkpt>
      <trkpt lat="45.987297" lon="-1.388657"><ele>1.6</ele></trkpt>
      <trkpt lat="45.987435" lon="-1.388411"><ele>-0.2</ele></trkpt>
      <trkpt lat="45.987812" lon="-1.388138"><ele>0.4</ele></trkpt>
      <trkpt lat="45.988371" lon="-1.387789"><ele>3.6</ele></trkpt>
      <trkpt lat="45.988865" lon="-1.387618"><ele>4.2</ele></trkpt>
      <trkpt lat="45.989115" lon="-1.387442"><ele>5.8</ele></trkpt>
      <trkpt lat="45.989193" lon="-1.387178"><ele>5.8</ele></trkpt>
      <trkpt lat="45.989518" lon="-1.387042"><ele>6.6</ele></trkpt>
      <trkpt lat="45.990096" lon="-1.387076"><ele>0.2</ele></trkpt>
      <trkpt lat="45.991492" lon="-1.386502"><ele>1.0</ele></trkpt>
      <trkpt lat="45.991745" lon="-1.386311"><ele>3.2</ele></trkpt>
      <trkpt lat="45.992246" lon="-1.386381"><ele>3.2</ele></trkpt>
      <trkpt lat="45.992612" lon="-1.385803"><ele>3.2</ele></trkpt>
      <trkpt lat="45.993800" lon="-1.385091"><ele>-1.0</ele></trkpt>
      <trkpt lat="45.994274" lon="-1.384951"><ele>-0.4</ele></trkpt>
      <trkpt lat="45.995289" lon="-1.384363"><ele>-0.2</ele></trkpt>
      <trkpt lat="45.996924" lon="-1.382517"><ele>0.6</ele></trkpt>
      <trkpt lat="45.997374" lon="-1.381797"><ele>0.4</ele></trkpt>
      <trkpt lat="45.997506" lon="-1.381434"><ele>0.6</ele></trkpt>
      <trkpt lat="45.998089" lon="-1.382648"><ele>0.0</ele></trkpt>
      <trkpt lat="45.998224" lon="-1.382696"><ele>0.0</ele></trkpt>
      <trkpt lat="45.998383" lon="-1.382507"><ele>0.2</ele></trkpt>
      <trkpt lat="45.998600" lon="-1.382562"><ele>0.0</ele></trkpt>
      <trkpt lat="46.001126" lon="-1.383749"><ele>0.6</ele></trkpt>
      <trkpt lat="46.001210" lon="-1.383652"><ele>0.2</ele></trkpt>
      <trkpt lat="46.001628" lon="-1.381206"><ele>0.2</ele></trkpt>
      <trkpt lat="46.001897" lon="-1.380406"><ele>-0.4</ele></trkpt>
      <trkpt lat="46.001904" lon="-1.379874"><ele>-0.4</ele></trkpt>
      <trkpt lat="46.001965" lon="-1.379777"><ele>0.0</ele></trkpt>
      <trkpt lat="46.002447" lon="-1.379912"><ele>-0.6</ele></trkpt>
      <trkpt lat="46.003092" lon="-1.380440"><ele>-1.2</ele></trkpt>
      <trkpt lat="46.003562" lon="-1.380566"><ele>-1.6</ele></trkpt>
      <trkpt lat="46.005527" lon="-1.379836"><ele>-1.8</ele></trkpt>
      <trkpt lat="46.005613" lon="-1.379975"><ele>-1.6</ele></trkpt>
      <trkpt lat="46.006021" lon="-1.381648"><ele>-1.4</ele></trkpt>
      <trkpt lat="46.006481" lon="-1.381727"><ele>-1.4</ele></trkpt>
      <trkpt lat="46.006580" lon="-1.382168"><ele>-1.4</ele></trkpt>
      <trkpt lat="46.006700" lon="-1.382293"><ele>-1.6</ele></trkpt>
      <trkpt lat="46.007192" lon="-1.382221"><ele>-1.4</ele></trkpt>
      <trkpt lat="46.007860" lon="-1.381809"><ele>-1.2</ele></trkpt>
      <trkpt lat="46.009758" lon="-1.381578"><ele>-2.0</ele></trkpt>
      <trkpt lat="46.011388" lon="-1.381196"><ele>-3.2</ele></trkpt>
      <trkpt lat="46.011961" lon="-1.381978"><ele>-3.2</ele></trkpt>
      <trkpt lat="46.014287" lon="-1.381379"><ele>-2.0</ele></trkpt>
      <trkpt lat="46.014523" lon="-1.381949"><ele>-1.8</ele></trkpt>
      <trkpt lat="46.014768" lon="-1.383278"><ele>-1.8</ele></trkpt>
      <trkpt lat="46.014758" lon="-1.383702"><ele>-2.2</ele></trkpt>
      <trkpt lat="46.014632" lon="-1.384181"><ele>-1.8</ele></trkpt>
      <trkpt lat="46.014729" lon="-1.386377"><ele>-1.2</ele></trkpt>
      <trkpt lat="46.015285" lon="-1.387277"><ele>0.6</ele></trkpt>
      <trkpt lat="46.015519" lon="-1.387317"><ele>1.6</ele></trkpt>
      <trkpt lat="46.016932" lon="-1.387093"><ele>2.8</ele></trkpt>
      <trkpt lat="46.019326" lon="-1.385813"><ele>4.6</ele></trkpt>
      <trkpt lat="46.019958" lon="-1.388893"><ele>6.0</ele></trkpt>
      <trkpt lat="46.020163" lon="-1.389592"><ele>6.0</ele></trkpt>
      <trkpt lat="46.020416" lon="-1.390177"><ele>6.0</ele></trkpt>
      <trkpt lat="46.020587" lon="-1.390345"><ele>6.0</ele></trkpt>
      <trkpt lat="46.020641" lon="-1.390817"><ele>6.0</ele></trkpt>
      <trkpt lat="46.020950" lon="-1.391555"><ele>6.0</ele></trkpt>
      <trkpt lat="46.021704" lon="-1.392769"><ele>6.0</ele></trkpt>
      <trkpt lat="46.021680" lon="-1.392948"><ele>5.8</ele></trkpt>
      <trkpt lat="46.021203" lon="-1.393829"><ele>5.6</ele></trkpt>
      <trkpt lat="46.021161" lon="-1.394058"><ele>5.4</ele></trkpt>
      <trkpt lat="46.022215" lon="-1.395609"><ele>6.0</ele></trkpt>
      <trkpt lat="46.022410" lon="-1.395787"><ele>5.6</ele></trkpt>
      <trkpt lat="46.021975" lon="-1.396437"><ele>6.0</ele></trkpt>
      <trkpt lat="46.022880" lon="-1.397643"><ele>4.8</ele></trkpt>
      <trkpt lat="46.023350" lon="-1.397749"><ele>5.0</ele></trkpt>
      <trkpt lat="46.023943" lon="-1.398410"><ele>4.4</ele></trkpt>
      <trkpt lat="46.024303" lon="-1.398953"><ele>4.8</ele></trkpt>
      <trkpt lat="46.024336" lon="-1.399217"><ele>4.4</ele></trkpt>
      <trkpt lat="46.023884" lon="-1.399869"><ele>4.2</ele></trkpt>
      <trkpt lat="46.024037" lon="-1.400491"><ele>4.2</ele></trkpt>
      <trkpt lat="46.024193" lon="-1.400739"><ele>5.0</ele></trkpt>
      <trkpt lat="46.024349" lon="-1.400818"><ele>5.4</ele></trkpt>
      <trkpt lat="46.024837" lon="-1.401557"><ele>5.4</ele></trkpt>
      <trkpt lat="46.025265" lon="-1.401029"><ele>5.0</ele></trkpt>
      <trkpt lat="46.025407" lon="-1.401055"><ele>4.8</ele></trkpt>
      <trkpt lat="46.025618" lon="-1.401420"><ele>4.8</ele></trkpt>
      <trkpt lat="46.025710" lon="-1.402066"><ele>5.2</ele></trkpt>
      <trkpt lat="46.025932" lon="-1.402589"><ele>5.2</ele></trkpt>
      <trkpt lat="46.029180" lon="-1.404985"><ele>4.4</ele></trkpt>
      <trkpt lat="46.029896" lon="-1.404487"><ele>4.8</ele></trkpt>
      <trkpt lat="46.030101" lon="-1.404443"><ele>4.6</ele></trkpt>
      <trkpt lat="46.031405" lon="-1.405881"><ele>5.0</ele></trkpt>
      <trkpt lat="46.031812" lon="-1.406118"><ele>4.8</ele></trkpt>
      <trkpt lat="46.034870" lon="-1.407148"><ele>1.0</ele></trkpt>
      <trkpt lat="46.036271" lon="-1.407719"><ele>3.2</ele></trkpt>
      <trkpt lat="46.036517" lon="-1.407725"><ele>4.2</ele></trkpt>
      <trkpt lat="46.038236" lon="-1.408410"><ele>4.6</ele></trkpt>
      <trkpt lat="46.038568" lon="-1.408455"><ele>4.2</ele></trkpt>
      <trkpt lat="46.041718" lon="-1.409644"><ele>4.6</ele></trkpt>
      <trkpt lat="46.041947" lon="-1.409661"><ele>5.0</ele></trkpt>
      <trkpt lat="46.042262" lon="-1.409491"><ele>4.8</ele></trkpt>
      <trkpt lat="46.043941" lon="-1.407867"><ele>6.8</ele></trkpt>
      <trkpt lat="46.044347" lon="-1.408858"><ele>6.8</ele></trkpt>
      <trkpt lat="46.044929" lon="-1.410820"><ele>6.4</ele></trkpt>
      <trkpt lat="46.045144" lon="-1.410942"><ele>6.0</ele></trkpt>
      <trkpt lat="46.045514" lon="-1.410703"><ele>6.4</ele></trkpt>
      <trkpt lat="46.046349" lon="-1.412431"><ele>7.2</ele></trkpt>
      <trkpt lat="46.046555" lon="-1.412682"><ele>7.0</ele></trkpt>
      <trkpt lat="46.046759" lon="-1.412571"><ele>6.6</ele></trkpt>
      <trkpt lat="46.047557" lon="-1.411574"><ele>6.0</ele></trkpt>
      <trkpt lat="46.047828" lon="-1.410925"><ele>5.8</ele></trkpt>
      <trkpt lat="46.047692" lon="-1.410471"><ele>6.0</ele></trkpt>
      <trkpt lat="46.047657" lon="-1.409687"><ele>7.0</ele></trkpt>
      <trkpt lat="46.047464" lon="-1.408701"><ele>7.0</ele></trkpt>
      <trkpt lat="46.047546" lon="-1.408175"><ele>6.0</ele></trkpt>
      <trkpt lat="46.047805" lon="-1.407417"><ele>5.8</ele></trkpt>
      <trkpt lat="46.047816" lon="-1.407099"><ele>5.8</ele></trkpt>
      <trkpt lat="46.047732" lon="-1.406902"><ele>5.4</ele></trkpt>
      <trkpt lat="46.047436" lon="-1.406639"><ele>5.8</ele></trkpt>
      <trkpt lat="46.047050" lon="-1.405940"><ele>6.6</ele></trkpt>
      <trkpt lat="46.046827" lon="-1.405752"><ele>6.8</ele></trkpt>
      <trkpt lat="46.046546" lon="-1.405686"><ele>5.2</ele></trkpt>
      <trkpt lat="46.046010" lon="-1.405997"><ele>7.2</ele></trkpt>
      <trkpt lat="46.045587" lon="-1.403458"><ele>7.8</ele></trkpt>
      <trkpt lat="46.044257" lon="-1.399687"><ele>9.0</ele></trkpt>
      <trkpt lat="46.044267" lon="-1.399127"><ele>8.2</ele></trkpt>
      <trkpt lat="46.044581" lon="-1.398565"><ele>6.8</ele></trkpt>
      <trkpt lat="46.044615" lon="-1.398260"><ele>5.0</ele></trkpt>
      <trkpt lat="46.044449" lon="-1.396884"><ele>1.6</ele></trkpt>
      <trkpt lat="46.044248" lon="-1.396287"><ele>1.8</ele></trkpt>
      <trkpt lat="46.044135" lon="-1.395481"><ele>1.8</ele></trkpt>
      <trkpt lat="46.043597" lon="-1.394722"><ele>7.0</ele></trkpt>
      <trkpt lat="46.043191" lon="-1.393619"><ele>6.6</ele></trkpt>
      <trkpt lat="46.042749" lon="-1.393081"><ele>6.4</ele></trkpt>
      <trkpt lat="46.041951" lon="-1.390827"><ele>4.6</ele></trkpt>
      <trkpt lat="46.041920" lon="-1.390522"><ele>3.6</ele></trkpt>
      <trkpt lat="46.041733" lon="-1.389989"><ele>3.6</ele></trkpt>
      <trkpt lat="46.041852" lon="-1.389664"><ele>3.0</ele></trkpt>
      <trkpt lat="46.041692" lon="-1.389207"><ele>2.4</ele></trkpt>
      <trkpt lat="46.041507" lon="-1.388014"><ele>3.0</ele></trkpt>
      <trkpt lat="46.041433" lon="-1.386067"><ele>6.2</ele></trkpt>
      <trkpt lat="46.041368" lon="-1.385810"><ele>6.0</ele></trkpt>
      <trkpt lat="46.040552" lon="-1.384964"><ele>6.0</ele></trkpt>
      <trkpt lat="46.039782" lon="-1.383880"><ele>7.4</ele></trkpt>
      <trkpt lat="46.039256" lon="-1.383651"><ele>7.2</ele></trkpt>
      <trkpt lat="46.037868" lon="-1.381957"><ele>7.4</ele></trkpt>
      <trkpt lat="46.038625" lon="-1.380635"><ele>6.6</ele></trkpt>
      <trkpt lat="46.038852" lon="-1.380397"><ele>6.8</ele></trkpt>
      <trkpt lat="46.039287" lon="-1.380410"><ele>6.4</ele></trkpt>
      <trkpt lat="46.039975" lon="-1.381304"><ele>6.4</ele></trkpt>
      <trkpt lat="46.040489" lon="-1.380730"><ele>6.0</ele></trkpt>
      <trkpt lat="46.040730" lon="-1.380723"><ele>5.2</ele></trkpt>
      <trkpt lat="46.040755" lon="-1.380368"><ele>3.2</ele></trkpt>
      <trkpt lat="46.040920" lon="-1.379990"><ele>-1.4</ele></trkpt>
      <trkpt lat="46.040920" lon="-1.379112"><ele>-2.2</ele></trkpt>
      <trkpt lat="46.040767" lon="-1.377986"><ele>-2.0</ele></trkpt>
      <trkpt lat="46.039643" lon="-1.373246"><ele>-0.4</ele></trkpt>
      <trkpt lat="46.039400" lon="-1.372590"><ele>2.6</ele></trkpt>
      <trkpt lat="46.039335" lon="-1.372510"><ele>3.8</ele></trkpt>
      <trkpt lat="46.039000" lon="-1.372547"><ele>4.6</ele></trkpt>
      <trkpt lat="46.038045" lon="-1.373584"><ele>3.0</ele></trkpt>
      <trkpt lat="46.037780" lon="-1.373173"><ele>1.6</ele></trkpt>
      <trkpt lat="46.037587" lon="-1.372593"><ele>1.8</ele></trkpt>
      <trkpt lat="46.037299" lon="-1.372100"><ele>2.6</ele></trkpt>
      <trkpt lat="46.036820" lon="-1.372312"><ele>1.8</ele></trkpt>
      <trkpt lat="46.036373" lon="-1.372244"><ele>2.6</ele></trkpt>
      <trkpt lat="46.036043" lon="-1.371504"><ele>3.2</ele></trkpt>
      <trkpt lat="46.035347" lon="-1.370709"><ele>3.4</ele></trkpt>
      <trkpt lat="46.035139" lon="-1.371055"><ele>1.6</ele></trkpt>
      <trkpt lat="46.035105" lon="-1.371313"><ele>3.2</ele></trkpt>
      <trkpt lat="46.034634" lon="-1.371907"><ele>3.0</ele></trkpt>
      <trkpt lat="46.033752" lon="-1.372244"><ele>3.8</ele></trkpt>
      <trkpt lat="46.033227" lon="-1.372231"><ele>5.2</ele></trkpt>
      <trkpt lat="46.032754" lon="-1.372081"><ele>5.2</ele></trkpt>
      <trkpt lat="46.032440" lon="-1.372120"><ele>5.8</ele></trkpt>
      <trkpt lat="46.031516" lon="-1.371777"><ele>5.4</ele></trkpt>
      <trkpt lat="46.030633" lon="-1.370678"><ele>5.8</ele></trkpt>
      <trkpt lat="46.029879" lon="-1.369958"><ele>5.2</ele></trkpt>
      <trkpt lat="46.029627" lon="-1.369439"><ele>4.4</ele></trkpt>
      <trkpt lat="46.029344" lon="-1.369221"><ele>4.8</ele></trkpt>
      <trkpt lat="46.029115" lon="-1.369231"><ele>5.8</ele></trkpt>
      <trkpt lat="46.027991" lon="-1.367377"><ele>5.0</ele></trkpt>
      <trkpt lat="46.027528" lon="-1.366433"><ele>3.8</ele></trkpt>
      <trkpt lat="46.026669" lon="-1.364057"><ele>3.8</ele></trkpt>
      <trkpt lat="46.026229" lon="-1.363624"><ele>5.2</ele></trkpt>
      <trkpt lat="46.025876" lon="-1.363076"><ele>4.8</ele></trkpt>
      <trkpt lat="46.025294" lon="-1.361105"><ele>4.2</ele></trkpt>
      <trkpt lat="46.024918" lon="-1.360163"><ele>4.8</ele></trkpt>
      <trkpt lat="46.024596" lon="-1.358302"><ele>4.0</ele></trkpt>
      <trkpt lat="46.024289" lon="-1.357549"><ele>4.0</ele></trkpt>
      <trkpt lat="46.024146" lon="-1.357361"><ele>4.2</ele></trkpt>
      <trkpt lat="46.023477" lon="-1.356909"><ele>4.2</ele></trkpt>
      <trkpt lat="46.022324" lon="-1.355222"><ele>4.8</ele></trkpt>
      <trkpt lat="46.021790" lon="-1.354959"><ele>3.6</ele></trkpt>
      <trkpt lat="46.020825" lon="-1.354694"><ele>4.8</ele></trkpt>
      <trkpt lat="46.020401" lon="-1.354308"><ele>5.8</ele></trkpt>
      <trkpt lat="46.019423" lon="-1.352893"><ele>6.4</ele></trkpt>
      <trkpt lat="46.017857" lon="-1.350314"><ele>6.6</ele></trkpt>
      <trkpt lat="46.017203" lon="-1.348906"><ele>6.4</ele></trkpt>
      <trkpt lat="46.016957" lon="-1.348193"><ele>6.0</ele></trkpt>
      <trkpt lat="46.016731" lon="-1.348055"><ele>6.4</ele></trkpt>
      <trkpt lat="46.016127" lon="-1.346132"><ele>6.6</ele></trkpt>
      <trkpt lat="46.015905" lon="-1.345841"><ele>6.6</ele></trkpt>
      <trkpt lat="46.015682" lon="-1.345755"><ele>7.4</ele></trkpt>
      <trkpt lat="46.015149" lon="-1.346063"><ele>7.0</ele></trkpt>
      <trkpt lat="46.015009" lon="-1.345961"><ele>6.4</ele></trkpt>
      <trkpt lat="46.014269" lon="-1.343956"><ele>5.6</ele></trkpt>
      <trkpt lat="46.014504" lon="-1.343309"><ele>6.2</ele></trkpt>
      <trkpt lat="46.014506" lon="-1.343063"><ele>5.2</ele></trkpt>
      <trkpt lat="46.014100" lon="-1.342085"><ele>5.0</ele></trkpt>
      <trkpt lat="46.013395" lon="-1.337857"><ele>5.2</ele></trkpt>
      <trkpt lat="46.013128" lon="-1.337003"><ele>5.6</ele></trkpt>
      <trkpt lat="46.012900" lon="-1.337018"><ele>6.4</ele></trkpt>
      <trkpt lat="46.011860" lon="-1.337612"><ele>6.4</ele></trkpt>
      <trkpt lat="46.011203" lon="-1.336613"><ele>4.8</ele></trkpt>
      <trkpt lat="46.011033" lon="-1.336599"><ele>4.6</ele></trkpt>
      <trkpt lat="46.009644" lon="-1.337735"><ele>4.6</ele></trkpt>
      <trkpt lat="46.009593" lon="-1.337833"><ele>4.8</ele></trkpt>
      <trkpt lat="46.009636" lon="-1.338125"><ele>5.8</ele></trkpt>
      <trkpt lat="46.009563" lon="-1.338230"><ele>5.2</ele></trkpt>
      <trkpt lat="46.008584" lon="-1.338859"><ele>5.0</ele></trkpt>
      <trkpt lat="46.006259" lon="-1.340758"><ele>0.2</ele></trkpt>
      <trkpt lat="46.005917" lon="-1.340273"><ele>0.6</ele></trkpt>
      <trkpt lat="46.005798" lon="-1.339818"><ele>1.4</ele></trkpt>
      <trkpt lat="46.005812" lon="-1.339487"><ele>1.2</ele></trkpt>
      <trkpt lat="46.005162" lon="-1.337907"><ele>1.0</ele></trkpt>
      <trkpt lat="46.005165" lon="-1.337724"><ele>0.6</ele></trkpt>
      <trkpt lat="46.005354" lon="-1.337466"><ele>0.6</ele></trkpt>
      <trkpt lat="46.005109" lon="-1.337128"><ele>-0.4</ele></trkpt>
      <trkpt lat="46.005108" lon="-1.336960"><ele>-0.6</ele></trkpt>
      <trkpt lat="46.005680" lon="-1.336121"><ele>-0.8</ele></trkpt>
      <trkpt lat="46.005373" lon="-1.335305"><ele>0.2</ele></trkpt>
      <trkpt lat="46.005014" lon="-1.333501"><ele>0.4</ele></trkpt>
      <trkpt lat="46.005011" lon="-1.332710"><ele>0.4</ele></trkpt>
      <trkpt lat="46.005373" lon="-1.329851"><ele>0.4</ele></trkpt>
      <trkpt lat="46.005362" lon="-1.329672"><ele>0.6</ele></trkpt>
      <trkpt lat="46.005082" lon="-1.329183"><ele>0.6</ele></trkpt>
      <trkpt lat="46.004644" lon="-1.328718"><ele>1.6</ele></trkpt>
      <trkpt lat="46.004239" lon="-1.328471"><ele>2.0</ele></trkpt>
      <trkpt lat="46.003205" lon="-1.327240"><ele>2.0</ele></trkpt>
      <trkpt lat="46.002827" lon="-1.326535"><ele>3.4</ele></trkpt>
      <trkpt lat="46.002128" lon="-1.324728"><ele>3.4</ele></trkpt>
      <trkpt lat="46.000728" lon="-1.322855"><ele>2.0</ele></trkpt>
      <trkpt lat="46.000361" lon="-1.322677"><ele>2.2</ele></trkpt>
      <trkpt lat="45.999643" lon="-1.321737"><ele>2.0</ele></trkpt>
      <trkpt lat="45.999018" lon="-1.321784"><ele>2.6</ele></trkpt>
      <trkpt lat="45.998584" lon="-1.321658"><ele>3.4</ele></trkpt>
      <trkpt lat="45.998415" lon="-1.321733"><ele>3.4</ele></trkpt>
      <trkpt lat="45.998197" lon="-1.322019"><ele>2.8</ele></trkpt>
      <trkpt lat="45.997724" lon="-1.321827"><ele>2.4</ele></trkpt>
      <trkpt lat="45.997174" lon="-1.321260"><ele>2.4</ele></trkpt>
      <trkpt lat="45.996531" lon="-1.320385"><ele>2.8</ele></trkpt>
      <trkpt lat="45.995454" lon="-1.318203"><ele>1.8</ele></trkpt>
      <trkpt lat="45.995382" lon="-1.318179"><ele>2.0</ele></trkpt>
      <trkpt lat="45.995285" lon="-1.317866"><ele>1.8</ele></trkpt>
      <trkpt lat="45.994531" lon="-1.316621"><ele>3.8</ele></trkpt>
      <trkpt lat="45.994158" lon="-1.316941"><ele>0.2</ele></trkpt>
      <trkpt lat="45.993795" lon="-1.316580"><ele>-0.2</ele></trkpt>
      <trkpt lat="45.993471" lon="-1.316442"><ele>0.4</ele></trkpt>
      <trkpt lat="45.993470" lon="-1.316273"><ele>3.2</ele></trkpt>
      <trkpt lat="45.993319" lon="-1.316096"><ele>3.0</ele></trkpt>
      <trkpt lat="45.993259" lon="-1.315613"><ele>5.2</ele></trkpt>
      <trkpt lat="45.993081" lon="-1.315342"><ele>2.0</ele></trkpt>
      <trkpt lat="45.992707" lon="-1.314110"><ele>5.6</ele></trkpt>
      <trkpt lat="45.992382" lon="-1.313750"><ele>2.4</ele></trkpt>
      <trkpt lat="45.992228" lon="-1.313167"><ele>3.2</ele></trkpt>
      <trkpt lat="45.991905" lon="-1.312620"><ele>2.6</ele></trkpt>
      <trkpt lat="45.991694" lon="-1.312557"><ele>2.8</ele></trkpt>
      <trkpt lat="45.991530" lon="-1.312316"><ele>3.8</ele></trkpt>
      <trkpt lat="45.991244" lon="-1.311553"><ele>3.2</ele></trkpt>
      <trkpt lat="45.990588" lon="-1.311204"><ele>3.0</ele></trkpt>
      <trkpt lat="45.990533" lon="-1.310658"><ele>5.0</ele></trkpt>
      <trkpt lat="45.990390" lon="-1.310330"><ele>5.4</ele></trkpt>
      <trkpt lat="45.990395" lon="-1.310014"><ele>6.2</ele></trkpt>
      <trkpt lat="45.990318" lon="-1.309840"><ele>5.8</ele></trkpt>
      <trkpt lat="45.990944" lon="-1.308838"><ele>5.4</ele></trkpt>
      <trkpt lat="45.990938" lon="-1.308013"><ele>5.0</ele></trkpt>
      <trkpt lat="45.990779" lon="-1.307744"><ele>5.2</ele></trkpt>
      <trkpt lat="45.990480" lon="-1.306771"><ele>7.8</ele></trkpt>
      <trkpt lat="45.990154" lon="-1.306892"><ele>8.2</ele></trkpt>
      <trkpt lat="45.989607" lon="-1.307327"><ele>13.0</ele></trkpt>
      <trkpt lat="45.988652" lon="-1.304151"><ele>6.6</ele></trkpt>
      <trkpt lat="45.988467" lon="-1.304274"><ele>6.6</ele></trkpt>
      <trkpt lat="45.987868" lon="-1.305370"><ele>6.6</ele></trkpt>
      <trkpt lat="45.987245" lon="-1.306881"><ele>6.2</ele></trkpt>
      <trkpt lat="45.986775" lon="-1.307539"><ele>5.8</ele></trkpt>
      <trkpt lat="45.986570" lon="-1.307531"><ele>6.6</ele></trkpt>
      <trkpt lat="45.986417" lon="-1.307256"><ele>6.6</ele></trkpt>
      <trkpt lat="45.986236" lon="-1.307216"><ele>6.6</ele></trkpt>
      <trkpt lat="45.986057" lon="-1.306948"><ele>7.0</ele></trkpt>
      <trkpt lat="45.985825" lon="-1.304491"><ele>7.4</ele></trkpt>
      <trkpt lat="45.985935" lon="-1.303817"><ele>7.2</ele></trkpt>
      <trkpt lat="45.986197" lon="-1.302929"><ele>8.0</ele></trkpt>
      <trkpt lat="45.986255" lon="-1.300223"><ele>8.4</ele></trkpt>
      <trkpt lat="45.986395" lon="-1.299517"><ele>8.2</ele></trkpt>
      <trkpt lat="45.985732" lon="-1.294351"><ele>6.8</ele></trkpt>
      <trkpt lat="45.985796" lon="-1.294221"><ele>6.8</ele></trkpt>
      <trkpt lat="45.986339" lon="-1.294122"><ele>7.4</ele></trkpt>
      <trkpt lat="45.986509" lon="-1.293968"><ele>6.4</ele></trkpt>
      <trkpt lat="45.987586" lon="-1.293541"><ele>8.6</ele></trkpt>
      <trkpt lat="45.987667" lon="-1.293281"><ele>8.0</ele></trkpt>
      <trkpt lat="45.987658" lon="-1.293406"><ele>5.0</ele></trkpt>
      <trkpt lat="45.987645" lon="-1.293314"><ele>6.6</ele></trkpt>
      <trkpt lat="45.987814" lon="-1.293273"><ele>7.6</ele></trkpt>
      <trkpt lat="45.987912" lon="-1.293117"><ele>6.4</ele></trkpt>
      <trkpt lat="45.987791" lon="-1.292138"><ele>7.0</ele></trkpt>
      <trkpt lat="45.987886" lon="-1.291320"><ele>6.8</ele></trkpt>
      <trkpt lat="45.987768" lon="-1.290579"><ele>6.2</ele></trkpt>
      <trkpt lat="45.987284" lon="-1.289538"><ele>6.2</ele></trkpt>
      <trkpt lat="45.987206" lon="-1.288510"><ele>7.6</ele></trkpt>
      <trkpt lat="45.987109" lon="-1.288317"><ele>10.6</ele></trkpt>
      <trkpt lat="45.987073" lon="-1.287942"><ele>9.8</ele></trkpt>
      <trkpt lat="45.986914" lon="-1.287772"><ele>8.2</ele></trkpt>
      <trkpt lat="45.986730" lon="-1.287225"><ele>8.4</ele></trkpt>
      <trkpt lat="45.986878" lon="-1.286741"><ele>9.6</ele></trkpt>
      <trkpt lat="45.986801" lon="-1.286219"><ele>13.2</ele></trkpt>
      <trkpt lat="45.986837" lon="-1.285673"><ele>8.6</ele></trkpt>
      <trkpt lat="45.986685" lon="-1.285271"><ele>7.8</ele></trkpt>
      <trkpt lat="45.986684" lon="-1.285069"><ele>7.6</ele></trkpt>
      <trkpt lat="45.986775" lon="-1.284436"><ele>8.2</ele></trkpt>
      <trkpt lat="45.986956" lon="-1.284060"><ele>10.2</ele></trkpt>
      <trkpt lat="45.986957" lon="-1.283594"><ele>8.8</ele></trkpt>
      <trkpt lat="45.986586" lon="-1.283133"><ele>11.6</ele></trkpt>
      <trkpt lat="45.986436" lon="-1.282718"><ele>9.0</ele></trkpt>
      <trkpt lat="45.986207" lon="-1.282402"><ele>5.8</ele></trkpt>
      <trkpt lat="45.986217" lon="-1.281318"><ele>5.8</ele></trkpt>
      <trkpt lat="45.986146" lon="-1.280994"><ele>5.6</ele></trkpt>
      <trkpt lat="45.985988" lon="-1.280819"><ele>5.6</ele></trkpt>
      <trkpt lat="45.985953" lon="-1.280655"><ele>6.0</ele></trkpt>
      <trkpt lat="45.986408" lon="-1.279935"><ele>5.4</ele></trkpt>
      <trkpt lat="45.986354" lon="-1.279464"><ele>5.2</ele></trkpt>
      <trkpt lat="45.986693" lon="-1.278978"><ele>6.6</ele></trkpt>
      <trkpt lat="45.986949" lon="-1.278401"><ele>5.6</ele></trkpt>
      <trkpt lat="45.986806" lon="-1.278050"><ele>6.2</ele></trkpt>
      <trkpt lat="45.986523" lon="-1.277759"><ele>9.4</ele></trkpt>
      <trkpt lat="45.986880" lon="-1.277625"><ele>9.6</ele></trkpt>
      <trkpt lat="45.986953" lon="-1.277511"><ele>10.8</ele></trkpt>
      <trkpt lat="45.986988" lon="-1.277278"><ele>10.4</ele></trkpt>
      <trkpt lat="45.986860" lon="-1.276812"><ele>10.0</ele></trkpt>
      <trkpt lat="45.987023" lon="-1.276235"><ele>5.6</ele></trkpt>
      <trkpt lat="45.986592" lon="-1.275807"><ele>5.0</ele></trkpt>
      <trkpt lat="45.986382" lon="-1.275797"><ele>4.8</ele></trkpt>
      <trkpt lat="45.980042" lon="-1.277210"><ele>7.4</ele></trkpt>
      <trkpt lat="45.978629" lon="-1.277501"><ele>5.4</ele></trkpt>
      <trkpt lat="45.978533" lon="-1.277427"><ele>4.8</ele></trkpt>
      <trkpt lat="45.978711" lon="-1.277066"><ele>5.4</ele></trkpt>
      <trkpt lat="45.978766" lon="-1.276748"><ele>6.6</ele></trkpt>
      <trkpt lat="45.978661" lon="-1.275193"><ele>7.6</ele></trkpt>
      <trkpt lat="45.978932" lon="-1.274803"><ele>6.6</ele></trkpt>
      <trkpt lat="45.979208" lon="-1.273629"><ele>5.8</ele></trkpt>
      <trkpt lat="45.979881" lon="-1.272455"><ele>8.0</ele></trkpt>
      <trkpt lat="45.980167" lon="-1.272365"><ele>7.8</ele></trkpt>
      <trkpt lat="45.980407" lon="-1.272069"><ele>6.0</ele></trkpt>
      <trkpt lat="45.980555" lon="-1.271459"><ele>5.0</ele></trkpt>
      <trkpt lat="45.981062" lon="-1.270949"><ele>8.2</ele></trkpt>
      <trkpt lat="45.981430" lon="-1.270224"><ele>7.4</ele></trkpt>
      <trkpt lat="45.981757" lon="-1.270134"><ele>7.0</ele></trkpt>
      <trkpt lat="45.982121" lon="-1.269834"><ele>6.2</ele></trkpt>
      <trkpt lat="45.982186" lon="-1.269433"><ele>7.2</ele></trkpt>
      <trkpt lat="45.982355" lon="-1.269189"><ele>7.6</ele></trkpt>
      <trkpt lat="45.982657" lon="-1.267640"><ele>5.2</ele></trkpt>
      <trkpt lat="45.983538" lon="-1.267025"><ele>8.2</ele></trkpt>
      <trkpt lat="45.983617" lon="-1.266115"><ele>5.8</ele></trkpt>
      <trkpt lat="45.983827" lon="-1.266205"><ele>6.6</ele></trkpt>
      <trkpt lat="45.984600" lon="-1.266059"><ele>7.4</ele></trkpt>
      <trkpt lat="45.985215" lon="-1.266179"><ele>7.6</ele></trkpt>
      <trkpt lat="45.985602" lon="-1.266067"><ele>8.2</ele></trkpt>
      <trkpt lat="45.985881" lon="-1.266163"><ele>11.8</ele></trkpt>
      <trkpt lat="45.986186" lon="-1.266076"><ele>9.8</ele></trkpt>
      <trkpt lat="45.986706" lon="-1.265696"><ele>9.6</ele></trkpt>
      <trkpt lat="45.986805" lon="-1.265525"><ele>10.0</ele></trkpt>
      <trkpt lat="45.987088" lon="-1.265448"><ele>8.4</ele></trkpt>
      <trkpt lat="45.987569" lon="-1.264935"><ele>7.6</ele></trkpt>
      <trkpt lat="45.987458" lon="-1.261464"><ele>16.0</ele></trkpt>
      <trkpt lat="45.987660" lon="-1.259842"><ele>13.0</ele></trkpt>
      <trkpt lat="45.987737" lon="-1.258411"><ele>10.2</ele></trkpt>
      <trkpt lat="45.987823" lon="-1.258103"><ele>8.4</ele></trkpt>
      <trkpt lat="45.987987" lon="-1.255541"><ele>7.8</ele></trkpt>
      <trkpt lat="45.988135" lon="-1.255318"><ele>8.6</ele></trkpt>
      <trkpt lat="45.989068" lon="-1.255325"><ele>12.0</ele></trkpt>
      <trkpt lat="45.989260" lon="-1.255167"><ele>13.2</ele></trkpt>
      <trkpt lat="45.989318" lon="-1.254835"><ele>12.8</ele></trkpt>
      <trkpt lat="45.989459" lon="-1.254680"><ele>13.4</ele></trkpt>
      <trkpt lat="45.989573" lon="-1.254076"><ele>12.8</ele></trkpt>
      <trkpt lat="45.989510" lon="-1.253819"><ele>12.2</ele></trkpt>
      <trkpt lat="45.989599" lon="-1.252652"><ele>12.8</ele></trkpt>
      <trkpt lat="45.989719" lon="-1.252393"><ele>13.0</ele></trkpt>
      <trkpt lat="45.989774" lon="-1.251933"><ele>12.2</ele></trkpt>
      <trkpt lat="45.989693" lon="-1.251532"><ele>12.4</ele></trkpt>
      <trkpt lat="45.989698" lon="-1.250559"><ele>13.4</ele></trkpt>
      <trkpt lat="45.989539" lon="-1.250216"><ele>13.6</ele></trkpt>
      <trkpt lat="45.989497" lon="-1.248932"><ele>12.4</ele></trkpt>
      <trkpt lat="45.989428" lon="-1.248724"><ele>12.0</ele></trkpt>
      <trkpt lat="45.989465" lon="-1.248415"><ele>12.6</ele></trkpt>
      <trkpt lat="45.989630" lon="-1.248226"><ele>11.6</ele></trkpt>
      <trkpt lat="45.989663" lon="-1.247851"><ele>11.0</ele></trkpt>
      <trkpt lat="45.989884" lon="-1.247344"><ele>10.2</ele></trkpt>
      <trkpt lat="45.989695" lon="-1.246653"><ele>8.8</ele></trkpt>
      <trkpt lat="45.989241" lon="-1.245526"><ele>8.6</ele></trkpt>
      <trkpt lat="45.988426" lon="-1.244412"><ele>7.6</ele></trkpt>
      <trkpt lat="45.988266" lon="-1.244002"><ele>7.8</ele></trkpt>
      <trkpt lat="45.987846" lon="-1.243505"><ele>8.0</ele></trkpt>
      <trkpt lat="45.987351" lon="-1.242442"><ele>7.2</ele></trkpt>
      <trkpt lat="45.986718" lon="-1.241581"><ele>7.2</ele></trkpt>
      <trkpt lat="45.985837" lon="-1.240603"><ele>7.2</ele></trkpt>
      <trkpt lat="45.983579" lon="-1.238298"><ele>7.2</ele></trkpt>
      <trkpt lat="45.982127" lon="-1.237255"><ele>6.4</ele></trkpt>
      <trkpt lat="45.981118" lon="-1.237038"><ele>5.4</ele></trkpt>
      <trkpt lat="45.980755" lon="-1.237126"><ele>5.6</ele></trkpt>
      <trkpt lat="45.980578" lon="-1.237411"><ele>6.2</ele></trkpt>
      <trkpt lat="45.979193" lon="-1.237671"><ele>4.6</ele></trkpt>
      <trkpt lat="45.977398" lon="-1.238351"><ele>4.0</ele></trkpt>
      <trkpt lat="45.975817" lon="-1.238724"><ele>4.6</ele></trkpt>
      <trkpt lat="45.975321" lon="-1.239230"><ele>4.4</ele></trkpt>
      <trkpt lat="45.974520" lon="-1.239455"><ele>4.6</ele></trkpt>
      <trkpt lat="45.973945" lon="-1.238942"><ele>4.2</ele></trkpt>
      <trkpt lat="45.973156" lon="-1.237964"><ele>5.6</ele></trkpt>
      <trkpt lat="45.972950" lon="-1.237983"><ele>6.8</ele></trkpt>
      <trkpt lat="45.972845" lon="-1.238290"><ele>6.8</ele></trkpt>
      <trkpt lat="45.972700" lon="-1.238336"><ele>6.4</ele></trkpt>
      <trkpt lat="45.972565" lon="-1.238643"><ele>6.8</ele></trkpt>
      <trkpt lat="45.972360" lon="-1.238809"><ele>6.4</ele></trkpt>
      <trkpt lat="45.971961" lon="-1.238066"><ele>6.4</ele></trkpt>
      <trkpt lat="45.971570" lon="-1.237780"><ele>7.0</ele></trkpt>
      <trkpt lat="45.970857" lon="-1.239804"><ele>3.8</ele></trkpt>
      <trkpt lat="45.969203" lon="-1.238256"><ele>3.8</ele></trkpt>
      <trkpt lat="45.968676" lon="-1.238333"><ele>4.2</ele></trkpt>
      <trkpt lat="45.968273" lon="-1.238097"><ele>4.0</ele></trkpt>
      <trkpt lat="45.968008" lon="-1.238505"><ele>4.2</ele></trkpt>
      <trkpt lat="45.967921" lon="-1.238864"><ele>4.4</ele></trkpt>
      <trkpt lat="45.967898" lon="-1.239513"><ele>3.8</ele></trkpt>
      <trkpt lat="45.968172" lon="-1.240398"><ele>2.8</ele></trkpt>
      <trkpt lat="45.967833" lon="-1.241104"><ele>2.2</ele></trkpt>
      <trkpt lat="45.967140" lon="-1.242133"><ele>2.0</ele></trkpt>
      <trkpt lat="45.966600" lon="-1.241603"><ele>2.8</ele></trkpt>
      <trkpt lat="45.966311" lon="-1.241963"><ele>3.4</ele></trkpt>
      <trkpt lat="45.966014" lon="-1.241987"><ele>2.2</ele></trkpt>
      <trkpt lat="45.964542" lon="-1.244599"><ele>2.0</ele></trkpt>
      <trkpt lat="45.963555" lon="-1.243663"><ele>2.4</ele></trkpt>
      <trkpt lat="45.962863" lon="-1.243396"><ele>3.8</ele></trkpt>
      <trkpt lat="45.960256" lon="-1.243586"><ele>3.2</ele></trkpt>
      <trkpt lat="45.957750" lon="-1.243363"><ele>4.4</ele></trkpt>
      <trkpt lat="45.957335" lon="-1.243414"><ele>4.4</ele></trkpt>
      <trkpt lat="45.954609" lon="-1.242823"><ele>2.4</ele></trkpt>
      <trkpt lat="45.954005" lon="-1.242532"><ele>2.4</ele></trkpt>
      <trkpt lat="45.953859" lon="-1.242900"><ele>2.0</ele></trkpt>
      <trkpt lat="45.953620" lon="-1.242720"><ele>2.0</ele></trkpt>
      <trkpt lat="45.952396" lon="-1.243024"><ele>2.2</ele></trkpt>
      <trkpt lat="45.951735" lon="-1.242383"><ele>1.6</ele></trkpt>
      <trkpt lat="45.951330" lon="-1.242203"><ele>2.4</ele></trkpt>
      <trkpt lat="45.950634" lon="-1.241656"><ele>3.0</ele></trkpt>
      <trkpt lat="45.950666" lon="-1.241234"><ele>4.0</ele></trkpt>
      <trkpt lat="45.950497" lon="-1.241066"><ele>3.8</ele></trkpt>
      <trkpt lat="45.950658" lon="-1.240603"><ele>4.4</ele></trkpt>
      <trkpt lat="45.950611" lon="-1.240399"><ele>4.0</ele></trkpt>
      <trkpt lat="45.950670" lon="-1.240384"><ele>3.0</ele></trkpt>
      <trkpt lat="45.950831" lon="-1.239831"><ele>3.8</ele></trkpt>
      <trkpt lat="45.950609" lon="-1.239451"><ele>2.8</ele></trkpt>
      <trkpt lat="45.949331" lon="-1.238962"><ele>3.8</ele></trkpt>
      <trkpt lat="45.948921" lon="-1.238688"><ele>3.0</ele></trkpt>
      <trkpt lat="45.946909" lon="-1.238750"><ele>3.4</ele></trkpt>
      <trkpt lat="45.946515" lon="-1.238562"><ele>3.4</ele></trkpt>
      <trkpt lat="45.946332" lon="-1.238256"><ele>3.0</ele></trkpt>
      <trkpt lat="45.946085" lon="-1.237302"><ele>3.6</ele></trkpt>
      <trkpt lat="45.945259" lon="-1.236243"><ele>5.0</ele></trkpt>
      <trkpt lat="45.945310" lon="-1.235410"><ele>5.4</ele></trkpt>
      <trkpt lat="45.944871" lon="-1.234550"><ele>5.2</ele></trkpt>
      <trkpt lat="45.944873" lon="-1.233361"><ele>5.4</ele></trkpt>
      <trkpt lat="45.944791" lon="-1.233079"><ele>5.0</ele></trkpt>
      <trkpt lat="45.943940" lon="-1.232627"><ele>5.0</ele></trkpt>
      <trkpt lat="45.943115" lon="-1.231692"><ele>3.2</ele></trkpt>
      <trkpt lat="45.941975" lon="-1.231083"><ele>3.4</ele></trkpt>
      <trkpt lat="45.941752" lon="-1.232318"><ele>2.8</ele></trkpt>
      <trkpt lat="45.941628" lon="-1.238546"><ele>-2.2</ele></trkpt>
      <trkpt lat="45.941499" lon="-1.238615"><ele>-2.0</ele></trkpt>
      <trkpt lat="45.940242" lon="-1.238261"><ele>-0.4</ele></trkpt>
      <trkpt lat="45.937857" lon="-1.238005"><ele>1.2</ele></trkpt>
      <trkpt lat="45.936408" lon="-1.237952"><ele>0.2</ele></trkpt>
      <trkpt lat="45.935992" lon="-1.238052"><ele>1.2</ele></trkpt>
      <trkpt lat="45.935860" lon="-1.238199"><ele>1.2</ele></trkpt>
      <trkpt lat="45.935799" lon="-1.238452"><ele>1.4</ele></trkpt>
      <trkpt lat="45.935969" lon="-1.239613"><ele>1.2</ele></trkpt>
      <trkpt lat="45.935962" lon="-1.240991"><ele>0.2</ele></trkpt>
      <trkpt lat="45.936252" lon="-1.241583"><ele>0.0</ele></trkpt>
      <trkpt lat="45.936157" lon="-1.241877"><ele>-0.4</ele></trkpt>
      <trkpt lat="45.935296" lon="-1.241982"><ele>-0.4</ele></trkpt>
      <trkpt lat="45.934548" lon="-1.241872"><ele>0.2</ele></trkpt>
      <trkpt lat="45.933663" lon="-1.242083"><ele>0.2</ele></trkpt>
      <trkpt lat="45.933078" lon="-1.241475"><ele>1.2</ele></trkpt>
      <trkpt lat="45.932399" lon="-1.240506"><ele>2.8</ele></trkpt>
      <trkpt lat="45.932068" lon="-1.239462"><ele>2.0</ele></trkpt>
      <trkpt lat="45.931623" lon="-1.238552"><ele>3.4</ele></trkpt>
      <trkpt lat="45.931516" lon="-1.238068"><ele>3.2</ele></trkpt>
      <trkpt lat="45.931289" lon="-1.237723"><ele>2.4</ele></trkpt>
      <trkpt lat="45.931049" lon="-1.237605"><ele>2.8</ele></trkpt>
      <trkpt lat="45.929561" lon="-1.237458"><ele>3.0</ele></trkpt>
      <trkpt lat="45.927555" lon="-1.236506"><ele>3.8</ele></trkpt>
      <trkpt lat="45.927087" lon="-1.237098"><ele>3.0</ele></trkpt>
      <trkpt lat="45.927086" lon="-1.237486"><ele>3.2</ele></trkpt>
      <trkpt lat="45.926927" lon="-1.237875"><ele>3.0</ele></trkpt>
      <trkpt lat="45.926886" lon="-1.238564"><ele>1.8</ele></trkpt>
      <trkpt lat="45.925505" lon="-1.241366"><ele>0.0</ele></trkpt>
      <trkpt lat="45.925494" lon="-1.241541"><ele>-0.4</ele></trkpt>
      <trkpt lat="45.925674" lon="-1.241831"><ele>-0.6</ele></trkpt>
      <trkpt lat="45.925690" lon="-1.242041"><ele>-0.8</ele></trkpt>
      <trkpt lat="45.925128" lon="-1.242983"><ele>-1.0</ele></trkpt>
      <trkpt lat="45.924750" lon="-1.242609"><ele>-0.4</ele></trkpt>
      <trkpt lat="45.923981" lon="-1.241498"><ele>1.2</ele></trkpt>
      <trkpt lat="45.923863" lon="-1.241503"><ele>1.0</ele></trkpt>
      <trkpt lat="45.923558" lon="-1.242105"><ele>1.8</ele></trkpt>
      <trkpt lat="45.923272" lon="-1.243220"><ele>3.0</ele></trkpt>
      <trkpt lat="45.922258" lon="-1.244751"><ele>2.0</ele></trkpt>
      <trkpt lat="45.921808" lon="-1.244198"><ele>1.4</ele></trkpt>
      <trkpt lat="45.921111" lon="-1.242605"><ele>3.2</ele></trkpt>
      <trkpt lat="45.920950" lon="-1.242470"><ele>2.8</ele></trkpt>
      <trkpt lat="45.920790" lon="-1.241922"><ele>3.6</ele></trkpt>
      <trkpt lat="45.920541" lon="-1.241738"><ele>4.2</ele></trkpt>
      <trkpt lat="45.920057" lon="-1.241922"><ele>3.2</ele></trkpt>
      <trkpt lat="45.919856" lon="-1.241898"><ele>3.2</ele></trkpt>
      <trkpt lat="45.919708" lon="-1.242031"><ele>3.2</ele></trkpt>
      <trkpt lat="45.919244" lon="-1.242852"><ele>3.2</ele></trkpt>
      <trkpt lat="45.919217" lon="-1.243620"><ele>1.8</ele></trkpt>
      <trkpt lat="45.918634" lon="-1.243752"><ele>1.0</ele></trkpt>
      <trkpt lat="45.918471" lon="-1.243701"><ele>1.6</ele></trkpt>
      <trkpt lat="45.918376" lon="-1.243591"><ele>1.6</ele></trkpt>
      <trkpt lat="45.918271" lon="-1.243160"><ele>1.6</ele></trkpt>
      <trkpt lat="45.918168" lon="-1.242385"><ele>2.0</ele></trkpt>
      <trkpt lat="45.917775" lon="-1.241435"><ele>3.2</ele></trkpt>
      <trkpt lat="45.917628" lon="-1.239942"><ele>2.6</ele></trkpt>
      <trkpt lat="45.917058" lon="-1.238433"><ele>2.8</ele></trkpt>
      <trkpt lat="45.917083" lon="-1.237578"><ele>2.6</ele></trkpt>
      <trkpt lat="45.916411" lon="-1.235907"><ele>4.4</ele></trkpt>
      <trkpt lat="45.916140" lon="-1.236021"><ele>4.8</ele></trkpt>
      <trkpt lat="45.914314" lon="-1.237709"><ele>2.6</ele></trkpt>
      <trkpt lat="45.913721" lon="-1.236664"><ele>3.2</ele></trkpt>
      <trkpt lat="45.913476" lon="-1.235798"><ele>3.8</ele></trkpt>
      <trkpt lat="45.913321" lon="-1.235551"><ele>4.0</ele></trkpt>
      <trkpt lat="45.913281" lon="-1.234580"><ele>3.4</ele></trkpt>
      <trkpt lat="45.912836" lon="-1.233520"><ele>3.8</ele></trkpt>
      <trkpt lat="45.912748" lon="-1.233142"><ele>3.6</ele></trkpt>
      <trkpt lat="45.912509" lon="-1.233007"><ele>3.6</ele></trkpt>
      <trkpt lat="45.912197" lon="-1.233218"><ele>4.0</ele></trkpt>
      <trkpt lat="45.912054" lon="-1.233203"><ele>4.6</ele></trkpt>
      <trkpt lat="45.911610" lon="-1.232626"><ele>4.6</ele></trkpt>
      <trkpt lat="45.910843" lon="-1.233601"><ele>2.2</ele></trkpt>
      <trkpt lat="45.910752" lon="-1.233638"><ele>2.4</ele></trkpt>
      <trkpt lat="45.910693" lon="-1.233549"><ele>2.2</ele></trkpt>
      <trkpt lat="45.910586" lon="-1.233082"><ele>2.6</ele></trkpt>
      <trkpt lat="45.910663" lon="-1.232197"><ele>2.2</ele></trkpt>
      <trkpt lat="45.910586" lon="-1.230979"><ele>3.6</ele></trkpt>
      <trkpt lat="45.910463" lon="-1.230268"><ele>3.8</ele></trkpt>
      <trkpt lat="45.910151" lon="-1.229217"><ele>4.4</ele></trkpt>
      <trkpt lat="45.910256" lon="-1.227441"><ele>5.0</ele></trkpt>
      <trkpt lat="45.910572" lon="-1.226717"><ele>5.4</ele></trkpt>
      <trkpt lat="45.910108" lon="-1.225964"><ele>5.0</ele></trkpt>
      <trkpt lat="45.909695" lon="-1.224894"><ele>5.4</ele></trkpt>
      <trkpt lat="45.909404" lon="-1.225021"><ele>4.8</ele></trkpt>
      <trkpt lat="45.909323" lon="-1.224945"><ele>4.0</ele></trkpt>
      <trkpt lat="45.908804" lon="-1.223528"><ele>5.0</ele></trkpt>
      <trkpt lat="45.908556" lon="-1.223196"><ele>5.0</ele></trkpt>
      <trkpt lat="45.908556" lon="-1.222999"><ele>5.0</ele></trkpt>
      <trkpt lat="45.908308" lon="-1.223140"><ele>4.4</ele></trkpt>
      <trkpt lat="45.907984" lon="-1.222824"><ele>4.2</ele></trkpt>
      <trkpt lat="45.907988" lon="-1.222667"><ele>5.0</ele></trkpt>
      <trkpt lat="45.908539" lon="-1.221458"><ele>4.0</ele></trkpt>
      <trkpt lat="45.908070" lon="-1.220534"><ele>3.4</ele></trkpt>
      <trkpt lat="45.908479" lon="-1.220327"><ele>4.4</ele></trkpt>
      <trkpt lat="45.908594" lon="-1.220048"><ele>5.4</ele></trkpt>
      <trkpt lat="45.908515" lon="-1.219917"><ele>5.2</ele></trkpt>
      <trkpt lat="45.906200" lon="-1.218377"><ele>3.0</ele></trkpt>
      <trkpt lat="45.905869" lon="-1.218027"><ele>2.8</ele></trkpt>
      <trkpt lat="45.905406" lon="-1.217197"><ele>2.8</ele></trkpt>
      <trkpt lat="45.905491" lon="-1.216917"><ele>3.6</ele></trkpt>
      <trkpt lat="45.905810" lon="-1.216550"><ele>3.0</ele></trkpt>
      <trkpt lat="45.906080" lon="-1.216019"><ele>2.8</ele></trkpt>
      <trkpt lat="45.906350" lon="-1.215777"><ele>2.0</ele></trkpt>
      <trkpt lat="45.906828" lon="-1.214607"><ele>3.8</ele></trkpt>
      <trkpt lat="45.906412" lon="-1.214176"><ele>2.8</ele></trkpt>
      <trkpt lat="45.905983" lon="-1.214209"><ele>2.4</ele></trkpt>
      <trkpt lat="45.905374" lon="-1.212964"><ele>3.0</ele></trkpt>
      <trkpt lat="45.905392" lon="-1.212395"><ele>2.8</ele></trkpt>
      <trkpt lat="45.905064" lon="-1.211555"><ele>3.0</ele></trkpt>
      <trkpt lat="45.904718" lon="-1.211455"><ele>3.6</ele></trkpt>
      <trkpt lat="45.904243" lon="-1.211021"><ele>2.8</ele></trkpt>
      <trkpt lat="45.904007" lon="-1.211063"><ele>2.4</ele></trkpt>
      <trkpt lat="45.903741" lon="-1.211331"><ele>1.6</ele></trkpt>
      <trkpt lat="45.903620" lon="-1.211228"><ele>1.4</ele></trkpt>
      <trkpt lat="45.902681" lon="-1.209112"><ele>4.0</ele></trkpt>
      <trkpt lat="45.902301" lon="-1.209264"><ele>2.8</ele></trkpt>
      <trkpt lat="45.902200" lon="-1.209583"><ele>2.8</ele></trkpt>
      <trkpt lat="45.901925" lon="-1.209987"><ele>1.4</ele></trkpt>
      <trkpt lat="45.901735" lon="-1.209994"><ele>0.8</ele></trkpt>
      <trkpt lat="45.901453" lon="-1.209445"><ele>1.2</ele></trkpt>
      <trkpt lat="45.900874" lon="-1.207698"><ele>2.6</ele></trkpt>
      <trkpt lat="45.899729" lon="-1.204698"><ele>4.4</ele></trkpt>
      <trkpt lat="45.898885" lon="-1.203283"><ele>4.0</ele></trkpt>
      <trkpt lat="45.898874" lon="-1.203129"><ele>4.2</ele></trkpt>
      <trkpt lat="45.899158" lon="-1.202707"><ele>4.0</ele></trkpt>
      <trkpt lat="45.899424" lon="-1.202018"><ele>4.2</ele></trkpt>
      <trkpt lat="45.899257" lon="-1.201939"><ele>4.0</ele></trkpt>
      <trkpt lat="45.898176" lon="-1.202316"><ele>3.2</ele></trkpt>
      <trkpt lat="45.897789" lon="-1.202303"><ele>2.8</ele></trkpt>
      <trkpt lat="45.897244" lon="-1.202102"><ele>3.2</ele></trkpt>
      <trkpt lat="45.896628" lon="-1.201693"><ele>3.6</ele></trkpt>
      <trkpt lat="45.896507" lon="-1.201966"><ele>4.4</ele></trkpt>
      <trkpt lat="45.895654" lon="-1.201286"><ele>3.6</ele></trkpt>
      <trkpt lat="45.893120" lon="-1.198699"><ele>3.4</ele></trkpt>
      <trkpt lat="45.893028" lon="-1.198457"><ele>3.2</ele></trkpt>
      <trkpt lat="45.892519" lon="-1.197823"><ele>2.4</ele></trkpt>
      <trkpt lat="45.891060" lon="-1.196316"><ele>4.4</ele></trkpt>
      <trkpt lat="45.890615" lon="-1.195675"><ele>3.8</ele></trkpt>
      <trkpt lat="45.890508" lon="-1.194793"><ele>3.6</ele></trkpt>
      <trkpt lat="45.890144" lon="-1.194550"><ele>4.4</ele></trkpt>
      <trkpt lat="45.889994" lon="-1.194187"><ele>6.8</ele></trkpt>
      <trkpt lat="45.889343" lon="-1.193166"><ele>6.8</ele></trkpt>
      <trkpt lat="45.888875" lon="-1.191730"><ele>6.8</ele></trkpt>
      <trkpt lat="45.888681" lon="-1.191565"><ele>4.0</ele></trkpt>
      <trkpt lat="45.888602" lon="-1.191227"><ele>6.0</ele></trkpt>
      <trkpt lat="45.887620" lon="-1.190221"><ele>6.6</ele></trkpt>
      <trkpt lat="45.887452" lon="-1.190270"><ele>7.0</ele></trkpt>
      <trkpt lat="45.887245" lon="-1.190634"><ele>6.8</ele></trkpt>
      <trkpt lat="45.886938" lon="-1.190503"><ele>6.0</ele></trkpt>
      <trkpt lat="45.886821" lon="-1.190340"><ele>6.2</ele></trkpt>
      <trkpt lat="45.886734" lon="-1.189861"><ele>6.6</ele></trkpt>
      <trkpt lat="45.886646" lon="-1.189778"><ele>6.6</ele></trkpt>
      <trkpt lat="45.886285" lon="-1.189976"><ele>7.0</ele></trkpt>
      <trkpt lat="45.886011" lon="-1.190268"><ele>7.4</ele></trkpt>
      <trkpt lat="45.885551" lon="-1.190209"><ele>7.8</ele></trkpt>
      <trkpt lat="45.885131" lon="-1.189316"><ele>8.2</ele></trkpt>
      <trkpt lat="45.885334" lon="-1.189178"><ele>7.6</ele></trkpt>
    </trkseg>
  </trk>
</gpx>
