<?xml version="1.0" encoding="UTF-8"?>
<gpx version="1.1" creator="gpx-processor" xmlns="http://www.topografix.com/GPX/1/1">
  <metadata><name>Eindhoven Running</name></metadata>
  <trk>
    <name>Eindhoven Running</name>
    <trkseg>
      <trkpt lat="51.455492" lon="5.477394"><ele>21.8</ele></trkpt>
      <trkpt lat="51.461086" lon="5.476337"><ele>21.0</ele></trkpt>
      <trkpt lat="51.464048" lon="5.475533"><ele>24.8</ele></trkpt>
      <trkpt lat="51.467069" lon="5.475098"><ele>20.6</ele></trkpt>
      <trkpt lat="51.467168" lon="5.475175"><ele>20.2</ele></trkpt>
      <trkpt lat="51.467291" lon="5.476047"><ele>18.4</ele></trkpt>
      <trkpt lat="51.467420" lon="5.479827"><ele>18.8</ele></trkpt>
      <trkpt lat="51.467405" lon="5.481690"><ele>18.4</ele></trkpt>
      <trkpt lat="51.467514" lon="5.482859"><ele>19.8</ele></trkpt>
      <trkpt lat="51.467477" lon="5.484172"><ele>20.0</ele></trkpt>
      <trkpt lat="51.467554" lon="5.485282"><ele>22.4</ele></trkpt>
      <trkpt lat="51.467319" lon="5.492739"><ele>18.0</ele></trkpt>
      <trkpt lat="51.467009" lon="5.496031"><ele>17.0</ele></trkpt>
      <trkpt lat="51.466999" lon="5.497876"><ele>17.4</ele></trkpt>
      <trkpt lat="51.467431" lon="5.503060"><ele>20.0</ele></trkpt>
      <trkpt lat="51.467571" lon="5.503791"><ele>18.8</ele></trkpt>
      <trkpt lat="51.467576" lon="5.506012"><ele>19.6</ele></trkpt>
      <trkpt lat="51.467749" lon="5.506193"><ele>20.2</ele></trkpt>
      <trkpt lat="51.468864" lon="5.505993"><ele>17.0</ele></trkpt>
      <trkpt lat="51.471908" lon="5.503174"><ele>16.0</ele></trkpt>
      <trkpt lat="51.472520" lon="5.502817"><ele>16.0</ele></trkpt>
      <trkpt lat="51.474476" lon="5.502007"><ele>14.2</ele></trkpt>
      <trkpt lat="51.474894" lon="5.501716"><ele>15.6</ele></trkpt>
      <trkpt lat="51.475114" lon="5.499370"><ele>17.2</ele></trkpt>
      <trkpt lat="51.475507" lon="5.492969"><ele>19.0</ele></trkpt>
      <trkpt lat="51.475798" lon="5.490002"><ele>19.2</ele></trkpt>
      <trkpt lat="51.476027" lon="5.483521"><ele>18.2</ele></trkpt>
      <trkpt lat="51.476155" lon="5.482283"><ele>19.0</ele></trkpt>
      <trkpt lat="51.476185" lon="5.476594"><ele>19.8</ele></trkpt>
      <trkpt lat="51.476439" lon="5.470535"><ele>21.0</ele></trkpt>
      <trkpt lat="51.483597" lon="5.469848"><ele>18.0</ele></trkpt>
      <trkpt lat="51.484008" lon="5.469681"><ele>18.0</ele></trkpt>
      <trkpt lat="51.484080" lon="5.469554"><ele>17.8</ele></trkpt>
      <trkpt lat="51.484104" lon="5.468504"><ele>17.2</ele></trkpt>
      <trkpt lat="51.483795" lon="5.462969"><ele>18.0</ele></trkpt>
      <trkpt lat="51.483789" lon="5.461658"><ele>18.0</ele></trkpt>
      <trkpt lat="51.483050" lon="5.457082"><ele>17.0</ele></trkpt>
      <trkpt lat="51.482635" lon="5.454879"><ele>19.6</ele></trkpt>
      <trkpt lat="51.482541" lon="5.454728"><ele>18.4</ele></trkpt>
      <trkpt lat="51.480570" lon="5.455675"><ele>20.4</ele></trkpt>
      <trkpt lat="51.479909" lon="5.456106"><ele>21.6</ele></trkpt>
      <trkpt lat="51.479112" lon="5.456370"><ele>18.8</ele></trkpt>
      <trkpt lat="51.478412" lon="5.456893"><ele>18.6</ele></trkpt>
      <trkpt lat="51.477042" lon="5.458185"><ele>18.6</ele></trkpt>
      <trkpt lat="51.475756" lon="5.459624"><ele>18.4</ele></trkpt>
      <trkpt lat="51.474403" lon="5.460830"><ele>18.2</ele></trkpt>
      <trkpt lat="51.474077" lon="5.461300"><ele>19.0</ele></trkpt>
      <trkpt lat="51.472466" lon="5.462951"><ele>21.8</ele></trkpt>
      <trkpt lat="51.472098" lon="5.463449"><ele>21.6</ele></trkpt>
      <trkpt lat="51.470780" lon="5.464735"><ele>20.2</ele></trkpt>
      <trkpt lat="51.470716" lon="5.464723"><ele>20.4</ele></trkpt>
      <trkpt lat="51.470330" lon="5.463693"><ele>18.2</ele></trkpt>
      <trkpt lat="51.467073" lon="5.456930"><ele>21.6</ele></trkpt>
      <trkpt lat="51.467123" lon="5.456595"><ele>21.2</ele></trkpt>
      <trkpt lat="51.467750" lon="5.455968"><ele>21.0</ele></trkpt>
      <trkpt lat="51.468103" lon="5.455825"><ele>19.8</ele></trkpt>
      <trkpt lat="51.469021" lon="5.455106"><ele>21.0</ele></trkpt>
      <trkpt lat="51.469476" lon="5.454621"><ele>20.6</ele></trkpt>
      <trkpt lat="51.470808" lon="5.453763"><ele>20.8</ele></trkpt>
      <trkpt lat="51.471993" lon="5.452689"><ele>19.6</ele></trkpt>
      <trkpt lat="51.472123" lon="5.452203"><ele>18.6</ele></trkpt>
      <trkpt lat="51.471458" lon="5.450148"><ele>19.2</ele></trkpt>
      <trkpt lat="51.471568" lon="5.449534"><ele>18.0</ele></trkpt>
      <trkpt lat="51.472586" lon="5.448719"><ele>19.0</ele></trkpt>
      <trkpt lat="51.472854" lon="5.448388"><ele>19.0</ele></trkpt>
      <trkpt lat="51.475259" lon="5.446494"><ele>17.4</ele></trkpt>
      <trkpt lat="51.475344" lon="5.446311"><ele>17.2</ele></trkpt>
      <trkpt lat="51.474651" lon="5.444606"><ele>18.2</ele></trkpt>
      <trkpt lat="51.474309" lon="5.443547"><ele>17.8</ele></trkpt>
      <trkpt lat="51.473436" lon="5.441527"><ele>22.6</ele></trkpt>
      <trkpt lat="51.471989" lon="5.437617"><ele>19.0</ele></trkpt>
      <trkpt lat="51.467386" lon="5.429904"><ele>19.2</ele></trkpt>
      <trkpt lat="51.466929" lon="5.428496"><ele>24.2</ele></trkpt>
      <trkpt lat="51.466604" lon="5.425540"><ele>18.8</ele></trkpt>
      <trkpt lat="51.466428" lon="5.424619"><ele>18.6</ele></trkpt>
      <trkpt lat="51.465696" lon="5.422661"><ele>18.6</ele></trkpt>
      <trkpt lat="51.464899" lon="5.420968"><ele>17.8</ele></trkpt>
      <trkpt lat="51.463970" lon="5.418327"><ele>16.4</ele></trkpt>
      <trkpt lat="51.463256" lon="5.420014"><ele>24.8</ele></trkpt>
      <trkpt lat="51.462257" lon="5.423133"><ele>26.6</ele></trkpt>
      <trkpt lat="51.461775" lon="5.424188"><ele>27.0</ele></trkpt>
      <trkpt lat="51.461541" lon="5.425268"><ele>28.4</ele></trkpt>
      <trkpt lat="51.461333" lon="5.425619"><ele>26.6</ele></trkpt>
      <trkpt lat="51.460190" lon="5.428584"><ele>24.2</ele></trkpt>
      <trkpt lat="51.458920" lon="5.432423"><ele>27.8</ele></trkpt>
      <trkpt lat="51.458560" lon="5.434058"><ele>27.4</ele></trkpt>
      <trkpt lat="51.458289" lon="5.434572"><ele>27.4</ele></trkpt>
      <trkpt lat="51.458031" lon="5.435512"><ele>28.0</ele></trkpt>
      <trkpt lat="51.457567" lon="5.436318"><ele>23.2</ele></trkpt>
      <trkpt lat="51.456817" lon="5.438139"><ele>27.8</ele></trkpt>
      <trkpt lat="51.455940" lon="5.440998"><ele>28.6</ele></trkpt>
      <trkpt lat="51.455198" lon="5.442642"><ele>30.6</ele></trkpt>
      <trkpt lat="51.454901" lon="5.443756"><ele>28.0</ele></trkpt>
      <trkpt lat="51.454510" lon="5.444644"><ele>24.8</ele></trkpt>
      <trkpt lat="51.454165" lon="5.445762"><ele>23.2</ele></trkpt>
      <trkpt lat="51.453582" lon="5.446837"><ele>21.6</ele></trkpt>
      <trkpt lat="51.453207" lon="5.447290"><ele>22.8</ele></trkpt>
      <trkpt lat="51.452400" lon="5.447989"><ele>24.4</ele></trkpt>
      <trkpt lat="51.451193" lon="5.448675"><ele>21.4</ele></trkpt>
      <trkpt lat="51.450541" lon="5.449294"><ele>22.0</ele></trkpt>
      <trkpt lat="51.450104" lon="5.449998"><ele>21.0</ele></trkpt>
      <trkpt lat="51.448626" lon="5.451526"><ele>18.0</ele></trkpt>
      <trkpt lat="51.448533" lon="5.452110"><ele>17.8</ele></trkpt>
      <trkpt lat="51.448276" lon="5.452935"><ele>23.6</ele></trkpt>
      <trkpt lat="51.448800" lon="5.454696"><ele>23.2</ele></trkpt>
      <trkpt lat="51.449086" lon="5.456418"><ele>22.6</ele></trkpt>
      <trkpt lat="51.448701" lon="5.457032"><ele>26.4</ele></trkpt>
      <trkpt lat="51.448318" lon="5.457878"><ele>24.0</ele></trkpt>
      <trkpt lat="51.447560" lon="5.458480"><ele>25.6</ele></trkpt>
      <trkpt lat="51.447332" lon="5.459134"><ele>21.8</ele></trkpt>
      <trkpt lat="51.447164" lon="5.459234"><ele>20.8</ele></trkpt>
      <trkpt lat="51.446960" lon="5.459665"><ele>20.2</ele></trkpt>
      <trkpt lat="51.445611" lon="5.461550"><ele>20.0</ele></trkpt>
      <trkpt lat="51.445159" lon="5.462535"><ele>19.4</ele></trkpt>
      <trkpt lat="51.444706" lon="5.463993"><ele>19.0</ele></trkpt>
      <trkpt lat="51.444307" lon="5.464495"><ele>18.8</ele></trkpt>
      <trkpt lat="51.443280" lon="5.466161"><ele>17.2</ele></trkpt>
      <trkpt lat="51.442760" lon="5.467249"><ele>23.0</ele></trkpt>
      <trkpt lat="51.442499" lon="5.468097"><ele>29.4</ele></trkpt>
      <trkpt lat="51.441608" lon="5.470101"><ele>20.2</ele></trkpt>
      <trkpt lat="51.441192" lon="5.472461"><ele>25.0</ele></trkpt>
      <trkpt lat="51.441206" lon="5.474334"><ele>23.2</ele></trkpt>
      <trkpt lat="51.441471" lon="5.476971"><ele>20.6</ele></trkpt>
      <trkpt lat="51.441327" lon="5.477995"><ele>21.6</ele></trkpt>
      <trkpt lat="51.441234" lon="5.478081"><ele>22.4</ele></trkpt>
      <trkpt lat="51.440922" lon="5.478028"><ele>25.4</ele></trkpt>
      <trkpt lat="51.438932" lon="5.478754"><ele>24.8</ele></trkpt>
      <trkpt lat="51.438491" lon="5.478351"><ele>25.0</ele></trkpt>
      <trkpt lat="51.438072" lon="5.478714"><ele>24.0</ele></trkpt>
      <trkpt lat="51.437412" lon="5.479835"><ele>19.8</ele></trkpt>
      <trkpt lat="51.436928" lon="5.480473"><ele>20.0</ele></trkpt>
      <trkpt lat="51.436317" lon="5.482592"><ele>16.4</ele></trkpt>
      <trkpt lat="51.435562" lon="5.483322"><ele>20.4</ele></trkpt>
      <trkpt lat="51.434668" lon="5.483731"><ele>19.4</ele></trkpt>
      <trkpt lat="51.434534" lon="5.483907"><ele>19.4</ele></trkpt>
      <trkpt lat="51.434750" lon="5.485275"><ele>22.0</ele></trkpt>
      <trkpt lat="51.434776" lon="5.485938"><ele>20.6</ele></trkpt>
      <trkpt lat="51.435043" lon="5.485992"><ele>20.6</ele></trkpt>
      <trkpt lat="51.435312" lon="5.485854"><ele>20.8</ele></trkpt>
      <trkpt lat="51.436021" lon="5.485328"><ele>20.4</ele></trkpt>
      <trkpt lat="51.436288" lon="5.484990"><ele>19.6</ele></trkpt>
      <trkpt lat="51.437031" lon="5.485284"><ele>20.0</ele></trkpt>
      <trkpt lat="51.437281" lon="5.485524"><ele>18.4</ele></trkpt>
      <trkpt lat="51.437388" lon="5.485498"><ele>19.0</ele></trkpt>
      <trkpt lat="51.438009" lon="5.483741"><ele>20.6</ele></trkpt>
      <trkpt lat="51.438153" lon="5.482999"><ele>20.4</ele></trkpt>
      <trkpt lat="51.438068" lon="5.482475"><ele>21.2</ele></trkpt>
      <trkpt lat="51.438120" lon="5.482205"><ele>21.6</ele></trkpt>
      <trkpt lat="51.438273" lon="5.481972"><ele>23.6</ele></trkpt>
      <trkpt lat="51.438827" lon="5.481536"><ele>23.2</ele></trkpt>
    </trkseg>
  </trk>
</gpx>
