<?xml version="1.0" encoding="UTF-8"?>
<gpx version="1.1" creator="gpx-processor" xmlns="http://www.topografix.com/GPX/1/1">
  <metadata><name>Cours’son Nature Trail</name></metadata>
  <trk>
    <name>Cours’son Nature Trail</name>
    <trkseg>
      <trkpt lat="46.241942" lon="-0.806065"><ele>22.2</ele></trkpt>
      <trkpt lat="46.241885" lon="-0.805753"><ele>22.2</ele></trkpt>
      <trkpt lat="46.241928" lon="-0.805605"><ele>22.4</ele></trkpt>
      <trkpt lat="46.242642" lon="-0.805303"><ele>21.8</ele></trkpt>
      <trkpt lat="46.242766" lon="-0.805353"><ele>21.4</ele></trkpt>
      <trkpt lat="46.242818" lon="-0.805703"><ele>20.8</ele></trkpt>
      <trkpt lat="46.242773" lon="-0.807015"><ele>19.8</ele></trkpt>
      <trkpt lat="46.240912" lon="-0.807730"><ele>21.6</ele></trkpt>
      <trkpt lat="46.240832" lon="-0.809199"><ele>22.2</ele></trkpt>
      <trkpt lat="46.240474" lon="-0.810101"><ele>23.0</ele></trkpt>
      <trkpt lat="46.241544" lon="-0.812640"><ele>22.8</ele></trkpt>
      <trkpt lat="46.241755" lon="-0.813547"><ele>21.0</ele></trkpt>
      <trkpt lat="46.241291" lon="-0.814520"><ele>22.0</ele></trkpt>
      <trkpt lat="46.240988" lon="-0.815695"><ele>23.4</ele></trkpt>
      <trkpt lat="46.240787" lon="-0.817739"><ele>21.2</ele></trkpt>
      <trkpt lat="46.236881" lon="-0.819244"><ele>32.8</ele></trkpt>
      <trkpt lat="46.235737" lon="-0.819500"><ele>38.6</ele></trkpt>
      <trkpt lat="46.235152" lon="-0.819803"><ele>39.0</ele></trkpt>
      <trkpt lat="46.234792" lon="-0.820069"><ele>38.8</ele></trkpt>
      <trkpt lat="46.233841" lon="-0.821464"><ele>37.0</ele></trkpt>
      <trkpt lat="46.233286" lon="-0.822055"><ele>34.2</ele></trkpt>
      <trkpt lat="46.232734" lon="-0.822583"><ele>32.2</ele></trkpt>
      <trkpt lat="46.232006" lon="-0.823022"><ele>30.0</ele></trkpt>
      <trkpt lat="46.232238" lon="-0.823721"><ele>29.8</ele></trkpt>
      <trkpt lat="46.232093" lon="-0.824292"><ele>29.8</ele></trkpt>
      <trkpt lat="46.232107" lon="-0.824532"><ele>29.8</ele></trkpt>
      <trkpt lat="46.232702" lon="-0.826059"><ele>31.8</ele></trkpt>
      <trkpt lat="46.233191" lon="-0.826824"><ele>32.8</ele></trkpt>
      <trkpt lat="46.233625" lon="-0.828217"><ele>35.4</ele></trkpt>
      <trkpt lat="46.233910" lon="-0.828888"><ele>36.0</ele></trkpt>
      <trkpt lat="46.231403" lon="-0.830819"><ele>34.0</ele></trkpt>
      <trkpt lat="46.230886" lon="-0.831255"><ele>33.0</ele></trkpt>
      <trkpt lat="46.230861" lon="-0.831366"><ele>32.8</ele></trkpt>
      <trkpt lat="46.233042" lon="-0.837241"><ele>35.0</ele></trkpt>
      <trkpt lat="46.233010" lon="-0.837392"><ele>35.2</ele></trkpt>
      <trkpt lat="46.231862" lon="-0.836321"><ele>34.0</ele></trkpt>
      <trkpt lat="46.231257" lon="-0.835943"><ele>33.8</ele></trkpt>
      <trkpt lat="46.230686" lon="-0.835427"><ele>32.8</ele></trkpt>
      <trkpt lat="46.229813" lon="-0.835048"><ele>31.4</ele></trkpt>
      <trkpt lat="46.229555" lon="-0.834669"><ele>30.8</ele></trkpt>
      <trkpt lat="46.228825" lon="-0.832851"><ele>33.0</ele></trkpt>
      <trkpt lat="46.226733" lon="-0.827048"><ele>31.4</ele></trkpt>
      <trkpt lat="46.226237" lon="-0.827401"><ele>31.0</ele></trkpt>
      <trkpt lat="46.225180" lon="-0.828565"><ele>27.8</ele></trkpt>
      <trkpt lat="46.224038" lon="-0.826976"><ele>26.2</ele></trkpt>
      <trkpt lat="46.223782" lon="-0.826402"><ele>26.0</ele></trkpt>
      <trkpt lat="46.226128" lon="-0.824154"><ele>31.0</ele></trkpt>
      <trkpt lat="46.226064" lon="-0.823757"><ele>31.2</ele></trkpt>
      <trkpt lat="46.225853" lon="-0.823415"><ele>30.6</ele></trkpt>
      <trkpt lat="46.225491" lon="-0.822463"><ele>29.6</ele></trkpt>
      <trkpt lat="46.225185" lon="-0.822071"><ele>29.4</ele></trkpt>
      <trkpt lat="46.225086" lon="-0.821605"><ele>28.8</ele></trkpt>
      <trkpt lat="46.224712" lon="-0.820839"><ele>27.8</ele></trkpt>
      <trkpt lat="46.225056" lon="-0.820349"><ele>26.4</ele></trkpt>
      <trkpt lat="46.225283" lon="-0.820202"><ele>24.4</ele></trkpt>
      <trkpt lat="46.225738" lon="-0.819648"><ele>26.2</ele></trkpt>
      <trkpt lat="46.225935" lon="-0.819666"><ele>26.0</ele></trkpt>
      <trkpt lat="46.227508" lon="-0.822874"><ele>31.0</ele></trkpt>
      <trkpt lat="46.230863" lon="-0.819589"><ele>31.0</ele></trkpt>
      <trkpt lat="46.231355" lon="-0.819207"><ele>33.2</ele></trkpt>
      <trkpt lat="46.231449" lon="-0.818841"><ele>33.8</ele></trkpt>
      <trkpt lat="46.231437" lon="-0.818163"><ele>34.0</ele></trkpt>
      <trkpt lat="46.231379" lon="-0.817885"><ele>34.0</ele></trkpt>
      <trkpt lat="46.231185" lon="-0.817564"><ele>33.4</ele></trkpt>
      <trkpt lat="46.231157" lon="-0.817332"><ele>33.0</ele></trkpt>
      <trkpt lat="46.231454" lon="-0.816757"><ele>33.4</ele></trkpt>
      <trkpt lat="46.231560" lon="-0.816259"><ele>34.0</ele></trkpt>
      <trkpt lat="46.231646" lon="-0.815158"><ele>34.8</ele></trkpt>
      <trkpt lat="46.231533" lon="-0.814821"><ele>35.0</ele></trkpt>
      <trkpt lat="46.231487" lon="-0.813851"><ele>35.4</ele></trkpt>
      <trkpt lat="46.229526" lon="-0.813677"><ele>32.2</ele></trkpt>
      <trkpt lat="46.228301" lon="-0.813754"><ele>34.0</ele></trkpt>
      <trkpt lat="46.227112" lon="-0.814134"><ele>31.4</ele></trkpt>
      <trkpt lat="46.225976" lon="-0.814924"><ele>31.4</ele></trkpt>
      <trkpt lat="46.225187" lon="-0.815219"><ele>33.4</ele></trkpt>
      <trkpt lat="46.225160" lon="-0.815508"><ele>34.0</ele></trkpt>
      <trkpt lat="46.225750" lon="-0.819615"><ele>28.0</ele></trkpt>
      <trkpt lat="46.224645" lon="-0.820793"><ele>28.6</ele></trkpt>
      <trkpt lat="46.223857" lon="-0.821792"><ele>29.0</ele></trkpt>
      <trkpt lat="46.223175" lon="-0.822409"><ele>27.4</ele></trkpt>
      <trkpt lat="46.222737" lon="-0.822569"><ele>22.4</ele></trkpt>
      <trkpt lat="46.222583" lon="-0.822428"><ele>24.6</ele></trkpt>
      <trkpt lat="46.222573" lon="-0.822067"><ele>26.4</ele></trkpt>
      <trkpt lat="46.222380" lon="-0.821853"><ele>25.8</ele></trkpt>
      <trkpt lat="46.221592" lon="-0.821930"><ele>23.2</ele></trkpt>
      <trkpt lat="46.220851" lon="-0.816429"><ele>27.6</ele></trkpt>
      <trkpt lat="46.220459" lon="-0.816435"><ele>27.0</ele></trkpt>
      <trkpt lat="46.219888" lon="-0.816641"><ele>25.4</ele></trkpt>
      <trkpt lat="46.219353" lon="-0.816555"><ele>24.0</ele></trkpt>
      <trkpt lat="46.218910" lon="-0.815319"><ele>22.8</ele></trkpt>
      <trkpt lat="46.218540" lon="-0.814573"><ele>23.4</ele></trkpt>
      <trkpt lat="46.218221" lon="-0.813348"><ele>24.4</ele></trkpt>
      <trkpt lat="46.217712" lon="-0.812146"><ele>25.0</ele></trkpt>
      <trkpt lat="46.217519" lon="-0.811201"><ele>25.4</ele></trkpt>
      <trkpt lat="46.217253" lon="-0.810770"><ele>25.0</ele></trkpt>
      <trkpt lat="46.217153" lon="-0.810444"><ele>24.6</ele></trkpt>
      <trkpt lat="46.217201" lon="-0.810289"><ele>25.0</ele></trkpt>
      <trkpt lat="46.218083" lon="-0.810315"><ele>27.0</ele></trkpt>
      <trkpt lat="46.218943" lon="-0.810168"><ele>29.4</ele></trkpt>
      <trkpt lat="46.219220" lon="-0.810025"><ele>29.6</ele></trkpt>
      <trkpt lat="46.219132" lon="-0.809293"><ele>30.2</ele></trkpt>
      <trkpt lat="46.218771" lon="-0.808863"><ele>29.4</ele></trkpt>
      <trkpt lat="46.218693" lon="-0.808446"><ele>29.4</ele></trkpt>
      <trkpt lat="46.218218" lon="-0.808215"><ele>28.8</ele></trkpt>
      <trkpt lat="46.218127" lon="-0.807155"><ele>29.2</ele></trkpt>
      <trkpt lat="46.218203" lon="-0.806949"><ele>29.6</ele></trkpt>
      <trkpt lat="46.218553" lon="-0.806644"><ele>30.0</ele></trkpt>
      <trkpt lat="46.219044" lon="-0.806006"><ele>31.4</ele></trkpt>
      <trkpt lat="46.218878" lon="-0.805034"><ele>32.6</ele></trkpt>
      <trkpt lat="46.218660" lon="-0.804885"><ele>32.8</ele></trkpt>
      <trkpt lat="46.218250" lon="-0.803636"><ele>33.6</ele></trkpt>
      <trkpt lat="46.218044" lon="-0.803539"><ele>33.2</ele></trkpt>
      <trkpt lat="46.216871" lon="-0.804390"><ele>30.8</ele></trkpt>
      <trkpt lat="46.216527" lon="-0.804480"><ele>29.8</ele></trkpt>
      <trkpt lat="46.216305" lon="-0.804803"><ele>29.0</ele></trkpt>
      <trkpt lat="46.215268" lon="-0.805610"><ele>25.0</ele></trkpt>
      <trkpt lat="46.215155" lon="-0.805525"><ele>24.8</ele></trkpt>
      <trkpt lat="46.215056" lon="-0.805193"><ele>24.6</ele></trkpt>
      <trkpt lat="46.215207" lon="-0.804678"><ele>25.8</ele></trkpt>
      <trkpt lat="46.215143" lon="-0.804007"><ele>26.6</ele></trkpt>
      <trkpt lat="46.214998" lon="-0.803824"><ele>26.6</ele></trkpt>
      <trkpt lat="46.214687" lon="-0.803775"><ele>26.0</ele></trkpt>
      <trkpt lat="46.214441" lon="-0.803373"><ele>25.8</ele></trkpt>
      <trkpt lat="46.214324" lon="-0.802960"><ele>26.0</ele></trkpt>
      <trkpt lat="46.214072" lon="-0.802968"><ele>25.6</ele></trkpt>
      <trkpt lat="46.214010" lon="-0.802637"><ele>25.6</ele></trkpt>
      <trkpt lat="46.214069" lon="-0.802471"><ele>25.8</ele></trkpt>
      <trkpt lat="46.214045" lon="-0.802146"><ele>26.4</ele></trkpt>
      <trkpt lat="46.214261" lon="-0.802108"><ele>26.6</ele></trkpt>
      <trkpt lat="46.214369" lon="-0.801982"><ele>27.2</ele></trkpt>
      <trkpt lat="46.214461" lon="-0.801111"><ele>28.4</ele></trkpt>
      <trkpt lat="46.214445" lon="-0.800545"><ele>28.8</ele></trkpt>
      <trkpt lat="46.214624" lon="-0.800044"><ele>29.8</ele></trkpt>
      <trkpt lat="46.215177" lon="-0.799622"><ele>31.4</ele></trkpt>
      <trkpt lat="46.215964" lon="-0.800142"><ele>32.4</ele></trkpt>
      <trkpt lat="46.216422" lon="-0.798685"><ele>34.4</ele></trkpt>
      <trkpt lat="46.216107" lon="-0.796221"><ele>35.4</ele></trkpt>
      <trkpt lat="46.214827" lon="-0.796560"><ele>33.6</ele></trkpt>
      <trkpt lat="46.214598" lon="-0.796288"><ele>33.6</ele></trkpt>
      <trkpt lat="46.214346" lon="-0.796258"><ele>33.4</ele></trkpt>
      <trkpt lat="46.214255" lon="-0.796116"><ele>33.0</ele></trkpt>
      <trkpt lat="46.214461" lon="-0.795134"><ele>34.2</ele></trkpt>
      <trkpt lat="46.214488" lon="-0.794631"><ele>34.6</ele></trkpt>
      <trkpt lat="46.214279" lon="-0.794101"><ele>34.8</ele></trkpt>
      <trkpt lat="46.214249" lon="-0.793725"><ele>35.0</ele></trkpt>
      <trkpt lat="46.214024" lon="-0.793034"><ele>35.2</ele></trkpt>
      <trkpt lat="46.213863" lon="-0.789219"><ele>35.0</ele></trkpt>
      <trkpt lat="46.213661" lon="-0.788423"><ele>34.0</ele></trkpt>
      <trkpt lat="46.213521" lon="-0.785986"><ele>35.0</ele></trkpt>
      <trkpt lat="46.213230" lon="-0.785259"><ele>35.4</ele></trkpt>
      <trkpt lat="46.213319" lon="-0.785001"><ele>35.6</ele></trkpt>
      <trkpt lat="46.213676" lon="-0.784487"><ele>35.6</ele></trkpt>
      <trkpt lat="46.213600" lon="-0.784003"><ele>35.6</ele></trkpt>
      <trkpt lat="46.213947" lon="-0.783324"><ele>35.0</ele></trkpt>
      <trkpt lat="46.214066" lon="-0.782783"><ele>35.6</ele></trkpt>
      <trkpt lat="46.216015" lon="-0.782271"><ele>39.2</ele></trkpt>
      <trkpt lat="46.216177" lon="-0.782359"><ele>39.2</ele></trkpt>
      <trkpt lat="46.217211" lon="-0.790020"><ele>41.2</ele></trkpt>
      <trkpt lat="46.217840" lon="-0.795354"><ele>40.2</ele></trkpt>
      <trkpt lat="46.217935" lon="-0.795718"><ele>40.0</ele></trkpt>
      <trkpt lat="46.219285" lon="-0.795380"><ele>43.2</ele></trkpt>
      <trkpt lat="46.219684" lon="-0.795389"><ele>41.0</ele></trkpt>
      <trkpt lat="46.221402" lon="-0.794880"><ele>47.2</ele></trkpt>
      <trkpt lat="46.221441" lon="-0.794660"><ele>47.0</ele></trkpt>
      <trkpt lat="46.221319" lon="-0.793432"><ele>46.4</ele></trkpt>
      <trkpt lat="46.221089" lon="-0.791916"><ele>44.6</ele></trkpt>
      <trkpt lat="46.221168" lon="-0.791744"><ele>44.4</ele></trkpt>
      <trkpt lat="46.233379" lon="-0.788685"><ele>35.4</ele></trkpt>
      <trkpt lat="46.233337" lon="-0.788815"><ele>35.2</ele></trkpt>
      <trkpt lat="46.232831" lon="-0.789304"><ele>36.0</ele></trkpt>
      <trkpt lat="46.231266" lon="-0.791819"><ele>39.4</ele></trkpt>
      <trkpt lat="46.230998" lon="-0.792333"><ele>40.0</ele></trkpt>
      <trkpt lat="46.230775" lon="-0.793011"><ele>41.0</ele></trkpt>
      <trkpt lat="46.229891" lon="-0.794603"><ele>43.8</ele></trkpt>
      <trkpt lat="46.229174" lon="-0.795213"><ele>45.0</ele></trkpt>
      <trkpt lat="46.228155" lon="-0.796642"><ele>44.8</ele></trkpt>
      <trkpt lat="46.226991" lon="-0.797373"><ele>42.2</ele></trkpt>
      <trkpt lat="46.226764" lon="-0.797759"><ele>41.4</ele></trkpt>
      <trkpt lat="46.226623" lon="-0.798440"><ele>40.6</ele></trkpt>
      <trkpt lat="46.226465" lon="-0.798752"><ele>40.4</ele></trkpt>
      <trkpt lat="46.225630" lon="-0.799739"><ele>41.0</ele></trkpt>
      <trkpt lat="46.225068" lon="-0.800563"><ele>39.8</ele></trkpt>
      <trkpt lat="46.224619" lon="-0.801027"><ele>38.4</ele></trkpt>
      <trkpt lat="46.224172" lon="-0.801750"><ele>37.8</ele></trkpt>
      <trkpt lat="46.223378" lon="-0.802551"><ele>38.8</ele></trkpt>
      <trkpt lat="46.222774" lon="-0.803411"><ele>38.8</ele></trkpt>
      <trkpt lat="46.222132" lon="-0.803985"><ele>37.8</ele></trkpt>
      <trkpt lat="46.221400" lon="-0.804918"><ele>35.4</ele></trkpt>
      <trkpt lat="46.221112" lon="-0.805144"><ele>34.4</ele></trkpt>
      <trkpt lat="46.221103" lon="-0.805403"><ele>34.2</ele></trkpt>
      <trkpt lat="46.221495" lon="-0.805440"><ele>34.8</ele></trkpt>
      <trkpt lat="46.222290" lon="-0.805128"><ele>36.0</ele></trkpt>
      <trkpt lat="46.225054" lon="-0.805016"><ele>32.8</ele></trkpt>
      <trkpt lat="46.226357" lon="-0.804442"><ele>31.0</ele></trkpt>
      <trkpt lat="46.228686" lon="-0.802364"><ele>38.6</ele></trkpt>
      <trkpt lat="46.231646" lon="-0.800017"><ele>45.0</ele></trkpt>
      <trkpt lat="46.232374" lon="-0.799779"><ele>44.2</ele></trkpt>
      <trkpt lat="46.233132" lon="-0.799336"><ele>42.2</ele></trkpt>
      <trkpt lat="46.233823" lon="-0.799205"><ele>39.8</ele></trkpt>
      <trkpt lat="46.235743" lon="-0.798065"><ele>27.8</ele></trkpt>
      <trkpt lat="46.236147" lon="-0.797916"><ele>25.6</ele></trkpt>
      <trkpt lat="46.236244" lon="-0.797998"><ele>25.2</ele></trkpt>
      <trkpt lat="46.236211" lon="-0.798108"><ele>25.0</ele></trkpt>
      <trkpt lat="46.235677" lon="-0.798349"><ele>27.2</ele></trkpt>
      <trkpt lat="46.235626" lon="-0.798546"><ele>27.2</ele></trkpt>
      <trkpt lat="46.235659" lon="-0.799032"><ele>27.0</ele></trkpt>
      <trkpt lat="46.234563" lon="-0.799521"><ele>34.6</ele></trkpt>
      <trkpt lat="46.234433" lon="-0.799743"><ele>35.2</ele></trkpt>
      <trkpt lat="46.234349" lon="-0.800190"><ele>36.6</ele></trkpt>
      <trkpt lat="46.234376" lon="-0.800619"><ele>37.0</ele></trkpt>
      <trkpt lat="46.234872" lon="-0.802608"><ele>35.6</ele></trkpt>
      <trkpt lat="46.234770" lon="-0.803206"><ele>36.8</ele></trkpt>
      <trkpt lat="46.234871" lon="-0.804161"><ele>38.2</ele></trkpt>
      <trkpt lat="46.234708" lon="-0.805141"><ele>39.2</ele></trkpt>
      <trkpt lat="46.234714" lon="-0.807016"><ele>40.4</ele></trkpt>
      <trkpt lat="46.234551" lon="-0.807986"><ele>40.4</ele></trkpt>
      <trkpt lat="46.234650" lon="-0.808561"><ele>41.8</ele></trkpt>
      <trkpt lat="46.234818" lon="-0.808897"><ele>41.4</ele></trkpt>
      <trkpt lat="46.235010" lon="-0.809145"><ele>41.0</ele></trkpt>
      <trkpt lat="46.235196" lon="-0.809172"><ele>40.8</ele></trkpt>
      <trkpt lat="46.235272" lon="-0.809437"><ele>40.4</ele></trkpt>
      <trkpt lat="46.235405" lon="-0.809561"><ele>40.6</ele></trkpt>
      <trkpt lat="46.235734" lon="-0.809271"><ele>39.2</ele></trkpt>
      <trkpt lat="46.235812" lon="-0.810058"><ele>38.4</ele></trkpt>
      <trkpt lat="46.235899" lon="-0.810131"><ele>39.0</ele></trkpt>
      <trkpt lat="46.236187" lon="-0.809713"><ele>37.2</ele></trkpt>
      <trkpt lat="46.236652" lon="-0.809559"><ele>35.4</ele></trkpt>
      <trkpt lat="46.236907" lon="-0.809251"><ele>34.4</ele></trkpt>
      <trkpt lat="46.239178" lon="-0.808328"><ele>23.6</ele></trkpt>
      <trkpt lat="46.239491" lon="-0.808101"><ele>22.8</ele></trkpt>
      <trkpt lat="46.241411" lon="-0.807603"><ele>20.4</ele></trkpt>
      <trkpt lat="46.242742" lon="-0.807120"><ele>19.2</ele></trkpt>
      <trkpt lat="46.242828" lon="-0.806926"><ele>19.0</ele></trkpt>
      <trkpt lat="46.242775" lon="-0.805162"><ele>21.0</ele></trkpt>
      <trkpt lat="46.242527" lon="-0.804333"><ele>22.2</ele></trkpt>
      <trkpt lat="46.242286" lon="-0.804360"><ele>22.2</ele></trkpt>
      <trkpt lat="46.241536" lon="-0.804732"><ele>22.8</ele></trkpt>
      <trkpt lat="46.241721" lon="-0.805579"><ele>22.2</ele></trkpt>
      <trkpt lat="46.241947" lon="-0.806062"><ele>21.8</ele></trkpt>
    </trkseg>
  </trk>
</gpx>
